"","name","inDegree1.x","outDegree1.x","TotalDegree.x","betweenness1.x","inCloseness1.x","outCloseness1.x","County","Orgtype","address","lon","lat","inDegree1.y","outDegree1.y","TotalDegree.y","betweenness1.y","inCloseness1.y","outCloseness1.y","inDegreeR","outDegreeR","TotalDegreeR","betweennessR","inClosenessR","outClosenessR","inDegreeM","outDegreeM","TotalDegreeM","betweennessM","inClosenessM","outClosenessM","inDegreeE","outDegreeE","TotalDegreeE","betweennessE","inClosenessE","outClosenessE"
"1","4-H",1,0,1,0,0.00145573484358184,0.00125786163522013,"Montgomery","NGO","Chevy Chase, MD",-77.0788667,38.9692771,NA,NA,NA,NA,NA,NA,NA,NA,NA,NA,NA,NA,NA,NA,NA,NA,NA,NA,NA,NA,NA,NA,NA,NA
"2","A Functional Democracy",1,0,1,0,0.00145823461782866,0.00125786163522013,"Travis","NGO","Austin, TX",-97.7430608,30.267153,NA,NA,NA,NA,NA,NA,NA,NA,NA,NA,NA,NA,NA,NA,NA,NA,NA,NA,NA,NA,NA,NA,NA,NA
"3","Abell Hanger Foundation",1,0,1,0,0.00126103204514304,0.00125786163522013,"Midland","NGO","Midland, TX",-102.0779146,31.9973456,NA,NA,NA,NA,NA,NA,NA,NA,NA,NA,NA,NA,NA,NA,NA,NA,NA,NA,NA,NA,NA,NA,NA,NA
"4","ACE Austin",1,0,1,0,0.00126262023913455,0.00125786163522013,"Travis","NGO","Austin, TX",-97.7430608,30.267153,NA,NA,NA,NA,NA,NA,NA,NA,NA,NA,NA,NA,NA,NA,NA,NA,NA,NA,NA,NA,NA,NA,NA,NA
"5","ActionS, Inc. of Brazoria County",1,8,9,1.27056327246276e-05,0.00125944584382872,0.00127064803049555,"Brazoria","NGO","Angleton, TX",-95.4318847,29.16941,1,8,9,1.27056327246276e-05,0.00125944584382872,0.00127064803049555,0,2,2,0,0.00268096514745308,0.00269541778975741,0,2,2,0,0.00198412698412698,0.00199203187250996,0,2,2,0,0.00420168067226891,0.00423728813559322
"6","ActivateSA",1,0,1,0,0.00145649055482385,0.00125786163522013,"Bexar","NGO","San Antonio, TX",-98.4936282,29.4241219,NA,NA,NA,NA,NA,NA,NA,NA,NA,NA,NA,NA,NA,NA,NA,NA,NA,NA,NA,NA,NA,NA,NA,NA
"7","AIDS Outreach Center",1,0,1,0,0.00125944584382872,0.00125786163522013,"Tarrant","NGO","Fort Worth, TX",-97.3307658,32.7554883,NA,NA,NA,NA,NA,NA,NA,NA,NA,NA,NA,NA,NA,NA,NA,NA,NA,NA,NA,NA,NA,NA,NA,NA
"8","Air Alliance Houston",3,0,3,0,0.00146025136921555,0.00125786163522013,"Harris","NGO","Houston, TX",-95.3698028,29.7604267,3,0,3,0,0.00146025136921555,0.00125786163522013,1,0,1,0,0.00270266343122012,0.00268096514745308,1,0,1,0,0.00223282654533348,0.00198412698412698,2,0,2,0,0.00440193164933135,0.00420168067226891
"9","Air Quality Coalition",1,0,1,0,0.00145731124240372,0.00125786163522013,"Travis","NGO","Austin, TX",-97.7430608,30.267153,1,0,1,0,0.00145731124240372,0.00125786163522013,1,0,1,0,0.00269539825958424,0.00268096514745308,1,0,1,0,0.00199202398349353,0.00198412698412698,1,0,1,0,0.00421940928270042,0.00420168067226891
"10","Alamo Area Council of Governments",0,2,2,0,0.00125786163522013,0.00126103404791929,"Bexar","State Agency","San Antonio, TX",-98.4936282,29.4241219,NA,NA,NA,NA,NA,NA,NA,NA,NA,NA,NA,NA,NA,NA,NA,NA,NA,NA,NA,NA,NA,NA,NA,NA
"11","Alamo Area Texas Master Naturalist",1,0,1,0,0.00125944584382872,0.00125786163522013,"Bexar","NGO","San Antonio, TX",-98.4936282,29.4241219,NA,NA,NA,NA,NA,NA,NA,NA,NA,NA,NA,NA,NA,NA,NA,NA,NA,NA,NA,NA,NA,NA,NA,NA
"12","Alamo Sierra Club",1,0,1,0,0.00145438559535476,0.00125786163522013,"Bexar","NGO","San Antonio, TX",-98.4936282,29.4241219,NA,NA,NA,NA,NA,NA,NA,NA,NA,NA,NA,NA,NA,NA,NA,NA,NA,NA,NA,NA,NA,NA,NA,NA
"13","Albemarle Foundation",1,0,1,0,0.00145842211217727,0.00125786163522013,"Harris","NGO","Pasadena, TX",-95.2091006,29.6910625,NA,NA,NA,NA,NA,NA,NA,NA,NA,NA,NA,NA,NA,NA,NA,NA,NA,NA,NA,NA,NA,NA,NA,NA
"14","Alief Independent School District",1,0,1,0,0.00125944584382872,0.00125786163522013,"Harris","Municipal/County","Houston, TX",-95.3698028,29.7604267,NA,NA,NA,NA,NA,NA,NA,NA,NA,NA,NA,NA,NA,NA,NA,NA,NA,NA,NA,NA,NA,NA,NA,NA
"15","Alliance for a Clean Texas",1,0,1,0,0.00145661346541919,0.00125786163522013,"Travis","NGO","Austin, TX",-97.7430608,30.267153,1,0,1,0,0.00145661346541919,0.00125786163522013,1,0,1,0,0.00304468816500246,0.00268096514745308,1,0,1,0,0.0022346716187819,0.00198412698412698,1,0,1,0,0.00438377448532268,0.00420168067226891
"16","Alliance of Water Efficiency",1,0,1,0,0.00145689944641491,0.00125786163522013,"Cook","NGO","Chicago, IL",-87.6297982,41.8781136,NA,NA,NA,NA,NA,NA,NA,NA,NA,NA,NA,NA,NA,NA,NA,NA,NA,NA,NA,NA,NA,NA,NA,NA
"17","Altrusa International",1,0,1,0,0.00126103204514304,0.00125786163522013,"Cook","NGO","Chicago, IL",-87.6297982,41.8781136,NA,NA,NA,NA,NA,NA,NA,NA,NA,NA,NA,NA,NA,NA,NA,NA,NA,NA,NA,NA,NA,NA,NA,NA
"18","Altrusa International of Greenville",1,8,9,9.52922454347073e-06,0.00125944584382872,0.00127064803049555,"Hunt","NGO","Greenville, TX",-96.1108066,33.1384488,1,8,9,9.52922454347073e-06,0.00125944584382872,0.00127064803049555,0,1,1,0,0.00268096514745308,0.00268817204301075,1,0,1,0,0.00198807157057654,0.00198412698412698,0,4,4,0,0.00420168067226891,0.00427350427350427
"19","Amarillo Area Foundation",2,9,11,2.85876736304122e-05,0.00126103404791929,0.00127226463104326,"Potter","NGO","Amarillo, TX",-101.8312969,35.2219971,2,9,11,2.85876736304122e-05,0.00126103404791929,0.00127226463104326,2,4,6,5.79659739732777e-05,0.00269541778975741,0.002710027100271,2,1,3,7.92060386683881e-06,0.00199203187250996,0.00198807157057654,1,4,5,7.15154115711936e-05,0.00421940928270042,0.00427350427350427
"20","Amarillo College",1,0,1,0,0.00126262224695873,0.00125786163522013,"Potter","University","Amarillo, TX",-101.8312969,35.2219971,NA,NA,NA,NA,NA,NA,NA,NA,NA,NA,NA,NA,NA,NA,NA,NA,NA,NA,NA,NA,NA,NA,NA,NA
"21","Amarillo Estate Planning Council",1,0,1,0,0.00126262224695873,0.00125786163522013,"Potter","NGO","Amarillo, TX",-101.8312969,35.2219971,NA,NA,NA,NA,NA,NA,NA,NA,NA,NA,NA,NA,NA,NA,NA,NA,NA,NA,NA,NA,NA,NA,NA,NA
"22","American Alliance of Museums",2,0,2,0,0.00126421847733323,0.00125786163522013,"Arlington","NGO","Arlington, VA",-77.1067698,38.8799697,2,0,2,0,0.00126421847733323,0.00125786163522013,2,0,2,0,0.00269541778975741,0.00268096514745308,1,0,1,0,0.00199202398349353,0.00198412698412698,1,0,1,0,0.00421940928270042,0.00420168067226891
"23","American Bird Conservancy",2,0,2,0,0.00145665354944642,0.00125786163522013,"Fauquier","NGO","The Plains, VA",-77.7738827,38.8620578,NA,NA,NA,NA,NA,NA,NA,NA,NA,NA,NA,NA,NA,NA,NA,NA,NA,NA,NA,NA,NA,NA,NA,NA
"24","American Cancer Society",1,0,1,0,0.00125944584382872,0.00125786163522013,"Dallas","NGO","Coppell, TX",-97.0150078,32.9545687,NA,NA,NA,NA,NA,NA,NA,NA,NA,NA,NA,NA,NA,NA,NA,NA,NA,NA,NA,NA,NA,NA,NA,NA
"25","American Council for an Energy-Efficient Economy",1,0,1,0,0.00145617802785078,0.00125786163522013,"DC","NGO","Washington, DC",-77.0368707,38.9071923,1,0,1,0,0.00145617802785078,0.00125786163522013,1,0,1,0,0.00304376641547412,0.00268096514745308,1,0,1,0,0.00223389750718356,0.00198412698412698,1,0,1,0,0.00438312589003347,0.00420168067226891
"26","American Donkey and Mule Society",1,0,1,0,0.00126103204514304,0.00125786163522013,"Denton","Private","Lewisville, TX",-96.994174,33.046233,NA,NA,NA,NA,NA,NA,NA,NA,NA,NA,NA,NA,NA,NA,NA,NA,NA,NA,NA,NA,NA,NA,NA,NA
"27","American Farm Bureau Federation",1,0,1,0,0.00125944584382872,0.00125786163522013,"District of Columbia","NGO","Washington, DC",-77.0368707,38.9071923,NA,NA,NA,NA,NA,NA,NA,NA,NA,NA,NA,NA,NA,NA,NA,NA,NA,NA,NA,NA,NA,NA,NA,NA
"28","American Federation of Labor and Congress of Industrial Organizations",1,0,1,0,0.00145641842130847,0.00125786163522013,"Travis","NGO","Austin, TX",-97.7430608,30.267153,NA,NA,NA,NA,NA,NA,NA,NA,NA,NA,NA,NA,NA,NA,NA,NA,NA,NA,NA,NA,NA,NA,NA,NA
"29","American Forage and Grassland Council",1,0,1,0,0.00125944584382872,0.00125786163522013,"Madison","NGO","Berea, KY",-84.2963223,37.568694,NA,NA,NA,NA,NA,NA,NA,NA,NA,NA,NA,NA,NA,NA,NA,NA,NA,NA,NA,NA,NA,NA,NA,NA
"30","American Heart Association",2,10,12,0.00094038561127796,0.00145282083279203,0.00253194427171525,"Travis","NGO","Austin, TX",-97.7430608,30.267153,NA,NA,NA,NA,NA,NA,NA,NA,NA,NA,NA,NA,NA,NA,NA,NA,NA,NA,NA,NA,NA,NA,NA,NA
"31","American Institute of Architects",2,0,2,0,0.00145733531560303,0.00125786163522013,"DC","NGO","Washington, DC",-77.0368707,38.9071923,2,0,2,0,0.00145733531560303,0.00125786163522013,1,0,1,0,0.00268817204301075,0.00268096514745308,1,0,1,0,0.00198807157057654,0.00198412698412698,1,0,1,0,0.00421940928270042,0.00420168067226891
"32","American Institute of Architects, Austin Chapter",1,0,1,0,0.00145676312371111,0.00125786163522013,"Travis","NGO","Austin, TX",-97.7430608,30.267153,NA,NA,NA,NA,NA,NA,NA,NA,NA,NA,NA,NA,NA,NA,NA,NA,NA,NA,NA,NA,NA,NA,NA,NA
"33","American Institute of Architects, Houston Chapter",0,3,3,0,0.00125786163522013,0.00126262626262626,"Harris","NGO","Houston, TX",-95.3698028,29.7604267,NA,NA,NA,NA,NA,NA,NA,NA,NA,NA,NA,NA,NA,NA,NA,NA,NA,NA,NA,NA,NA,NA,NA,NA
"34","American Institute of Certified Planners",1,0,1,0,0.00145731124240372,0.00125786163522013,"Cook","NGO","Chicago, IL",-87.6297982,41.8781136,1,0,1,0,0.00145731124240372,0.00125786163522013,1,0,1,0,0.00269539825958424,0.00268096514745308,1,0,1,0,0.00199202398349353,0.00198412698412698,1,0,1,0,0.00421940928270042,0.00420168067226891
"35","American Membrane Technology Association",1,0,1,0,0.00125944584382872,0.00125786163522013,"Martin","NGO","Stuart, FL",-80.2528257,27.197548,NA,NA,NA,NA,NA,NA,NA,NA,NA,NA,NA,NA,NA,NA,NA,NA,NA,NA,NA,NA,NA,NA,NA,NA
"36","American Planning Association, Texas Chapter",1,9,10,0.000956628263891756,0.00145548133537663,0.0012902995152439,"Dallas","NGO","Dallas, TX",-96.7969879,32.7766642,1,9,10,0.000956628263891756,0.00145548133537663,0.0012902995152439,1,4,5,2.17372402399791e-05,0.00268817204301075,0.002710027100271,1,4,5,1.18809058002582e-05,0.00198807157057654,0.00200801609606541,0,3,3,0,0.00420168067226891,0.00425531914893617
"37","American Poultry Association",1,0,1,0,0.00126103204514304,0.00125786163522013,"Scioto","Private","Lucasville, OH",-82.9968419,38.879518,NA,NA,NA,NA,NA,NA,NA,NA,NA,NA,NA,NA,NA,NA,NA,NA,NA,NA,NA,NA,NA,NA,NA,NA
"38","American Public Gardens Association",1,9,10,0.000652751881227745,0.00125944584382872,0.00258297061138979,"Chester","NGO","Kennett Square, PA",-75.7116032,39.8467767,1,9,10,0.000652751881227745,0.00125944584382872,0.00258297061138979,0,6,6,0,0.00268096514745308,0.00380088278567925,0,3,3,0,0.00198412698412698,0.00199600798403194,0,1,1,0,0.00420168067226891,0.00421940928270042
"39","American Sheep Industry",1,0,1,0,0.00125944584382872,0.00125786163522013,"Tom Green","NGO","San Angelo, TX",-100.4370375,31.4637723,NA,NA,NA,NA,NA,NA,NA,NA,NA,NA,NA,NA,NA,NA,NA,NA,NA,NA,NA,NA,NA,NA,NA,NA
"40","American Society of Heating, Refrigerating and Air-Conditioning Engineers, Inc.",1,0,1,0,0.00125944584382872,0.00125786163522013,"Gwinnett","NGO","Peachtree Corners, GA",-84.2214706,33.9698809,NA,NA,NA,NA,NA,NA,NA,NA,NA,NA,NA,NA,NA,NA,NA,NA,NA,NA,NA,NA,NA,NA,NA,NA
"41","American Society of Landscape Architects",1,0,1,0,0.00145731124240372,0.00125786163522013,"DC","NGO","Washington, DC",-77.0368707,38.9071923,NA,NA,NA,NA,NA,NA,NA,NA,NA,NA,NA,NA,NA,NA,NA,NA,NA,NA,NA,NA,NA,NA,NA,NA
"42","American Water Works Association",2,0,2,0,0.00146115427507241,0.00125786163522013,"Denver","NGO","Denver, CO",-104.990251,39.7392358,2,0,2,0,0.00146115427507241,0.00125786163522013,1,0,1,0,0.00268817204301075,0.00268096514745308,1,0,1,0,0.00198807157057654,0.00198412698412698,1,0,1,0,0.00421940928270042,0.00420168067226891
"43","American Youthworks Texas Conservation Corps",2,0,2,0,0.00145648788308475,0.00125786163522013,"Travis","NGO","Austin, TX",-97.7430608,30.267153,NA,NA,NA,NA,NA,NA,NA,NA,NA,NA,NA,NA,NA,NA,NA,NA,NA,NA,NA,NA,NA,NA,NA,NA
"44","Americares",1,0,1,0,0.00125944584382872,0.00125786163522013,"Fairfield","NGO","Stamford, CT",-73.5387341,41.0534302,NA,NA,NA,NA,NA,NA,NA,NA,NA,NA,NA,NA,NA,NA,NA,NA,NA,NA,NA,NA,NA,NA,NA,NA
"45","AmeriCorps",1,0,1,0,0.00125944584382872,0.00125786163522013,"DC","NGO","Washington, DC",-77.0368707,38.9071923,1,0,1,0,0.00125944584382872,0.00125786163522013,1,0,1,0,0.00268817204301075,0.00268096514745308,1,0,1,0,0.00198807157057654,0.00198412698412698,1,0,1,0,0.00421940928270042,0.00420168067226891
"46","AmeriCorps VISTA grantees",1,0,1,0,0.00125944584382872,0.00125786163522013,"DC","NGO","Washington, DC",-77.0368707,38.9071923,1,0,1,0,0.00125944584382872,0.00125786163522013,1,0,1,0,0.00268817204301075,0.00268096514745308,1,0,1,0,0.00198807157057654,0.00198412698412698,1,0,1,0,0.00421940928270042,0.00420168067226891
"47","Animal World Zoo",1,0,1,0,0.00126103204514304,0.00125786163522013,"Comal","NGO","New Braunfels, TX",-98.1244531,29.7030024,NA,NA,NA,NA,NA,NA,NA,NA,NA,NA,NA,NA,NA,NA,NA,NA,NA,NA,NA,NA,NA,NA,NA,NA
"48","Any Baby Can",1,0,1,0,0.001457664395721,0.00125786163522013,"Travis","NGO","Austin, TX",-97.7430608,30.267153,NA,NA,NA,NA,NA,NA,NA,NA,NA,NA,NA,NA,NA,NA,NA,NA,NA,NA,NA,NA,NA,NA,NA,NA
"49","Aransas Bird and Nature Club",1,0,1,0,0.00125944584382872,0.00125786163522013,"Aransas","NGO","Rockport, TX",-97.0544341,28.0205733,NA,NA,NA,NA,NA,NA,NA,NA,NA,NA,NA,NA,NA,NA,NA,NA,NA,NA,NA,NA,NA,NA,NA,NA
"50","Aransas County",1,0,1,0,0.00125944584382872,0.00125786163522013,"Aransas","Municipal/County","Rockport, TX",-97.0544341,28.0205733,NA,NA,NA,NA,NA,NA,NA,NA,NA,NA,NA,NA,NA,NA,NA,NA,NA,NA,NA,NA,NA,NA,NA,NA
"51","Arbor Day Foundation",1,0,1,0,0.00145496658524473,0.00125786163522013,"Lancaster","NGO","Lincoln, NE",-96.7025955,40.813616,1,0,1,0,0.00145496658524473,0.00125786163522013,1,0,1,0,0.00268817204301075,0.00268096514745308,1,0,1,0,0.00198807157057654,0.00198412698412698,1,0,1,0,0.00425508994936982,0.00420168067226891
"52","Area Agency on Aging",1,0,1,0,0.00145731124240372,0.00125786163522013,"Travis","Municipal/County","Austin, TX",-97.7430608,30.267153,1,0,1,0,0.00145731124240372,0.00125786163522013,1,0,1,0,0.00269539825958424,0.00268096514745308,1,0,1,0,0.00199202398349353,0.00198412698412698,1,0,1,0,0.00421940928270042,0.00420168067226891
"53","Arlington Conservation Council",1,0,1,0,0.00125944584382872,0.00125786163522013,"Tarrant","NGO","Arlington, TX",-97.1080656,32.735687,NA,NA,NA,NA,NA,NA,NA,NA,NA,NA,NA,NA,NA,NA,NA,NA,NA,NA,NA,NA,NA,NA,NA,NA
"54","Arlington Independent School District",1,0,1,0,0.00125944584382872,0.00125786163522013,"Tarrant","NGO","Arlington, TX",-97.1080656,32.735687,NA,NA,NA,NA,NA,NA,NA,NA,NA,NA,NA,NA,NA,NA,NA,NA,NA,NA,NA,NA,NA,NA,NA,NA
"55","Arlington Parks and Recreation Department",1,0,1,0,0.00125944584382872,0.00125786163522013,"Tarrant","Municipal/County","Arlington, TX",-97.1080656,32.735687,NA,NA,NA,NA,NA,NA,NA,NA,NA,NA,NA,NA,NA,NA,NA,NA,NA,NA,NA,NA,NA,NA,NA,NA
"56","Armand Bayou Nature Center",1,8,9,0.000995138431649973,0.00145658941606174,0.00127064803049555,"Harris","NGO","Pasadena, TX",-95.2091006,29.6910625,1,8,9,0.000995138431649973,0.00145658941606174,0.00127064803049555,0,5,5,0,0.00268096514745308,0.00271739130434783,0,5,5,0,0.00198412698412698,0.00200400801603206,0,4,4,0,0.00420168067226891,0.00427350427350427
"57","Art and Environmental Architecture, Inc.",0,1,1,0,0.00125786163522013,0.00125944584382872,"Harris","NGO","Houston, TX",-95.3698028,29.7604267,NA,NA,NA,NA,NA,NA,NA,NA,NA,NA,NA,NA,NA,NA,NA,NA,NA,NA,NA,NA,NA,NA,NA,NA
"58","Assistance League of Austin",1,0,1,0,0.00126103204514304,0.00125786163522013,"Travis","NGO","Austin, TX",-97.7430608,30.267153,NA,NA,NA,NA,NA,NA,NA,NA,NA,NA,NA,NA,NA,NA,NA,NA,NA,NA,NA,NA,NA,NA,NA,NA
"59","Associated Plumbing-Heating-Cooling Contractors of Texas",1,0,1,0,0.00145617802785078,0.00125786163522013,"Hayes","NGO","Buda, TX",-97.8428927,30.0817231,NA,NA,NA,NA,NA,NA,NA,NA,NA,NA,NA,NA,NA,NA,NA,NA,NA,NA,NA,NA,NA,NA,NA,NA
"60","Association of Nature Center Administrators",1,0,1,0,0.00125944584382872,0.00125786163522013,"Cache","NGO","Logan, UT",-111.8338359,41.7369803,NA,NA,NA,NA,NA,NA,NA,NA,NA,NA,NA,NA,NA,NA,NA,NA,NA,NA,NA,NA,NA,NA,NA,NA
"61","Association of Rural Communities in Texas",2,7,9,0.00100348028456382,0.00145599911979902,0.00126903553299492,"Travis","NGO","Austin, TX",-97.7430608,30.267153,NA,NA,NA,NA,NA,NA,NA,NA,NA,NA,NA,NA,NA,NA,NA,NA,NA,NA,NA,NA,NA,NA,NA,NA
"62","Audubon Texas",8,0,8,0,0.00145906799734648,0.00125786163522013,"Travis","NGO","Austin, TX",-97.7430608,30.267153,8,0,8,0,0.00145906799734648,0.00125786163522013,1,0,1,0,0.00268817204301075,0.00268096514745308,2,0,2,0,0.00199203187250996,0.00198412698412698,1,0,1,0,0.00421940928270042,0.00420168067226891
"63","AURA",3,0,3,0,0.00126262626262626,0.00125786163522013,"Travis","NGO","Austin, TX",-97.7430608,30.267153,3,0,3,0,0.00126262626262626,0.00125786163522013,2,0,2,0,0.00269541778975741,0.00268096514745308,1,0,1,0,0.00198807157057654,0.00198412698412698,1,0,1,0,0.00421940928270042,0.00420168067226891
"64","Austin Animal Services",1,0,1,0,0.00126103204514304,0.00125786163522013,"Travis","Municipal/County","Austin, TX",-97.7430608,30.267153,NA,NA,NA,NA,NA,NA,NA,NA,NA,NA,NA,NA,NA,NA,NA,NA,NA,NA,NA,NA,NA,NA,NA,NA
"65","Austin College",1,0,1,0,0.00145637300757534,0.00125786163522013,"Grayson","University","Sherman, TX",-96.6088805,33.6356618,NA,NA,NA,NA,NA,NA,NA,NA,NA,NA,NA,NA,NA,NA,NA,NA,NA,NA,NA,NA,NA,NA,NA,NA
"66","Austin Creative Reuse",1,9,10,2.22348572680984e-05,0.00125944584382872,0.00128533039790203,"Travis","NGO","Austin, TX",-97.7430608,30.267153,1,9,10,2.22348572680984e-05,0.00125944584382872,0.00128533039790203,1,0,1,0,0.00268817204301075,0.00268096514745308,1,5,6,3.9603019334194e-05,0.00198807157057654,0.00203659390803341,1,0,1,0,0.00421940928270042,0.00420168067226891
"67","Austin Free Net",1,0,1,0,0.00145517190821787,0.00125786163522013,"Travis","NGO","Austin, TX",-97.7430608,30.267153,NA,NA,NA,NA,NA,NA,NA,NA,NA,NA,NA,NA,NA,NA,NA,NA,NA,NA,NA,NA,NA,NA,NA,NA
"68","Austin History Center",1,0,1,0,0.00145676312371111,0.00125786163522013,"Travis","NGO","Austin, TX",-97.7430608,30.267153,NA,NA,NA,NA,NA,NA,NA,NA,NA,NA,NA,NA,NA,NA,NA,NA,NA,NA,NA,NA,NA,NA,NA,NA
"69","Austin Independent School District",5,0,5,0,0.00146873843877174,0.00125786163522013,"Travis","NGO","Austin, TX",-97.7430608,30.267153,5,0,5,0,0.00146873843877174,0.00125786163522013,2,0,2,0,0.00270268306681875,0.00268096514745308,2,0,2,0,0.00202415301470026,0.00198412698412698,3,0,3,0,0.00438482886216466,0.00420168067226891
"70","Austin Monitor",1,0,1,0,0.00145823461782866,0.00125786163522013,"Travis","Private","Austin, TX",-97.7430608,30.267153,NA,NA,NA,NA,NA,NA,NA,NA,NA,NA,NA,NA,NA,NA,NA,NA,NA,NA,NA,NA,NA,NA,NA,NA
"71","Austin Neighborhood Alliance",1,0,1,0,0.00145657071155497,0.00125786163522013,"Travis","NGO","Austin, TX",-97.7430608,30.267153,NA,NA,NA,NA,NA,NA,NA,NA,NA,NA,NA,NA,NA,NA,NA,NA,NA,NA,NA,NA,NA,NA,NA,NA
"72","Austin Neighborhoods Council",1,0,1,0,0.00125944584382872,0.00125786163522013,"Travis","NGO","Austin, TX",-97.7430608,30.267153,NA,NA,NA,NA,NA,NA,NA,NA,NA,NA,NA,NA,NA,NA,NA,NA,NA,NA,NA,NA,NA,NA,NA,NA
"73","Austin Outside",3,0,3,0,0.00145693687279693,0.00125786163522013,"Travis","NGO","Austin, TX",-97.7430608,30.267153,3,0,3,0,0.00145693687279693,0.00125786163522013,1,0,1,0,0.00304366680030437,0.00268096514745308,3,0,3,0,0.00224074412305828,0.00198412698412698,1,0,1,0,0.00423721237909642,0.00420168067226891
"74","Austin Parks Foundation",4,0,4,0,0.0014590036511842,0.00125786163522013,"Travis","NGO","Austin, TX",-97.7430608,30.267153,4,0,4,0,0.0014590036511842,0.00125786163522013,1,0,1,0,0.00268817204301075,0.00268096514745308,1,0,1,0,0.00224022518048733,0.00198412698412698,1,0,1,0,0.00434694888208213,0.00420168067226891
"75","Austin Public Health",2,0,2,0,0.00145465204686398,0.00125786163522013,"Travis","Municipal/County","Austin, TX",-97.7430608,30.267153,NA,NA,NA,NA,NA,NA,NA,NA,NA,NA,NA,NA,NA,NA,NA,NA,NA,NA,NA,NA,NA,NA,NA,NA
"76","Austin Resource Recovery",2,0,2,0,0.00146044206882471,0.00125786163522013,"Travis","NGO","Austin, TX",-97.7430608,30.267153,NA,NA,NA,NA,NA,NA,NA,NA,NA,NA,NA,NA,NA,NA,NA,NA,NA,NA,NA,NA,NA,NA,NA,NA
"77","Austin Zoo",1,10,11,1.42938368152061e-05,0.00125944584382872,0.00127876619998679,"Travis","NGO","Austin, TX",-97.7430608,30.267153,NA,NA,NA,NA,NA,NA,NA,NA,NA,NA,NA,NA,NA,NA,NA,NA,NA,NA,NA,NA,NA,NA,NA,NA
"78","Autism Center",1,0,1,0,0.00125944584382872,0.00125786163522013,"Travis","NGO","Austin, TX",-97.7430608,30.267153,NA,NA,NA,NA,NA,NA,NA,NA,NA,NA,NA,NA,NA,NA,NA,NA,NA,NA,NA,NA,NA,NA,NA,NA
"79","AVANCE",1,0,1,0,0.001457664395721,0.00125786163522013,"Travis","NGO","Austin, TX",-97.7430608,30.267153,1,0,1,0,0.001457664395721,0.00125786163522013,1,0,1,0,0.00268817204301075,0.00268096514745308,1,0,1,0,0.00201595934415191,0.00198412698412698,1,0,1,0,0.00430932596323436,0.00420168067226891
"80","B.R.I. Recycling",1,0,1,0,0.00125944584382872,0.00125786163522013,"Tom Green","Private","San Angelo, TX",-100.4370375,31.4637723,NA,NA,NA,NA,NA,NA,NA,NA,NA,NA,NA,NA,NA,NA,NA,NA,NA,NA,NA,NA,NA,NA,NA,NA
"81","BakerRipley Community Center",1,0,1,0,0.00125944584382872,0.00125786163522013,"Harris","NGO","Houston, TX",-95.3698028,29.7604267,NA,NA,NA,NA,NA,NA,NA,NA,NA,NA,NA,NA,NA,NA,NA,NA,NA,NA,NA,NA,NA,NA,NA,NA
"82","Balcones Canyonlands National Wildlife Refuge",2,5,7,0.000427525633992166,0.00126103404791929,0.00257175987406798,"Travis","Federal Agency","Austin, TX",-97.7430608,30.267153,NA,NA,NA,NA,NA,NA,NA,NA,NA,NA,NA,NA,NA,NA,NA,NA,NA,NA,NA,NA,NA,NA,NA,NA
"83","Balcones Canyonlands Preserve",1,0,1,0,0.00126262224695873,0.00125786163522013,"Burnet","NGO","Marble Falls, TX",-98.2729184,30.5782297,NA,NA,NA,NA,NA,NA,NA,NA,NA,NA,NA,NA,NA,NA,NA,NA,NA,NA,NA,NA,NA,NA,NA,NA
"84","Bandera Canyonlands",1,0,1,0,0.00125944584382872,0.00125786163522013,"Bandera","NGO","Vanderpool, TX",-99.5550504,29.7452234,NA,NA,NA,NA,NA,NA,NA,NA,NA,NA,NA,NA,NA,NA,NA,NA,NA,NA,NA,NA,NA,NA,NA,NA
"85","Bandera County River Authority and Groundwater District",1,10,11,1.65437926101922e-05,0.00125944584382872,0.0025852076631546,"Bandera","Municipal/County","Bandera, TX",-99.0736462,29.7266131,NA,NA,NA,NA,NA,NA,NA,NA,NA,NA,NA,NA,NA,NA,NA,NA,NA,NA,NA,NA,NA,NA,NA,NA
"86","Baptist Community Services",1,0,1,0,0.00126262224695873,0.00125786163522013,"Potter","NGO","Amarillo, TX",-101.8312969,35.2219971,NA,NA,NA,NA,NA,NA,NA,NA,NA,NA,NA,NA,NA,NA,NA,NA,NA,NA,NA,NA,NA,NA,NA,NA
"87","Barton Springs Edwards Aquifer Conservation District",1,5,6,0.000230069009232407,0.00145424974266739,0.00252984677540122,"Travis","Municipal/County","Austin, TX",-97.7430608,30.267153,NA,NA,NA,NA,NA,NA,NA,NA,NA,NA,NA,NA,NA,NA,NA,NA,NA,NA,NA,NA,NA,NA,NA,NA
"88","Bay Area Water Keepers",1,0,1,0,0.00145842211217727,0.00125786163522013,"Galveston","NGO","Galveston, TX",-94.7976958,29.3013479,NA,NA,NA,NA,NA,NA,NA,NA,NA,NA,NA,NA,NA,NA,NA,NA,NA,NA,NA,NA,NA,NA,NA,NA
"89","Bayou City Waterkeeper",2,10,12,0.00125162393868262,0.00145492392800142,0.00252865436734278,"Harris","NGO","Houston, TX",-95.3698028,29.7604267,2,10,12,0.00125162393868262,0.00145492392800142,0.00252865436734278,1,10,11,0.000173897921919833,0.00270266343122012,0.00279319122096996,1,10,11,0.000739388370969403,0.00202006409587072,0.00207880446013076,0,5,5,0,0.00420168067226891,0.00431026643630081
"90","Bayou Land Conservancy",2,0,2,0,0.0014568780607742,0.00125786163522013,"Harris","NGO","Houston, TX",-95.3698028,29.7604267,NA,NA,NA,NA,NA,NA,NA,NA,NA,NA,NA,NA,NA,NA,NA,NA,NA,NA,NA,NA,NA,NA,NA,NA
"91","Bayou Preservation Association",2,0,2,0,0.00145856946299293,0.00125786163522013,"Harris","NGO","Houston, TX",-95.3698028,29.7604267,NA,NA,NA,NA,NA,NA,NA,NA,NA,NA,NA,NA,NA,NA,NA,NA,NA,NA,NA,NA,NA,NA,NA,NA
"92","Big Bend Conservancy",1,0,1,0,0.00126581067681016,0.00125786163522013,"Brewster","NGO","Big Bend National Park, TX",-103.2501638,29.2499017,NA,NA,NA,NA,NA,NA,NA,NA,NA,NA,NA,NA,NA,NA,NA,NA,NA,NA,NA,NA,NA,NA,NA,NA
"93","Big Bend Conservation Alliance",1,8,9,0.000427301898892104,0.00126421243864032,0.00259371171906901,"Brewster","NGO","Alpine, TX",-103.6610115,30.3584919,NA,NA,NA,NA,NA,NA,NA,NA,NA,NA,NA,NA,NA,NA,NA,NA,NA,NA,NA,NA,NA,NA,NA,NA
"94","Big Bend Ranch State Park",1,0,1,0,0.00125944584382872,0.00125786163522013,"Presidio","State Agency","Marfa, TX",-104.020623,30.3094622,NA,NA,NA,NA,NA,NA,NA,NA,NA,NA,NA,NA,NA,NA,NA,NA,NA,NA,NA,NA,NA,NA,NA,NA
"95","Big Brothers Big Sisters",1,0,1,0,0.00126103204514304,0.00125786163522013,"Hillsborough","NGO","Tampa, FL",-82.4571776,27.950575,NA,NA,NA,NA,NA,NA,NA,NA,NA,NA,NA,NA,NA,NA,NA,NA,NA,NA,NA,NA,NA,NA,NA,NA
"96","Big Thicket Natural Heritage Trust",2,0,2,0,0.00126581673078119,0.00125786163522013,"Hardin","NGO","Kountze, TX",-94.3124116,30.3715975,NA,NA,NA,NA,NA,NA,NA,NA,NA,NA,NA,NA,NA,NA,NA,NA,NA,NA,NA,NA,NA,NA,NA,NA
"97","Bike Austin",1,0,1,0,0.00126103204514304,0.00125786163522013,"Travis","NGO","Austin, TX",-97.7430608,30.267153,NA,NA,NA,NA,NA,NA,NA,NA,NA,NA,NA,NA,NA,NA,NA,NA,NA,NA,NA,NA,NA,NA,NA,NA
"98","BikeHouston",2,0,2,0,0.00146010904844657,0.00125786163522013,"Harris","NGO","Houston, TX",-95.3698028,29.7604267,NA,NA,NA,NA,NA,NA,NA,NA,NA,NA,NA,NA,NA,NA,NA,NA,NA,NA,NA,NA,NA,NA,NA,NA
"99","Bivins Foundation",1,0,1,0,0.00126262224695873,0.00125786163522013,"Potter","NGO","Amarillo, TX",-101.8312969,35.2219971,NA,NA,NA,NA,NA,NA,NA,NA,NA,NA,NA,NA,NA,NA,NA,NA,NA,NA,NA,NA,NA,NA,NA,NA
"100","Blanco River Regional Recovery Team",1,0,1,0,0.00145622877097226,0.00125786163522013,"Hays","NGO","San Marcos, TX",-97.9413941,29.8832749,NA,NA,NA,NA,NA,NA,NA,NA,NA,NA,NA,NA,NA,NA,NA,NA,NA,NA,NA,NA,NA,NA,NA,NA
"101","Botanic Gardens Conservation International",1,0,1,0,0.00126103204514304,0.00125786163522013,"Los Angeles","NGO","San Marino, CA",-118.1064585,34.121397,NA,NA,NA,NA,NA,NA,NA,NA,NA,NA,NA,NA,NA,NA,NA,NA,NA,NA,NA,NA,NA,NA,NA,NA
"102","Botanical Research Institute of Texas",2,11,13,0.00185174008934177,0.00145454278993764,0.00252969363307335,"Tarrant","NGO","Fort Worth, TX",-97.3307658,32.7554883,NA,NA,NA,NA,NA,NA,NA,NA,NA,NA,NA,NA,NA,NA,NA,NA,NA,NA,NA,NA,NA,NA,NA,NA
"103","Boy and Girl Scouts of America",2,0,2,0,0.00145849712341751,0.00125786163522013,"Dallas","NGO","Irving, TX",-96.9488945,32.8140177,NA,NA,NA,NA,NA,NA,NA,NA,NA,NA,NA,NA,NA,NA,NA,NA,NA,NA,NA,NA,NA,NA,NA,NA
"104","Boy Scouts of America",3,0,3,0,0.00126422049024369,0.00125786163522013,"Dallas","NGO","Irving, TX",-96.9488945,32.8140177,3,0,3,0,0.00126422049024369,0.00125786163522013,1,0,1,0,0.00268817204301075,0.00268096514745308,2,0,2,0,0.00199203187250996,0.00198412698412698,1,0,1,0,0.00421940928270042,0.00420168067226891
"105","Boys and Girls Club of Brazoria County",1,0,1,0,0.00126103204514304,0.00125786163522013,"Brazoria","NGO","Angleton, TX",-95.4318847,29.16941,NA,NA,NA,NA,NA,NA,NA,NA,NA,NA,NA,NA,NA,NA,NA,NA,NA,NA,NA,NA,NA,NA,NA,NA
"106","Brazoria County Office of Emergency Management",1,0,1,0,0.00126103204514304,0.00125786163522013,"Brazoria","Municipal/County","Angleton, TX",-95.4318847,29.16941,NA,NA,NA,NA,NA,NA,NA,NA,NA,NA,NA,NA,NA,NA,NA,NA,NA,NA,NA,NA,NA,NA,NA,NA
"107","Brazoria Heritage Foundation",1,0,1,0,0.00126103204514304,0.00125786163522013,"Brazoria","NGO","Brazoria, TX",-95.5691126,29.0444147,NA,NA,NA,NA,NA,NA,NA,NA,NA,NA,NA,NA,NA,NA,NA,NA,NA,NA,NA,NA,NA,NA,NA,NA
"108","Brazos Valley Children's Museum",1,0,1,0,0.00125944584382872,0.00125786163522013,"Brazos","NGO","Bryan, TX",-96.3699632,30.6743643,NA,NA,NA,NA,NA,NA,NA,NA,NA,NA,NA,NA,NA,NA,NA,NA,NA,NA,NA,NA,NA,NA,NA,NA
"109","Buffalo Bayou Partnership",4,0,4,0,0.00145889642019157,0.00125786163522013,"Harris","NGO","Houston, TX",-95.3698028,29.7604267,NA,NA,NA,NA,NA,NA,NA,NA,NA,NA,NA,NA,NA,NA,NA,NA,NA,NA,NA,NA,NA,NA,NA,NA
"110","Caddo Bio-Control Alliance",1,0,1,0,0.00126421243864032,0.00125786163522013,"Harrison","NGO","Uncertain, TX",-94.1212965,32.7120883,NA,NA,NA,NA,NA,NA,NA,NA,NA,NA,NA,NA,NA,NA,NA,NA,NA,NA,NA,NA,NA,NA,NA,NA
"111","Caddo Lake Institute",1,4,5,5.5163622079425e-05,0.00126262224695873,0.00255689411431313,"Harrison","NGO","Shreveport, LA",-93.7501789,32.5251516,NA,NA,NA,NA,NA,NA,NA,NA,NA,NA,NA,NA,NA,NA,NA,NA,NA,NA,NA,NA,NA,NA,NA,NA
"112","Cameron Park Zoo",1,0,1,0,0.00126103204514304,0.00125786163522013,"McLennan","NGO","Waco, TX",-97.1466695,31.549333,NA,NA,NA,NA,NA,NA,NA,NA,NA,NA,NA,NA,NA,NA,NA,NA,NA,NA,NA,NA,NA,NA,NA,NA
"113","Camp of the Hills",1,0,1,0,0.00125944584382872,0.00125786163522013,"Burnet","NGO","Marble Falls, TX",-98.2729184,30.5782297,NA,NA,NA,NA,NA,NA,NA,NA,NA,NA,NA,NA,NA,NA,NA,NA,NA,NA,NA,NA,NA,NA,NA,NA
"114","Cap Metro",3,0,3,0,0.00146964099298866,0.00125786163522013,"Travis","Municipal/County","Austin, TX",-97.7430608,30.267153,3,0,3,0,0.00146964099298866,0.00125786163522013,1,0,1,0,0.00268817204301075,0.00268096514745308,3,0,3,0,0.00226558206992226,0.00198412698412698,1,0,1,0,0.00423721237909642,0.00420168067226891
"115","Capital City Innovation",1,0,1,0,0.00145676312371111,0.00125786163522013,"Travis","NGO","Austin, TX",-97.7430608,30.267153,NA,NA,NA,NA,NA,NA,NA,NA,NA,NA,NA,NA,NA,NA,NA,NA,NA,NA,NA,NA,NA,NA,NA,NA
"116","Carl B. and Florence E. King Foundation",1,0,1,0,0.00126739879964245,0.00125786163522013,"Dallas","NGO","Dallas, TX",-96.7969879,32.7766642,NA,NA,NA,NA,NA,NA,NA,NA,NA,NA,NA,NA,NA,NA,NA,NA,NA,NA,NA,NA,NA,NA,NA,NA
"117","Carson Ridge Neighborhood Association",1,0,1,0,0.00125944584382872,0.00125786163522013,"Travis","NGO","Austin, TX",-97.7430608,30.267153,NA,NA,NA,NA,NA,NA,NA,NA,NA,NA,NA,NA,NA,NA,NA,NA,NA,NA,NA,NA,NA,NA,NA,NA
"118","Casting for Recovery",1,0,1,0,0.00126103204514304,0.00125786163522013,"Gallatin","NGO","Bozeman, MT",-111.0429339,45.6769979,1,0,1,0,0.00126103204514304,0.00125786163522013,1,0,1,0,0.00268817204301075,0.00268096514745308,1,0,1,0,0.00198807157057654,0.00198412698412698,1,0,1,0,0.00421940928270042,0.00420168067226891
"119","Cattlemen's Texas Longhorn Conservancy",0,6,6,0,0.00125786163522013,0.00128203265146635,"Bandera","NGO","Tarpley, TX",-99.2764299,29.6571703,NA,NA,NA,NA,NA,NA,NA,NA,NA,NA,NA,NA,NA,NA,NA,NA,NA,NA,NA,NA,NA,NA,NA,NA
"120","Cattlemen's Texas Longhorn Registry",2,0,2,0,0.00126103404791929,0.00125786163522013,"Bandera","NGO","Tarpley, TX",-99.2764299,29.6571703,NA,NA,NA,NA,NA,NA,NA,NA,NA,NA,NA,NA,NA,NA,NA,NA,NA,NA,NA,NA,NA,NA,NA,NA
"121","Cedar Hill State Park",1,0,1,0,0.00126262224695873,0.00125786163522013,"Dallas","Municipal/County","Cedar Hill, TX",-96.9561152,32.5884689,NA,NA,NA,NA,NA,NA,NA,NA,NA,NA,NA,NA,NA,NA,NA,NA,NA,NA,NA,NA,NA,NA,NA,NA
"122","Center for the Study and Advancement of Early Texas Art",1,0,1,0,0.00126103204514304,0.00125786163522013,"Tom Green","NGO","San Angelo, TX",-100.4370375,31.4637723,NA,NA,NA,NA,NA,NA,NA,NA,NA,NA,NA,NA,NA,NA,NA,NA,NA,NA,NA,NA,NA,NA,NA,NA
"123","Center for the Study of the American West",1,0,1,0,0.00125944584382872,0.00125786163522013,"Randall","NGO","Canyon, TX",-101.9188024,34.9803342,NA,NA,NA,NA,NA,NA,NA,NA,NA,NA,NA,NA,NA,NA,NA,NA,NA,NA,NA,NA,NA,NA,NA,NA
"124","CenterPoint Energy",1,0,1,0,0.00126580865883268,0.00125786163522013,"Harris","Private","Houston, TX",-95.3698028,29.7604267,NA,NA,NA,NA,NA,NA,NA,NA,NA,NA,NA,NA,NA,NA,NA,NA,NA,NA,NA,NA,NA,NA,NA,NA
"125","Central Fort Bend Chamber of Commerce",1,0,1,0,0.00145643177882781,0.00125786163522013,"Fort Bend","NGO","Rosenberg, TX",-95.8085623,29.5571825,NA,NA,NA,NA,NA,NA,NA,NA,NA,NA,NA,NA,NA,NA,NA,NA,NA,NA,NA,NA,NA,NA,NA,NA
"126","Central Texas Families for Safe Streets",1,0,1,0,0.00126103204514304,0.00125786163522013,"Travis","NGO","Austin, TX",-97.7430608,30.267153,NA,NA,NA,NA,NA,NA,NA,NA,NA,NA,NA,NA,NA,NA,NA,NA,NA,NA,NA,NA,NA,NA,NA,NA
"127","Central Texas Food Bank",3,0,3,0,0.00145792937305365,0.00125786163522013,"Travis","NGO","Austin, TX",-97.7430608,30.267153,NA,NA,NA,NA,NA,NA,NA,NA,NA,NA,NA,NA,NA,NA,NA,NA,NA,NA,NA,NA,NA,NA,NA,NA
"128","Central Texas Trail Tamers",1,6,7,0.000565578383846543,0.00126103204514304,0.00257360210296353,"Travis","NGO","Austin, TX",-97.7430608,30.267153,NA,NA,NA,NA,NA,NA,NA,NA,NA,NA,NA,NA,NA,NA,NA,NA,NA,NA,NA,NA,NA,NA,NA,NA
"129","Chamber of Cedar Hill",1,0,1,0,0.00126262224695873,0.00125786163522013,"Dallas","NGO","Cedar Hill, TX",-96.9561152,32.5884689,NA,NA,NA,NA,NA,NA,NA,NA,NA,NA,NA,NA,NA,NA,NA,NA,NA,NA,NA,NA,NA,NA,NA,NA
"130","Chihuahuan Desert Research Institute",0,2,2,0,0.00125786163522013,0.00259289859284634,"Jeff Davis","NGO","Fort Davis, TX",-103.8946253,30.5882111,NA,NA,NA,NA,NA,NA,NA,NA,NA,NA,NA,NA,NA,NA,NA,NA,NA,NA,NA,NA,NA,NA,NA,NA
"131","Cibolo Nature Center and Farm",1,0,1,0,0.00145700905767847,0.00125786163522013,"Kendall","NGO","Boerne, TX",-98.7319703,29.7946641,NA,NA,NA,NA,NA,NA,NA,NA,NA,NA,NA,NA,NA,NA,NA,NA,NA,NA,NA,NA,NA,NA,NA,NA
"132","Citizens' Environmental Coalition Educational Fund",2,9,11,0.0024415200221452,0.00145403136605697,0.0025339805515397,"Harris","NGO","Houston, TX",-95.3698028,29.7604267,2,9,11,0.0024415200221452,0.00145403136605697,0.0025339805515397,2,9,11,0.000995324078099489,0.00269541778975741,0.00392235425607069,2,3,5,0.000747308974836241,0.00201605630528624,0.00208730148849909,1,0,1,0,0.00429145692246406,0.00420168067226891
"133","City Forest Credits",1,0,1,0,0.00145496658524473,0.00125786163522013,"King","NGO","Seattle, WA",-122.3320708,47.6062095,1,0,1,0,0.00145496658524473,0.00125786163522013,1,0,1,0,0.00268817204301075,0.00268096514745308,1,0,1,0,0.00198807157057654,0.00198412698412698,1,0,1,0,0.00425508994936982,0.00420168067226891
"134","City of Amarillo",1,0,1,0,0.00126262224695873,0.00125786163522013,"Potter","Municipal/County","Amarillo, TX",-101.8312969,35.2219971,NA,NA,NA,NA,NA,NA,NA,NA,NA,NA,NA,NA,NA,NA,NA,NA,NA,NA,NA,NA,NA,NA,NA,NA
"135","City of Austin",6,0,6,0,0.00146559632604165,0.00125786163522013,"Travis","Municipal/County","Austin, TX",-97.7430608,30.267153,6,0,6,0,0.00146559632604165,0.00125786163522013,4,0,4,0,0.00307399909102177,0.00268096514745308,4,0,4,0,0.00225075062309548,0.00198412698412698,1,0,1,0,0.00434694888208213,0.00420168067226891
"136","City of Austin Office of Sustainability",3,0,3,0,0.00145837657340281,0.00125786163522013,"Travis","Municipal/County","Austin, TX",-97.7430608,30.267153,3,0,3,0,0.00145837657340281,0.00125786163522013,1,0,1,0,0.00268817204301075,0.00268096514745308,3,0,3,0,0.00201606438580178,0.00198412698412698,1,0,1,0,0.00421940928270042,0.00420168067226891
"137","City of Austin Park Rangers",1,0,1,0,0.00145583360225306,0.00125786163522013,"Travis","Municipal/County","Austin, TX",-97.7430608,30.267153,NA,NA,NA,NA,NA,NA,NA,NA,NA,NA,NA,NA,NA,NA,NA,NA,NA,NA,NA,NA,NA,NA,NA,NA
"138","City of Austin Watershed Protection Department",3,0,3,0,0.00145804181678621,0.00125786163522013,"Travis","Municipal/County","Austin, TX",-97.7430608,30.267153,3,0,3,0,0.00145804181678621,0.00125786163522013,1,0,1,0,0.0027026437959068,0.00268096514745308,2,0,2,0,0.00202008032128514,0.00198412698412698,2,0,2,0,0.00430971777713122,0.00420168067226891
"139","City of Boerne",1,0,1,0,0.00145691815936556,0.00125786163522013,"Kendall","Municipal/County","Boerne, TX",-98.7319703,29.7946641,1,0,1,0,0.00145691815936556,0.00125786163522013,1,0,1,0,0.00304526142586999,0.00268096514745308,1,0,1,0,0.00223537672541752,0.00198412698412698,1,0,1,0,0.00440209517441213,0.00420168067226891
"140","City of Cedar Hill",1,0,1,0,0.00126262224695873,0.00125786163522013,"Dallas","Municipal/County","Cedar Hill, TX",-96.9561152,32.5884689,NA,NA,NA,NA,NA,NA,NA,NA,NA,NA,NA,NA,NA,NA,NA,NA,NA,NA,NA,NA,NA,NA,NA,NA
"141","City of Cedar Park",1,0,1,0,0.00146204214511413,0.00125786163522013,"Williamson","Municipal/County","Cedar Park, TX",-97.8202888,30.505198,NA,NA,NA,NA,NA,NA,NA,NA,NA,NA,NA,NA,NA,NA,NA,NA,NA,NA,NA,NA,NA,NA,NA,NA
"142","City of Dallas",1,0,1,0,0.00126103204514304,0.00125786163522013,"Dallas","Municipal/County","Dallas, TX",-96.7969879,32.7766642,NA,NA,NA,NA,NA,NA,NA,NA,NA,NA,NA,NA,NA,NA,NA,NA,NA,NA,NA,NA,NA,NA,NA,NA
"143","City of El Paso",1,0,1,0,0.00126103204514304,0.00125786163522013,"El Paso","Municipal/County","El Paso, TX",-106.4850217,31.7618778,NA,NA,NA,NA,NA,NA,NA,NA,NA,NA,NA,NA,NA,NA,NA,NA,NA,NA,NA,NA,NA,NA,NA,NA
"144","City of Fort Worth",1,0,1,0,0.00145599111001902,0.00125786163522013,"Tarrant","Municipal/County","Fort Worth, TX",-97.3307658,32.7554883,NA,NA,NA,NA,NA,NA,NA,NA,NA,NA,NA,NA,NA,NA,NA,NA,NA,NA,NA,NA,NA,NA,NA,NA
"145","City of Houston",4,0,4,0,0.00145878384461196,0.00125786163522013,"Harris","Municipal/County","Houston, TX",-95.3698028,29.7604267,4,0,4,0,0.00145878384461196,0.00125786163522013,1,0,1,0,0.00268817204301075,0.00268096514745308,3,0,3,0,0.00223785308472254,0.00198412698412698,2,0,2,0,0.00440193164933135,0.00420168067226891
"146","City of Houston Green Building Resource Center",0,8,8,0,0.00125786163522013,0.00255178287348749,"Harris","Municipal/County","Houston, TX",-95.3698028,29.7604267,0,8,8,0,0.00125786163522013,0.00255178287348749,0,7,7,0,0.00268096514745308,0.00398453315624297,0,6,6,0,0.00198412698412698,0.00271645208675365,0,2,2,0,0.00420168067226891,0.00423728813559322
"147","City of Houston Resiliency Office",1,0,1,0,0.00145675510552301,0.00125786163522013,"Harris","Municipal/County","Houston, TX",-95.3698028,29.7604267,1,0,1,0,0.00145675510552301,0.00125786163522013,1,0,1,0,0.00270992839087075,0.00268096514745308,1,0,1,0,0.00202407970769553,0.00198412698412698,1,0,1,0,0.00421940928270042,0.00420168067226891
"148","City of Karnes",1,0,1,0,0.00145884549099154,0.00125786163522013,"Karnes","Municipal/County","Karnes City, TX",-97.9008355,28.8849772,NA,NA,NA,NA,NA,NA,NA,NA,NA,NA,NA,NA,NA,NA,NA,NA,NA,NA,NA,NA,NA,NA,NA,NA
"149","City of Midland",1,0,1,0,0.00125944584382872,0.00125786163522013,"Midland","Municipal/County","Midland, TX",-102.0779146,31.9973456,NA,NA,NA,NA,NA,NA,NA,NA,NA,NA,NA,NA,NA,NA,NA,NA,NA,NA,NA,NA,NA,NA,NA,NA
"150","City of Pasadena",1,0,1,0,0.00145842211217727,0.00125786163522013,"Harris","Municipal/County","Pasadena, TX",-95.2091006,29.6910625,1,0,1,0,0.00145842211217727,0.00125786163522013,1,0,1,0,0.00268817204301075,0.00268096514745308,1,0,1,0,0.00198807157057654,0.00198412698412698,1,0,1,0,0.00421940928270042,0.00420168067226891
"151","City of Pflugerville",1,0,1,0,0.00146204214511413,0.00125786163522013,"Travis","Municipal/County","Pflugerville, TX",-97.6222665,30.4548451,NA,NA,NA,NA,NA,NA,NA,NA,NA,NA,NA,NA,NA,NA,NA,NA,NA,NA,NA,NA,NA,NA,NA,NA
"152","City of Rosenberg Parks and Recreation",1,0,1,0,0.00145670165319126,0.00125786163522013,"Fort Bend","Municipal/County","Rosenberg, TX",-95.8085623,29.5571825,NA,NA,NA,NA,NA,NA,NA,NA,NA,NA,NA,NA,NA,NA,NA,NA,NA,NA,NA,NA,NA,NA,NA,NA
"153","City of San Antonio",1,0,1,0,0.00126103204514304,0.00125786163522013,"Bexar","Municipal/County","San Antonio, TX",-98.4936282,29.4241219,NA,NA,NA,NA,NA,NA,NA,NA,NA,NA,NA,NA,NA,NA,NA,NA,NA,NA,NA,NA,NA,NA,NA,NA
"154","City of San Antonio Parks and Recreation",3,0,3,0,0.00145680856177767,0.00125786163522013,"Bexar","Municipal/County","San Antonio, TX",-98.4936282,29.4241219,3,0,3,0,0.00145680856177767,0.00125786163522013,2,0,2,0,0.00304486261285227,0.00268096514745308,2,0,2,0,0.00224026509061271,0.00198412698412698,2,0,2,0,0.00423728813559322,0.00420168067226891
"155","City of San Marcos",1,0,1,0,0.00146204214511413,0.00125786163522013,"Hays","Municipal/County","San Marcos, TX",-97.9413941,29.8832749,NA,NA,NA,NA,NA,NA,NA,NA,NA,NA,NA,NA,NA,NA,NA,NA,NA,NA,NA,NA,NA,NA,NA,NA
"156","Clean Water Action",2,0,2,0,0.00145657338359796,0.00125786163522013,"Travis","NGO","Austin, TX",-97.7430608,30.267153,NA,NA,NA,NA,NA,NA,NA,NA,NA,NA,NA,NA,NA,NA,NA,NA,NA,NA,NA,NA,NA,NA,NA,NA
"157","Cleaning for a Reason",0,7,7,0,0.00125786163522013,0.00126903553299492,"Denton","NGO","Lewisville, TX",-96.994174,33.046233,NA,NA,NA,NA,NA,NA,NA,NA,NA,NA,NA,NA,NA,NA,NA,NA,NA,NA,NA,NA,NA,NA,NA,NA
"158","Coalition for a New Dallas",1,0,1,0,0.00126103204514304,0.00125786163522013,"Dallas","NGO","Dallas, TX",-96.7969879,32.7766642,NA,NA,NA,NA,NA,NA,NA,NA,NA,NA,NA,NA,NA,NA,NA,NA,NA,NA,NA,NA,NA,NA,NA,NA
"159","Coalition for Environment, Equity, and Resilience",3,0,3,0,0.00145702509973465,0.00125786163522013,"Harris","NGO","Houston, TX",-95.3698028,29.7604267,3,0,3,0,0.00145702509973465,0.00125786163522013,2,0,2,0,0.00304481276856967,0.00268096514745308,3,0,3,0,0.00225464488222506,0.00198412698412698,2,0,2,0,0.00442213680635892,0.00420168067226891
"160","Coastal Bend Bays and Estuaries Program",4,10,14,0.00176780944856296,0.00145426572401919,0.0025315002805693,"Nueces","NGO","Corpus Christi, TX",-97.396381,27.8005828,NA,NA,NA,NA,NA,NA,NA,NA,NA,NA,NA,NA,NA,NA,NA,NA,NA,NA,NA,NA,NA,NA,NA,NA
"161","Coastal Bend Bays Foundation",1,0,1,0,0.00145609524403349,0.00125786163522013,"Nueces","NGO","Corpus Christi, TX",-97.396381,27.8005828,NA,NA,NA,NA,NA,NA,NA,NA,NA,NA,NA,NA,NA,NA,NA,NA,NA,NA,NA,NA,NA,NA,NA,NA
"162","Coastal Bend Community Foundation",1,0,1,0,0.00145609524403349,0.00125786163522013,"Nueces","NGO","Corpus Christi, TX",-97.396381,27.8005828,NA,NA,NA,NA,NA,NA,NA,NA,NA,NA,NA,NA,NA,NA,NA,NA,NA,NA,NA,NA,NA,NA,NA,NA
"163","Coastal Conservation Association",3,0,3,0,0.00145633561015693,0.00125786163522013,"Harris","NGO","Houston, TX",-95.3698028,29.7604267,NA,NA,NA,NA,NA,NA,NA,NA,NA,NA,NA,NA,NA,NA,NA,NA,NA,NA,NA,NA,NA,NA,NA,NA
"164","Coastal Prairie Partnership",1,10,11,0.00298009079622282,0.00145475865480629,0.00253292968089552,"Harris","NGO","Houston, TX",-95.3698028,29.7604267,NA,NA,NA,NA,NA,NA,NA,NA,NA,NA,NA,NA,NA,NA,NA,NA,NA,NA,NA,NA,NA,NA,NA,NA
"165","Comal County Conservation Alliance",4,6,10,0.00527779873963896,0.0014545241379563,0.00253751949479713,"Comal","NGO","Canyon Lake, TX",-98.2625127,29.8752177,4,6,10,0.00527779873963896,0.0014545241379563,0.00253751949479713,2,0,2,0,0.00304476292591895,0.00268096514745308,3,0,3,0,0.00223481061868266,0.00198412698412698,1,0,1,0,0.00421940928270042,0.00420168067226891
"166","Comal Independent School District",1,0,1,0,0.00145606854158414,0.00125786163522013,"Comal","NGO","New Braunfels, TX",-98.1244531,29.7030024,NA,NA,NA,NA,NA,NA,NA,NA,NA,NA,NA,NA,NA,NA,NA,NA,NA,NA,NA,NA,NA,NA,NA,NA
"167","Comal Master Gardeners",1,0,1,0,0.00145606854158414,0.00125786163522013,"Comal","NGO","New Braunfels, TX",-98.1244531,29.7030024,1,0,1,0,0.00145606854158414,0.00125786163522013,1,0,1,0,0.00268817204301075,0.00268096514745308,1,0,1,0,0.00198807157057654,0.00198412698412698,1,0,1,0,0.00421940928270042,0.00420168067226891
"168","Coming Clean",1,0,1,0,0.00125944584382872,0.00125786163522013,"Windham","NGO","Brattleboro, VT",-72.5578678,42.8509152,NA,NA,NA,NA,NA,NA,NA,NA,NA,NA,NA,NA,NA,NA,NA,NA,NA,NA,NA,NA,NA,NA,NA,NA
"169","Communities in Schools",1,0,1,0,0.001457664395721,0.00125786163522013,"Arlington","NGO","Arlington, VA",-77.1067698,38.8799697,NA,NA,NA,NA,NA,NA,NA,NA,NA,NA,NA,NA,NA,NA,NA,NA,NA,NA,NA,NA,NA,NA,NA,NA
"170","Communities Unlimited",2,0,2,0,0.00146275860798438,0.00125786163522013,"Washington","NGO","Fayetteville, AR",-94.1718542,36.082156,NA,NA,NA,NA,NA,NA,NA,NA,NA,NA,NA,NA,NA,NA,NA,NA,NA,NA,NA,NA,NA,NA,NA,NA
"171","Community Action Corporation of South Texas",1,0,1,0,0.00145589766909683,0.00125786163522013,"Jim Wells","NGO","Alice, TX",-98.0697249,27.7522487,NA,NA,NA,NA,NA,NA,NA,NA,NA,NA,NA,NA,NA,NA,NA,NA,NA,NA,NA,NA,NA,NA,NA,NA
"172","Community Care",1,0,1,0,0.00145464671687702,0.00125786163522013,"Travis","NGO","Austin, TX",-97.7430608,30.267153,NA,NA,NA,NA,NA,NA,NA,NA,NA,NA,NA,NA,NA,NA,NA,NA,NA,NA,NA,NA,NA,NA,NA,NA
"173","Community Development Corporation of Brownsville",1,0,1,0,0.00145589766909683,0.00125786163522013,"Cameron","NGO","Brownsville, TX",-97.4974838,25.9017472,1,0,1,0,0.00145589766909683,0.00125786163522013,1,0,1,0,0.0030426958939964,0.00268096514745308,1,0,1,0,0.00223337181422609,0.00198412698412698,1,0,1,0,0.00438328802086223,0.00420168067226891
"174","Community Not Commodity",1,0,1,0,0.00145438559535476,0.00125786163522013,"Travis","NGO","Austin, TX",-97.7430608,30.267153,NA,NA,NA,NA,NA,NA,NA,NA,NA,NA,NA,NA,NA,NA,NA,NA,NA,NA,NA,NA,NA,NA,NA,NA
"175","Community Powered Workshop",1,0,1,0,0.00145704916348128,0.00125786163522013,"Travis","NGO","Austin, TX",-97.7430608,30.267153,1,0,1,0,0.00145704916348128,0.00125786163522013,1,0,1,0,0.0030457600890803,0.00268096514745308,1,0,1,0,0.00223578410237491,0.00198412698412698,1,0,1,0,0.00438458549941724,0.00420168067226891
"176","Conservation Society of San Antonio",1,0,1,0,0.00126103204514304,0.00125786163522013,"Bexar","NGO","San Antonio, TX",-98.4936282,29.4241219,NA,NA,NA,NA,NA,NA,NA,NA,NA,NA,NA,NA,NA,NA,NA,NA,NA,NA,NA,NA,NA,NA,NA,NA
"177","County Judges and Commissioners Association of Texas",1,0,1,0,0.00125944584382872,0.00125786163522013,"Cass","NGO","Atlanta, TX",-94.1643537,33.1137419,NA,NA,NA,NA,NA,NA,NA,NA,NA,NA,NA,NA,NA,NA,NA,NA,NA,NA,NA,NA,NA,NA,NA,NA
"178","Creative Action",1,7,8,2.22348572680984e-05,0.00126103204514304,0.00126903553299492,"Travis","NGO","Austin, TX",-97.7430608,30.267153,1,7,8,2.22348572680984e-05,0.00126103204514304,0.00126903553299492,0,5,5,0,0.00268096514745308,0.00271739130434783,1,6,7,4.75236232010328e-05,0.00199202398349353,0.00200803212851406,0,2,2,0,0.00420168067226891,0.00423728813559322
"179","Crowes Nest Farm, Inc.",1,4,5,4.76461227173537e-06,0.00125944584382872,0.00127875384310624,"Travis","NGO","Manor, TX",-97.5569456,30.3407629,NA,NA,NA,NA,NA,NA,NA,NA,NA,NA,NA,NA,NA,NA,NA,NA,NA,NA,NA,NA,NA,NA,NA,NA
"180","Cub Scouts",1,0,1,0,0.00125944584382872,0.00125786163522013,"Dallas","NGO","Irving, TX",-96.9488945,32.8140177,NA,NA,NA,NA,NA,NA,NA,NA,NA,NA,NA,NA,NA,NA,NA,NA,NA,NA,NA,NA,NA,NA,NA,NA
"181","Dallas College El Centro Campus",1,0,1,0,0.00145437227534161,0.00125786163522013,"Dallas","University","Dallas, TX",-96.7969879,32.7766642,NA,NA,NA,NA,NA,NA,NA,NA,NA,NA,NA,NA,NA,NA,NA,NA,NA,NA,NA,NA,NA,NA,NA,NA
"182","Dallas County Audubon Society",0,2,2,0,0.00125786163522013,0.00127063583001005,"Dallas","NGO","Dallas, TX",-96.7969879,32.7766642,NA,NA,NA,NA,NA,NA,NA,NA,NA,NA,NA,NA,NA,NA,NA,NA,NA,NA,NA,NA,NA,NA,NA,NA
"183","Dallas Independent School District",1,0,1,0,0.00145705985873493,0.00125786163522013,"Dallas","NGO","Dallas, TX",-96.7969879,32.7766642,NA,NA,NA,NA,NA,NA,NA,NA,NA,NA,NA,NA,NA,NA,NA,NA,NA,NA,NA,NA,NA,NA,NA,NA
"184","Dallas Off Road Bicycle Association",1,0,1,0,0.00125944584382872,0.00125786163522013,"Dallas","NGO","Dallas, TX",-96.7969879,32.7766642,NA,NA,NA,NA,NA,NA,NA,NA,NA,NA,NA,NA,NA,NA,NA,NA,NA,NA,NA,NA,NA,NA,NA,NA
"185","Dallas Park and Recreation Department",1,0,1,0,0.00145599111001902,0.00125786163522013,"Dallas","Municipal/County","Dallas, TX",-96.7969879,32.7766642,NA,NA,NA,NA,NA,NA,NA,NA,NA,NA,NA,NA,NA,NA,NA,NA,NA,NA,NA,NA,NA,NA,NA,NA
"186","Dallas Stars Foundation",1,0,1,0,0.00125944584382872,0.00125786163522013,"Collin","NGO","Frisco, TX",-96.8236116,33.1506744,NA,NA,NA,NA,NA,NA,NA,NA,NA,NA,NA,NA,NA,NA,NA,NA,NA,NA,NA,NA,NA,NA,NA,NA
"187","Dallas Workforce Solutions",1,0,1,0,0.00145731124240372,0.00125786163522013,"Dallas","NGO","Dallas, TX",-96.7969879,32.7766642,1,0,1,0,0.00145731124240372,0.00125786163522013,1,0,1,0,0.00269539825958424,0.00268096514745308,1,0,1,0,0.00199202398349353,0.00198412698412698,1,0,1,0,0.00421940928270042,0.00420168067226891
"188","Daybreak Rotary",2,0,2,0,0.00126103404791929,0.00125786163522013,"Hunt","NGO","Greenville, TX",-96.1108066,33.1384488,NA,NA,NA,NA,NA,NA,NA,NA,NA,NA,NA,NA,NA,NA,NA,NA,NA,NA,NA,NA,NA,NA,NA,NA
"189","Del Valle Independent School District",1,0,1,0,0.0014568245994191,0.00125786163522013,"Travis","NGO","Del Valle, TX",-97.6472349,30.2091069,NA,NA,NA,NA,NA,NA,NA,NA,NA,NA,NA,NA,NA,NA,NA,NA,NA,NA,NA,NA,NA,NA,NA,NA
"190","Devils River Conservancy",1,0,1,0,0.00126262023913455,0.00125786163522013,"Travis","NGO","Austin, TX",-97.7430608,30.267153,NA,NA,NA,NA,NA,NA,NA,NA,NA,NA,NA,NA,NA,NA,NA,NA,NA,NA,NA,NA,NA,NA,NA,NA
"191","DeWitt County Historical Museum",1,0,1,0,0.00125944584382872,0.00125786163522013,"DeWitt","NGO","Cuero, TX",-97.2891568,29.0938652,NA,NA,NA,NA,NA,NA,NA,NA,NA,NA,NA,NA,NA,NA,NA,NA,NA,NA,NA,NA,NA,NA,NA,NA
"192","Dig Together",1,0,1,0,0.00145610058464089,0.00125786163522013,"Caldwell","NGO","Lockhart, TX",-97.6699996,29.8849441,NA,NA,NA,NA,NA,NA,NA,NA,NA,NA,NA,NA,NA,NA,NA,NA,NA,NA,NA,NA,NA,NA,NA,NA
"193","DiscoverU",1,0,1,0,0.00125944584382872,0.00125786163522013,"Harris","NGO","Houston, TX",-95.3698028,29.7604267,NA,NA,NA,NA,NA,NA,NA,NA,NA,NA,NA,NA,NA,NA,NA,NA,NA,NA,NA,NA,NA,NA,NA,NA
"194","Dixon Water Foundation",1,0,1,0,0.00126581471278441,0.00125786163522013,"Wise","NGO","Decatur, TX",-97.5861393,33.2342834,NA,NA,NA,NA,NA,NA,NA,NA,NA,NA,NA,NA,NA,NA,NA,NA,NA,NA,NA,NA,NA,NA,NA,NA
"195","Dogwood Canyon Audubon Center at Cedar Hill",2,4,6,1.27056327246276e-05,0.00126103404791929,0.00126422250316056,"Travis","NGO","Cedar Hill, TX",-96.9561152,32.5884689,2,4,6,1.27056327246276e-05,0.00126103404791929,0.00126422250316056,1,0,1,0,0.00268817204301075,0.00268096514745308,1,2,3,7.92060386683881e-06,0.00198807157057654,0.00199203187250996,1,0,1,0,0.00421940928270042,0.00420168067226891
"196","Don Harrington Discovery Center",1,0,1,0,0.00125944584382872,0.00125786163522013,"Potter","NGO","Amarillo, TX",-101.8312969,35.2219971,NA,NA,NA,NA,NA,NA,NA,NA,NA,NA,NA,NA,NA,NA,NA,NA,NA,NA,NA,NA,NA,NA,NA,NA
"197","Downtown Austin Alliance",1,0,1,0,0.00145676312371111,0.00125786163522013,"Travis","NGO","Austin, TX",-97.7430608,30.267153,NA,NA,NA,NA,NA,NA,NA,NA,NA,NA,NA,NA,NA,NA,NA,NA,NA,NA,NA,NA,NA,NA,NA,NA
"198","Downtown Austin Neighborhood Association",0,4,4,0,0.00125786163522013,0.00255493594962207,"Travis","NGO","Austin, TX",-97.7430608,30.267153,NA,NA,NA,NA,NA,NA,NA,NA,NA,NA,NA,NA,NA,NA,NA,NA,NA,NA,NA,NA,NA,NA,NA,NA
"199","E4 Youth",1,0,1,0,0.00126262023913455,0.00125786163522013,"Travis","NGO","Austin, TX",-97.7430608,30.267153,NA,NA,NA,NA,NA,NA,NA,NA,NA,NA,NA,NA,NA,NA,NA,NA,NA,NA,NA,NA,NA,NA,NA,NA
"200","Earthjustice",1,0,1,0,0.00125944584382872,0.00125786163522013,"San Francisco","NGO","San Francisco, CA",-122.4194155,37.7749295,NA,NA,NA,NA,NA,NA,NA,NA,NA,NA,NA,NA,NA,NA,NA,NA,NA,NA,NA,NA,NA,NA,NA,NA
"201","EarthShare of Texas",2,0,2,0,0.00145656269548484,0.00125786163522013,"Travis","NGO","Austin, TX",-97.7430608,30.267153,NA,NA,NA,NA,NA,NA,NA,NA,NA,NA,NA,NA,NA,NA,NA,NA,NA,NA,NA,NA,NA,NA,NA,NA
"202","EarthWorks",1,0,1,0,0.00145641842130847,0.00125786163522013,"DC","NGO","Washington, DC",-77.0368707,38.9071923,NA,NA,NA,NA,NA,NA,NA,NA,NA,NA,NA,NA,NA,NA,NA,NA,NA,NA,NA,NA,NA,NA,NA,NA
"203","EarthX",4,0,4,0,0.00145590567784878,0.00125786163522013,"Dallas","NGO","Dallas, TX",-96.7969879,32.7766642,NA,NA,NA,NA,NA,NA,NA,NA,NA,NA,NA,NA,NA,NA,NA,NA,NA,NA,NA,NA,NA,NA,NA,NA
"204","East End Chamber",1,0,1,0,0.00125944584382872,0.00125786163522013,"Harris","NGO","Houston, TX",-95.3698028,29.7604267,NA,NA,NA,NA,NA,NA,NA,NA,NA,NA,NA,NA,NA,NA,NA,NA,NA,NA,NA,NA,NA,NA,NA,NA
"205","East Texas Arboretum",1,0,1,0,0.00125944584382872,0.00125786163522013,"Henderson","NGO","Athens, TX",-95.8555207,32.2048735,NA,NA,NA,NA,NA,NA,NA,NA,NA,NA,NA,NA,NA,NA,NA,NA,NA,NA,NA,NA,NA,NA,NA,NA
"206","Eco-vative Associates",1,0,1,0,0.00145666423889294,0.00125786163522013,"Travis","Private","Austin, TX",-97.7430608,30.267153,NA,NA,NA,NA,NA,NA,NA,NA,NA,NA,NA,NA,NA,NA,NA,NA,NA,NA,NA,NA,NA,NA,NA,NA
"207","Eco Centro",1,0,1,0,0.0014567657964601,0.00125786163522013,"Bexar","NGO","San Antonio, TX",-98.4936282,29.4241219,1,0,1,0,0.0014567657964601,0.00125786163522013,1,0,1,0,0.00304473800520552,0.00268096514745308,1,0,1,0,0.00223525752121939,0.00198412698412698,1,0,1,0,0.00421940928270042,0.00420168067226891
"208","Economic Alliance",1,0,1,0,0.00125944584382872,0.00125786163522013,"Harris","NGO","Deer Park, TX",-95.1238204,29.7052284,NA,NA,NA,NA,NA,NA,NA,NA,NA,NA,NA,NA,NA,NA,NA,NA,NA,NA,NA,NA,NA,NA,NA,NA
"209","EcoRise",1,10,11,0.0106855804723005,0.00145340323336457,0.00253945916556058,"Travis","NGO","Austin, TX",-97.7430608,30.267153,NA,NA,NA,NA,NA,NA,NA,NA,NA,NA,NA,NA,NA,NA,NA,NA,NA,NA,NA,NA,NA,NA,NA,NA
"210","Ed Rachal Foundation",1,0,1,0,0.00145609524403349,0.00125786163522013,"Nueces","NGO","Corpus Christi, TX",-97.396381,27.8005828,NA,NA,NA,NA,NA,NA,NA,NA,NA,NA,NA,NA,NA,NA,NA,NA,NA,NA,NA,NA,NA,NA,NA,NA
"211","Edwards Aquifer Authority",2,10,12,0.000800601650211428,0.00145466004191766,0.00253185546102728,"Bexar","NGO","San Antonio, TX",-98.4936282,29.4241219,NA,NA,NA,NA,NA,NA,NA,NA,NA,NA,NA,NA,NA,NA,NA,NA,NA,NA,NA,NA,NA,NA,NA,NA
"212","Edwards Aquifer Habitat Conservation Plan",1,0,1,0,0.00145638636426167,0.00125786163522013,"Bexar","NGO","San Antonio, TX",-98.4936282,29.4241219,NA,NA,NA,NA,NA,NA,NA,NA,NA,NA,NA,NA,NA,NA,NA,NA,NA,NA,NA,NA,NA,NA,NA,NA
"213","El Buen Samaritano",1,10,11,0.00155554163069545,0.00145583360225306,0.00127388535031847,"Travis","NGO","Austin, TX",-97.7430608,30.267153,1,10,11,0.00155554163069545,0.00145583360225306,0.00127388535031847,0,4,4,0,0.00268096514745308,0.002710027100271,1,4,5,0.000110888454135743,0.00201195976080478,0.002,1,10,11,0.00089394264463992,0.0042912238135762,0.0043859649122807
"214","El Paso Museum Foundation",1,0,1,0,0.00125944584382872,0.00125786163522013,"El Paso","NGO","El Paso, TX",-106.4850217,31.7618778,NA,NA,NA,NA,NA,NA,NA,NA,NA,NA,NA,NA,NA,NA,NA,NA,NA,NA,NA,NA,NA,NA,NA,NA
"215","Energy Foundation",1,0,1,0,0.00145617802785078,0.00125786163522013,"DC","NGO","Washington, DC",-77.0368707,38.9071923,1,0,1,0,0.00145617802785078,0.00125786163522013,1,0,1,0,0.00304376641547412,0.00268096514745308,1,0,1,0,0.00223389750718356,0.00198412698412698,1,0,1,0,0.00438312589003347,0.00420168067226891
"216","Environment Texas",2,0,2,0,0.00146067043669263,0.00125786163522013,"Travis","NGO","Austin, TX",-97.7430608,30.267153,2,0,2,0,0.00146067043669263,0.00125786163522013,2,0,2,0,0.00306314021277297,0.00268096514745308,2,0,2,0,0.00223918801611503,0.00198412698412698,1,0,1,0,0.00421940928270042,0.00420168067226891
"217","Environmental Defense Fund",6,10,16,0.00545834959667835,0.00145491326408142,0.00253537227503361,"Travis","NGO","Austin, TX",-97.7430608,30.267153,6,10,16,0.00545834959667835,0.00145491326408142,0.00253537227503361,4,3,7,0.00718947144692732,0.00303720577069096,0.00372145136603275,4,10,14,0.00246758870039109,0.00223100430676975,0.00257856154201056,2,3,5,0.00275334334549095,0.00436576649596581,0.00489123704957279
"218","Environmental Institute of Houston",1,0,1,0,0.00145658941606174,0.00125786163522013,"Harris","University","Houston, TX",-95.3698028,29.7604267,NA,NA,NA,NA,NA,NA,NA,NA,NA,NA,NA,NA,NA,NA,NA,NA,NA,NA,NA,NA,NA,NA,NA,NA
"219","Environmental Stewardship",1,0,1,0,0.00145438559535476,0.00125786163522013,"Bastrop","NGO","Bastrop, TX",-97.3152701,30.1104947,NA,NA,NA,NA,NA,NA,NA,NA,NA,NA,NA,NA,NA,NA,NA,NA,NA,NA,NA,NA,NA,NA,NA,NA
"220","Envirothon",1,0,1,0,0.00145496925140549,0.00125786163522013,"Harris","NGO","Houston, TX",-95.3698028,29.7604267,NA,NA,NA,NA,NA,NA,NA,NA,NA,NA,NA,NA,NA,NA,NA,NA,NA,NA,NA,NA,NA,NA,NA,NA
"221","EPA",2,0,2,0,0.00146312249504768,0.00125786163522013,"District of Columbia","Federal Agency","Washington, DC",-77.0368707,38.9071923,2,0,2,0,0.00146312249504768,0.00125786163522013,2,0,2,0,0.00306349337066623,0.00268096514745308,1,0,1,0,0.00224035489359428,0.00198412698412698,1,0,1,0,0.00421940928270042,0.00420168067226891
"222","Every Texan",2,0,2,0,0.00145857214237428,0.00125786163522013,"Travis","NGO","Austin, TX",-97.7430608,30.267153,NA,NA,NA,NA,NA,NA,NA,NA,NA,NA,NA,NA,NA,NA,NA,NA,NA,NA,NA,NA,NA,NA,NA,NA
"223","Evolve Austin",1,0,1,0,0.00125944584382872,0.00125786163522013,"Travis","NGO","Austin, TX",-97.7430608,30.267153,NA,NA,NA,NA,NA,NA,NA,NA,NA,NA,NA,NA,NA,NA,NA,NA,NA,NA,NA,NA,NA,NA,NA,NA
"224","Exploration Green Conservancy",1,0,1,0,0.00126580865883268,0.00125786163522013,"Harris","NGO","Houston, TX",-95.3698028,29.7604267,NA,NA,NA,NA,NA,NA,NA,NA,NA,NA,NA,NA,NA,NA,NA,NA,NA,NA,NA,NA,NA,NA,NA,NA
"225","Explore Victoria",1,0,1,0,0.00125944584382872,0.00125786163522013,"Victoria","NGO","Victoria, TX",-97.0035982,28.8052674,NA,NA,NA,NA,NA,NA,NA,NA,NA,NA,NA,NA,NA,NA,NA,NA,NA,NA,NA,NA,NA,NA,NA,NA
"226","Families in Nature",2,11,13,0.00335952971704716,0.0014540047392497,0.00253233995866609,"Travis","NGO","Austin, TX",-97.7430608,30.267153,2,11,13,0.00335952971704716,0.0014540047392497,0.00253233995866609,1,2,3,7.24574674665971e-06,0.00268817204301075,0.00269541778975741,1,11,12,0.000330213746924637,0.00200796800025549,0.00282397062621408,1,8,9,0.0011442465851391,0.00427319606216869,0.00469288345016039
"227","Farish Fund",1,0,1,0,0.00145842211217727,0.00125786163522013,"Harris","NGO","Houston, TX",-95.3698028,29.7604267,NA,NA,NA,NA,NA,NA,NA,NA,NA,NA,NA,NA,NA,NA,NA,NA,NA,NA,NA,NA,NA,NA,NA,NA
"228","Farm and Ranch Freedom Alliance",3,6,9,0.00497426344006623,0.00145282083279203,0.00253506466969129,"Milam","NGO","Cameron, TX",-96.9769304,30.8532454,3,6,9,0.00497426344006623,0.00145282083279203,0.00253506466969129,2,6,8,0.00365547923368982,0.00272465593894427,0.00382491748665906,2,4,6,0.000178213587003873,0.00199998409555391,0.0020406838522269,1,0,1,0,0.00421940928270042,0.00420168067226891
"229","Farm&City",1,11,12,1.58820409057846e-05,0.00125944584382872,0.00127551020408163,"Travis","NGO","Austin, TX",-97.7430608,30.267153,1,11,12,1.58820409057846e-05,0.00125944584382872,0.00127551020408163,1,3,4,1.44914934933194e-05,0.00268817204301075,0.0027027027027027,0,9,9,0,0.00198412698412698,0.00202020202020202,0,8,8,0,0.00420168067226891,0.00434782608695652
"230","Farmshare Austin",2,10,12,0.000505419481758417,0.00145281551621609,0.00253196041978246,"Travis","NGO","Austin, TX",-97.7430608,30.267153,2,10,12,0.000505419481758417,0.00145281551621609,0.00253196041978246,1,0,1,0,0.00272463598277327,0.00268096514745308,1,7,8,5.94045290012911e-05,0.00199599214301304,0.00210929768354664,2,0,2,0,0.0042916123424598,0.00420168067226891
"231","FEMA",1,0,1,0,0.00126103204514304,0.00125786163522013,"Denton","Federal Agency","Denton, TX",-97.1330683,33.2148412,NA,NA,NA,NA,NA,NA,NA,NA,NA,NA,NA,NA,NA,NA,NA,NA,NA,NA,NA,NA,NA,NA,NA,NA
"232","Fiesta San Antonio Commission",1,6,7,9.52922454347073e-06,0.00125944584382872,0.00126742712294043,"Bexar","NGO","San Antonio, TX",-98.4936282,29.4241219,NA,NA,NA,NA,NA,NA,NA,NA,NA,NA,NA,NA,NA,NA,NA,NA,NA,NA,NA,NA,NA,NA,NA,NA
"233","Food Policy Council of San Antonio",1,0,1,0,0.00145464671687702,0.00125786163522013,"Bexar","NGO","San Antonio, TX",-98.4936282,29.4241219,NA,NA,NA,NA,NA,NA,NA,NA,NA,NA,NA,NA,NA,NA,NA,NA,NA,NA,NA,NA,NA,NA,NA,NA
"234","Food+City",1,0,1,0,0.00126103204514304,0.00125786163522013,"Travis","Private","Austin, TX",-97.7430608,30.267153,NA,NA,NA,NA,NA,NA,NA,NA,NA,NA,NA,NA,NA,NA,NA,NA,NA,NA,NA,NA,NA,NA,NA,NA
"235","For Oak Cliff",1,0,1,0,0.00145599111001902,0.00125786163522013,"Dallas","NGO","Dallas, TX",-96.7969879,32.7766642,NA,NA,NA,NA,NA,NA,NA,NA,NA,NA,NA,NA,NA,NA,NA,NA,NA,NA,NA,NA,NA,NA,NA,NA
"236","Fort Bend Chamber of Commerce",2,0,2,0,0.00145855606623388,0.00125786163522013,"Fort Bend","NGO","Sugar Land, TX",-95.6225521,29.5984434,NA,NA,NA,NA,NA,NA,NA,NA,NA,NA,NA,NA,NA,NA,NA,NA,NA,NA,NA,NA,NA,NA,NA,NA
"237","Fort Bend Community Church",1,0,1,0,0.00125944584382872,0.00125786163522013,"Fort Bend","NGO","Missouri City, TX",-95.5377215,29.6185669,NA,NA,NA,NA,NA,NA,NA,NA,NA,NA,NA,NA,NA,NA,NA,NA,NA,NA,NA,NA,NA,NA,NA,NA
"238","Fort Worth Independent School District",1,0,1,0,0.00145705985873493,0.00125786163522013,"Tarrant","NGO","Fort Worth, TX",-97.3307658,32.7554883,NA,NA,NA,NA,NA,NA,NA,NA,NA,NA,NA,NA,NA,NA,NA,NA,NA,NA,NA,NA,NA,NA,NA,NA
"239","Fort Worth Nature Center",1,0,1,0,0.00145611393633078,0.00125786163522013,"Tarrant","NGO","Fort Worth, TX",-97.3307658,32.7554883,NA,NA,NA,NA,NA,NA,NA,NA,NA,NA,NA,NA,NA,NA,NA,NA,NA,NA,NA,NA,NA,NA,NA,NA
"240","Foundation of the Flora of Virginia",1,0,1,0,0.00145637300757534,0.00125786163522013,"Richmond","NGO","Richmond, VA",-77.4360481,37.5407246,NA,NA,NA,NA,NA,NA,NA,NA,NA,NA,NA,NA,NA,NA,NA,NA,NA,NA,NA,NA,NA,NA,NA,NA
"241","Friends for the Preservation of Historic Landa Park",1,7,8,0.000597958840102789,0.001454239088628,0.00253558278486187,"Comal","NGO","New Braunfels, TX",-98.1244531,29.7030024,1,7,8,0.000597958840102789,0.001454239088628,0.00253558278486187,0,7,7,0,0.00268096514745308,0.0038039532481875,0,6,6,0,0.00198412698412698,0.00261139982452224,0,7,7,0,0.00420168067226891,0.00432900432900433
"242","Friends of Balcones Canyonlands National Wildlife Refuge",1,0,1,0,0.00126262224695873,0.00125786163522013,"Burnet","NGO","Lago Vista, TX",-97.9883477,30.4601975,NA,NA,NA,NA,NA,NA,NA,NA,NA,NA,NA,NA,NA,NA,NA,NA,NA,NA,NA,NA,NA,NA,NA,NA
"243","Friends of Enchanted Rock, Inc.",1,5,6,0.000921500222491897,0.00145460940806191,0.00253417465378514,"Gillespie","NGO","Fredericksburg, TX",-98.8719843,30.2752011,NA,NA,NA,NA,NA,NA,NA,NA,NA,NA,NA,NA,NA,NA,NA,NA,NA,NA,NA,NA,NA,NA,NA,NA
"244","Friends of Hondo Canyon",0,10,10,0,0.00125786163522013,0.00260906996842171,"Bandera","NGO","Tarpley, TX",-99.2764299,29.6571703,NA,NA,NA,NA,NA,NA,NA,NA,NA,NA,NA,NA,NA,NA,NA,NA,NA,NA,NA,NA,NA,NA,NA,NA
"245","Friends of Oak Cliff",1,0,1,0,0.00145571349211733,0.00125786163522013,"Dallas","NGO","Dallas, TX",-96.7969879,32.7766642,NA,NA,NA,NA,NA,NA,NA,NA,NA,NA,NA,NA,NA,NA,NA,NA,NA,NA,NA,NA,NA,NA,NA,NA
"246","Friends of the Brazos",0,2,2,0,0.00125786163522013,0.00269956004651131,"Somervell","NGO","Glen Rose, TX",-97.7553061,32.2345872,NA,NA,NA,NA,NA,NA,NA,NA,NA,NA,NA,NA,NA,NA,NA,NA,NA,NA,NA,NA,NA,NA,NA,NA
"247","Friends of the Molly Hollar Wildscape",0,5,5,0,0.00125786163522013,0.00255641663795796,"Tarrant","NGO","Arlington, TX",-97.1080656,32.735687,NA,NA,NA,NA,NA,NA,NA,NA,NA,NA,NA,NA,NA,NA,NA,NA,NA,NA,NA,NA,NA,NA,NA,NA
"248","Friends of the Neches River",1,0,1,0,0.00126262224695873,0.00125786163522013,"Cherokee","NGO","Jacksonville, TX",-95.2705042,31.963778,NA,NA,NA,NA,NA,NA,NA,NA,NA,NA,NA,NA,NA,NA,NA,NA,NA,NA,NA,NA,NA,NA,NA,NA
"249","Frontier Alliance",1,0,1,0,0.00125944584382872,0.00125786163522013,"El Paso","NGO","El Paso, TX",-106.4850217,31.7618778,NA,NA,NA,NA,NA,NA,NA,NA,NA,NA,NA,NA,NA,NA,NA,NA,NA,NA,NA,NA,NA,NA,NA,NA
"250","Ft. Griffin State Historic Site",1,0,1,0,0.00125944584382872,0.00125786163522013,"Shackleford","State Agency","Albany, TX",-99.2973005,32.723452,NA,NA,NA,NA,NA,NA,NA,NA,NA,NA,NA,NA,NA,NA,NA,NA,NA,NA,NA,NA,NA,NA,NA,NA
"251","Ft. Robinson State Park, Nebraska",1,0,1,0,0.00125944584382872,0.00125786163522013,"Dawes","State Agency","Crawford, NE",-103.4054788,42.6830238,NA,NA,NA,NA,NA,NA,NA,NA,NA,NA,NA,NA,NA,NA,NA,NA,NA,NA,NA,NA,NA,NA,NA,NA
"252","Future Farmers of America",1,0,1,0,0.00126103204514304,0.00125786163522013,"Marion","NGO","Indianapolis, IN",-86.158068,39.768403,NA,NA,NA,NA,NA,NA,NA,NA,NA,NA,NA,NA,NA,NA,NA,NA,NA,NA,NA,NA,NA,NA,NA,NA
"253","Galena Park Independent School District",1,0,1,0,0.00125944584382872,0.00125786163522013,"Harris","NGO","Houston, TX",-95.3698028,29.7604267,NA,NA,NA,NA,NA,NA,NA,NA,NA,NA,NA,NA,NA,NA,NA,NA,NA,NA,NA,NA,NA,NA,NA,NA
"254","Galveston Bay Estuary Program",1,0,1,0,0.00145561741827735,0.00125786163522013,"Harris","State Agency","Houston, TX",-95.3698028,29.7604267,NA,NA,NA,NA,NA,NA,NA,NA,NA,NA,NA,NA,NA,NA,NA,NA,NA,NA,NA,NA,NA,NA,NA,NA
"255","Galveston Bay Foundation",7,0,7,0,0.00145925570607576,0.00125786163522013,"Galveston","NGO","Kemah, TX",-95.0204837,29.5427297,NA,NA,NA,NA,NA,NA,NA,NA,NA,NA,NA,NA,NA,NA,NA,NA,NA,NA,NA,NA,NA,NA,NA,NA
"256","Garden Club of America",2,0,2,0,0.001456415749834,0.00125786163522013,"New York","NGO","New York, NY",-74.0059728,40.7127753,NA,NA,NA,NA,NA,NA,NA,NA,NA,NA,NA,NA,NA,NA,NA,NA,NA,NA,NA,NA,NA,NA,NA,NA
"257","Gateway Mountain Center",1,0,1,0,0.00125944584382872,0.00125786163522013,"Nevada","NGO","Truckee, CA",-120.1832533,39.327962,NA,NA,NA,NA,NA,NA,NA,NA,NA,NA,NA,NA,NA,NA,NA,NA,NA,NA,NA,NA,NA,NA,NA,NA
"258","Gemini Ink",1,0,1,0,0.00145549467571249,0.00125786163522013,"Bexar","NGO","San Antonio, TX",-98.4936282,29.4241219,1,0,1,0,0.00145549467571249,0.00125786163522013,1,0,1,0,0.00268817204301075,0.00268096514745308,1,0,1,0,0.00198807157057654,0.00198412698412698,1,0,1,0,0.00421940928270042,0.00420168067226891
"259","General Land Office",1,0,1,0,0.00145699301597554,0.00125786163522013,"Travis","State Agency","Austin, TX",-97.7430608,30.267153,NA,NA,NA,NA,NA,NA,NA,NA,NA,NA,NA,NA,NA,NA,NA,NA,NA,NA,NA,NA,NA,NA,NA,NA
"260","Generation SERVE",1,0,1,0,0.00126103204514304,0.00125786163522013,"Travis","NGO","Austin, TX",-97.7430608,30.267153,NA,NA,NA,NA,NA,NA,NA,NA,NA,NA,NA,NA,NA,NA,NA,NA,NA,NA,NA,NA,NA,NA,NA,NA
"261","George Ranch Historical Park",1,0,1,0,0.00145670165319126,0.00125786163522013,"Fort Bend","NGO","Richmond, TX",-95.7607832,29.5821811,NA,NA,NA,NA,NA,NA,NA,NA,NA,NA,NA,NA,NA,NA,NA,NA,NA,NA,NA,NA,NA,NA,NA,NA
"262","Ghostwire Academy",1,0,1,0,0.00145549467571249,0.00125786163522013,"Bexar","NGO","San Antonio, TX",-98.4936282,29.4241219,NA,NA,NA,NA,NA,NA,NA,NA,NA,NA,NA,NA,NA,NA,NA,NA,NA,NA,NA,NA,NA,NA,NA,NA
"263","Girl Forward",1,0,1,0,0.00126262023913455,0.00125786163522013,"Cook","NGO","Chicago, IL",-87.6297982,41.8781136,NA,NA,NA,NA,NA,NA,NA,NA,NA,NA,NA,NA,NA,NA,NA,NA,NA,NA,NA,NA,NA,NA,NA,NA
"264","Girl Scouts of Central Texas",3,0,3,0,0.00126422049024369,0.00125786163522013,"Travis","NGO","Austin, TX",-97.7430608,30.267153,NA,NA,NA,NA,NA,NA,NA,NA,NA,NA,NA,NA,NA,NA,NA,NA,NA,NA,NA,NA,NA,NA,NA,NA
"265","Girl Scouts of Northeast Texas",1,0,1,0,0.00126262224695873,0.00125786163522013,"Collin","NGO","Dallas, TX",-96.7969879,32.7766642,NA,NA,NA,NA,NA,NA,NA,NA,NA,NA,NA,NA,NA,NA,NA,NA,NA,NA,NA,NA,NA,NA,NA,NA
"266","Gladys Porter Zoo",1,0,1,0,0.00126103204514304,0.00125786163522013,"Cameron","NGO","Brownsville, TX",-97.4974838,25.9017472,NA,NA,NA,NA,NA,NA,NA,NA,NA,NA,NA,NA,NA,NA,NA,NA,NA,NA,NA,NA,NA,NA,NA,NA
"267","Global Real Estate Sustainability Benchmark",1,0,1,0,0.00125944584382872,0.00125786163522013,"N/A","NGO","Amsterdam, N/A",4.9041389,52.3675734,NA,NA,NA,NA,NA,NA,NA,NA,NA,NA,NA,NA,NA,NA,NA,NA,NA,NA,NA,NA,NA,NA,NA,NA
"268","Go Austin Vamos Austin",4,7,11,0.00483402343665795,0.00145334470627428,0.00253364094414821,"Travis","NGO","Austin, TX",-97.7430608,30.267153,4,7,11,0.00483402343665795,0.00145334470627428,0.00253364094414821,0,4,4,0,0.00268096514745308,0.00375787942459997,0,5,5,0,0.00198412698412698,0.00260345229160736,3,2,5,0.000250303940499178,0.00432868806049205,0.00423728813559322
"269","Good Politics",1,0,1,0,0.00145823461782866,0.00125786163522013,"Travis","Private","Austin, TX",-97.7430608,30.267153,NA,NA,NA,NA,NA,NA,NA,NA,NA,NA,NA,NA,NA,NA,NA,NA,NA,NA,NA,NA,NA,NA,NA,NA
"270","Goodwill of Central Texas",2,0,2,0,0.00126103404791929,0.00125786163522013,"Travis","NGO","Austin, TX",-97.7430608,30.267153,2,0,2,0,0.00126103404791929,0.00125786163522013,1,0,1,0,0.00268817204301075,0.00268096514745308,1,0,1,0,0.00199202398349353,0.00198412698412698,1,0,1,0,0.00421940928270042,0.00420168067226891
"271","Govalle/Johnston Terrace Neighborhood Association",1,0,1,0,0.00125944584382872,0.00125786163522013,"Travis","NGO","Austin, TX",-97.7430608,30.267153,NA,NA,NA,NA,NA,NA,NA,NA,NA,NA,NA,NA,NA,NA,NA,NA,NA,NA,NA,NA,NA,NA,NA,NA
"272","Great Plains Restoration Council",0,9,9,0,0.00125786163522013,0.00127226463104326,"Tarrant","NGO","Fort Worth, TX",-97.3307658,32.7554883,NA,NA,NA,NA,NA,NA,NA,NA,NA,NA,NA,NA,NA,NA,NA,NA,NA,NA,NA,NA,NA,NA,NA,NA
"273","Great Springs Project",5,10,15,0.0123390676967924,0.00145466004191766,0.00253849301754565,"Travis","NGO","Austin, TX",-97.7430608,30.267153,5,10,15,0.0123390676967924,0.00145466004191766,0.00253849301754565,3,6,9,0.00100724505667554,0.00303586730321949,0.00372171198751426,4,5,9,0.00414185977538928,0.0022303217338867,0.00257987085258833,1,1,2,1.78788528927984e-05,0.00421940928270042,0.00421940928270042
"274","Greater Edwards Aquifer Alliance",7,10,17,0.0128448616252003,0.00145478264374682,0.00253814408602838,"Bexar","NGO","San Antonio, TX",-98.4936282,29.4241219,7,10,17,0.0128448616252003,0.00145478264374682,0.00253814408602838,4,10,14,0.00853709408291618,0.00303653638946028,0.00372446936323588,1,7,8,0.00680841907387019,0.00223024262202043,0.00258032082159877,2,4,6,0.00325395122648931,0.00436536442504282,0.00489376200210618
"275","Greater Fort Bend Economic Development Council",1,0,1,0,0.00145643177882781,0.00125786163522013,"Fort Bend","NGO","Sugar Land, TX",-95.6225521,29.5984434,NA,NA,NA,NA,NA,NA,NA,NA,NA,NA,NA,NA,NA,NA,NA,NA,NA,NA,NA,NA,NA,NA,NA,NA
"276","Greater Houston Black Chamber",1,0,1,0,0.00125944584382872,0.00125786163522013,"Harris","NGO","Houston, TX",-95.3698028,29.7604267,NA,NA,NA,NA,NA,NA,NA,NA,NA,NA,NA,NA,NA,NA,NA,NA,NA,NA,NA,NA,NA,NA,NA,NA
"277","Greater Houston Partnership",2,0,2,0,0.00145855606623388,0.00125786163522013,"Harris","NGO","Houston, TX",-95.3698028,29.7604267,NA,NA,NA,NA,NA,NA,NA,NA,NA,NA,NA,NA,NA,NA,NA,NA,NA,NA,NA,NA,NA,NA,NA,NA
"278","Greater San Antonio Chamber of Commerce",1,0,1,0,0.00126103204514304,0.00125786163522013,"Bexar","NGO","San Antonio, TX",-98.4936282,29.4241219,NA,NA,NA,NA,NA,NA,NA,NA,NA,NA,NA,NA,NA,NA,NA,NA,NA,NA,NA,NA,NA,NA,NA,NA
"279","Green Generation Solutions",0,2,2,0,0.00125786163522013,0.00127711866587745,"Montgomery","Private","Bethesda, MD",-77.0947092,38.984652,0,2,2,0,0.00125786163522013,0.00127711866587745,0,2,2,0,0.00268096514745308,0.00270998761564799,0,1,1,0,0.00198412698412698,0.00202421818094015,0,2,2,0,0.00420168067226891,0.0043100312795519
"280","Green Spaces Alliance of Texas",1,6,7,0.00138133982024637,0.00145493459207775,0.00253221074116596,"Bexar","NGO","San Antonio, TX",-98.4936282,29.4241219,1,6,7,0.00138133982024637,0.00145493459207775,0.00253221074116596,1,5,6,0.00184283492256712,0.0030365859631365,0.00371402042711235,1,6,7,0.00193741270834488,0.00223082620400307,0.00257705549635216,0,2,2,0,0.00420168067226891,0.00423728813559322
"281","Greenpeace",1,0,1,0,0.00125944584382872,0.00125786163522013,"DC","NGO","Washington, DC",-77.0368707,38.9071923,NA,NA,NA,NA,NA,NA,NA,NA,NA,NA,NA,NA,NA,NA,NA,NA,NA,NA,NA,NA,NA,NA,NA,NA
"282","Greens Bayou Coalition",1,0,1,0,0.00125944584382872,0.00125786163522013,"Harris","NGO","Houston, TX",-95.3698028,29.7604267,NA,NA,NA,NA,NA,NA,NA,NA,NA,NA,NA,NA,NA,NA,NA,NA,NA,NA,NA,NA,NA,NA,NA,NA
"283","Greenville Chamber of Commerce",1,0,1,0,0.00125944584382872,0.00125786163522013,"Hunt","NGO","Greenville, TX",-96.1108066,33.1384488,NA,NA,NA,NA,NA,NA,NA,NA,NA,NA,NA,NA,NA,NA,NA,NA,NA,NA,NA,NA,NA,NA,NA,NA
"284","Greenville Christian School",1,0,1,0,0.00125944584382872,0.00125786163522013,"Hunt","NGO","Greenville, TX",-96.1108066,33.1384488,NA,NA,NA,NA,NA,NA,NA,NA,NA,NA,NA,NA,NA,NA,NA,NA,NA,NA,NA,NA,NA,NA,NA,NA
"285","Greenville Independent School District",1,0,1,0,0.00125944584382872,0.00125786163522013,"Hunt","NGO","Greenville, TX",-96.1108066,33.1384488,NA,NA,NA,NA,NA,NA,NA,NA,NA,NA,NA,NA,NA,NA,NA,NA,NA,NA,NA,NA,NA,NA,NA,NA
"286","Groundwater Management Area 9",1,0,1,0,0.00126103204514304,0.00125786163522013,"Blanco","Municipal/County","Johnson City, TX",-98.4119811,30.2767408,NA,NA,NA,NA,NA,NA,NA,NA,NA,NA,NA,NA,NA,NA,NA,NA,NA,NA,NA,NA,NA,NA,NA,NA
"287","Groundwork Dallas",2,7,9,0.000673398534405265,0.00145388493068411,0.00253154870840002,"Dallas","NGO","Dallas, TX",-96.7969879,32.7766642,NA,NA,NA,NA,NA,NA,NA,NA,NA,NA,NA,NA,NA,NA,NA,NA,NA,NA,NA,NA,NA,NA,NA,NA
"288","GROW North Texas",1,0,1,0,0.00145464671687702,0.00125786163522013,"Dallas","NGO","Dallas, TX",-96.7969879,32.7766642,NA,NA,NA,NA,NA,NA,NA,NA,NA,NA,NA,NA,NA,NA,NA,NA,NA,NA,NA,NA,NA,NA,NA,NA
"289","Guadalupe Blanco River Authority",4,0,4,0,0.00145690479292319,0.00125786163522013,"Guadalupe","Municipal/County","Seguin, TX",-97.9647269,29.5688411,NA,NA,NA,NA,NA,NA,NA,NA,NA,NA,NA,NA,NA,NA,NA,NA,NA,NA,NA,NA,NA,NA,NA,NA
"290","Guadalupe Blanco River Trust",3,6,9,0.0132869352734231,0.00145439358747976,0.00253750327574415,"Guadalupe","NGO","Seguin, TX",-97.9647269,29.5688411,NA,NA,NA,NA,NA,NA,NA,NA,NA,NA,NA,NA,NA,NA,NA,NA,NA,NA,NA,NA,NA,NA,NA,NA
"291","Guadalupe River Trout Unlimited",1,6,7,7.94102045289228e-06,0.00125944584382872,0.00126903350472212,"Travis","NGO","Austin, TX",-97.7430608,30.267153,1,6,7,7.94102045289228e-06,0.00125944584382872,0.00126903350472212,0,6,6,0,0.00268096514745308,0.00272479564032698,0,2,2,0,0.00198412698412698,0.00199203187250996,0,3,3,0,0.00420168067226891,0.00425531914893617
"292","Gulf Coast Bird Observatory",1,0,1,0,0.00145645047976653,0.00125786163522013,"Brazoria","NGO","Lake Jackson, TX",-95.4343859,29.0338575,NA,NA,NA,NA,NA,NA,NA,NA,NA,NA,NA,NA,NA,NA,NA,NA,NA,NA,NA,NA,NA,NA,NA,NA
"293","Gulf Coast Joint Venture",1,0,1,0,0.00126103204514304,0.00125786163522013,"Lafayette","Federal Agency","Lafayette, LA",-92.0198427,30.2240897,NA,NA,NA,NA,NA,NA,NA,NA,NA,NA,NA,NA,NA,NA,NA,NA,NA,NA,NA,NA,NA,NA,NA,NA
"294","Gulf Coast Sheep Breeders Association",1,0,1,0,0.00126103204514304,0.00125786163522013,"Jim Wells","Private","Sandia, TX",-97.8798634,28.0213648,NA,NA,NA,NA,NA,NA,NA,NA,NA,NA,NA,NA,NA,NA,NA,NA,NA,NA,NA,NA,NA,NA,NA,NA
"295","Habitat for Humanity",1,0,1,0,0.00125944584382872,0.00125786163522013,"Sumter","NGO","Americus, GA",-84.2326876,32.0723861,NA,NA,NA,NA,NA,NA,NA,NA,NA,NA,NA,NA,NA,NA,NA,NA,NA,NA,NA,NA,NA,NA,NA,NA
"296","Harris County",2,0,2,0,0.001457739329036,0.00125786163522013,"Harris","Municipal/County","Houston, TX",-95.3698028,29.7604267,NA,NA,NA,NA,NA,NA,NA,NA,NA,NA,NA,NA,NA,NA,NA,NA,NA,NA,NA,NA,NA,NA,NA,NA
"297","Harris County Commissioners",1,0,1,0,0.00145675510552301,0.00125786163522013,"Harris","Municipal/County","Houston, TX",-95.3698028,29.7604267,1,0,1,0,0.00145675510552301,0.00125786163522013,1,0,1,0,0.00270992839087075,0.00268096514745308,1,0,1,0,0.00202407970769553,0.00198412698412698,1,0,1,0,0.00421940928270042,0.00420168067226891
"298","Harris County Department of Education",2,0,2,0,0.00126741700733154,0.00125786163522013,"Harris","Municipal/County","Houston, TX",-95.3698028,29.7604267,NA,NA,NA,NA,NA,NA,NA,NA,NA,NA,NA,NA,NA,NA,NA,NA,NA,NA,NA,NA,NA,NA,NA,NA
"299","Harris County Flood Control District",3,0,3,0,0.0014590036511842,0.00125786163522013,"Harris","Municipal/County","Houston, TX",-95.3698028,29.7604267,3,0,3,0,0.0014590036511842,0.00125786163522013,2,0,2,0,0.00310126635042642,0.00268096514745308,2,0,2,0,0.00203635480344925,0.00198412698412698,1,0,1,0,0.00421940928270042,0.00420168067226891
"300","Harris County Precinct 2",1,0,1,0,0.00145842211217727,0.00125786163522013,"Harris","Municipal/County","Pasadena, TX",-95.2091006,29.6910625,1,0,1,0,0.00145842211217727,0.00125786163522013,1,0,1,0,0.00268817204301075,0.00268096514745308,1,0,1,0,0.00198807157057654,0.00198412698412698,1,0,1,0,0.00421940928270042,0.00420168067226891
"301","Harte Research Center",1,0,1,0,0.00125944584382872,0.00125786163522013,"Nueces","NGO","Corpus Christi, TX",-97.396381,27.8005828,NA,NA,NA,NA,NA,NA,NA,NA,NA,NA,NA,NA,NA,NA,NA,NA,NA,NA,NA,NA,NA,NA,NA,NA
"302","Hays County",2,0,2,0,0.00145695558670904,0.00125786163522013,"Hays","Municipal/County","San Marcos, TX",-97.9413941,29.8832749,2,0,2,0,0.00145695558670904,0.00125786163522013,1,0,1,0,0.00304541100768721,0.00268096514745308,2,0,2,0,0.0022357145397006,0.00198412698412698,1,0,1,0,0.0043836123185055,0.00420168067226891
"303","Hays County Master Naturalists",2,0,2,0,0.00145639704978713,0.00125786163522013,"Hays","NGO","San Marcos, TX",-97.9413941,29.8832749,NA,NA,NA,NA,NA,NA,NA,NA,NA,NA,NA,NA,NA,NA,NA,NA,NA,NA,NA,NA,NA,NA,NA,NA
"304","Hays Trinity Groundwater Conservation District",1,0,1,0,0.00145607922244636,0.00125786163522013,"Travis","Municipal/County","Austin, TX",-97.7430608,30.267153,NA,NA,NA,NA,NA,NA,NA,NA,NA,NA,NA,NA,NA,NA,NA,NA,NA,NA,NA,NA,NA,NA,NA,NA
"305","Headwaters Alliance",2,5,7,0.000780284669701195,0.00145701173132997,0.00126582278481013,"Karnes","NGO","Karnes, TX",-97.87216,28.9089085,2,5,7,0.000780284669701195,0.00145701173132997,0.00126582278481013,1,5,6,0.00163029301799843,0.00304595960009498,0.00271739130434783,1,3,4,0.000677211630614718,0.00223591330168383,0.00199600798403194,0,1,1,0,0.00420168067226891,0.00421940928270042
"306","Headwaters at the Comal",1,10,11,0.00366818918726193,0.001454239088628,0.0025363036409054,"Comal","NGO","New Braunfels, TX",-98.1244531,29.7030024,NA,NA,NA,NA,NA,NA,NA,NA,NA,NA,NA,NA,NA,NA,NA,NA,NA,NA,NA,NA,NA,NA,NA,NA
"307","Headwaters to Baywaters Initiative",1,0,1,0,0.00145687538761326,0.00125786163522013,"Harris","NGO","Houston, TX",-95.3698028,29.7604267,NA,NA,NA,NA,NA,NA,NA,NA,NA,NA,NA,NA,NA,NA,NA,NA,NA,NA,NA,NA,NA,NA,NA,NA
"308","Hill Country Alliance",27,10,37,0.0188568770450407,0.00145517724205426,0.00253552610570014,"Hays","NGO","Austin, TX",-97.7430608,30.267153,27,10,37,0.0188568770450407,0.00145517724205426,0.00253552610570014,12,10,22,0.0117197020824966,0.00303780102403293,0.00372286660728761,19,9,28,0.0127234710374319,0.0022314793865428,0.00257923586932555,3,0,3,0,0.00425531914893617,0.00420168067226891
"309","Hill Country Conservancy",7,10,17,0.0121680191581678,0.00145507590584889,0.00253579332964994,"Travis","NGO","Austin, TX",-97.7430608,30.267153,7,10,17,0.0121680191581678,0.00145507590584889,0.00253579332964994,5,5,10,0.00470217910657872,0.00303732976256573,0.00372126523017826,4,10,14,0.0116902848387447,0.00223119233498935,0.00257961946766501,1,1,2,1.78788528927984e-05,0.00421940928270042,0.00421940928270042
"310","Hill Country Land Trust",2,6,8,0.00274979539430608,0.00145489460259755,0.00253358435176617,"Gillespie","NGO","Fredericksburg, TX",-98.8719843,30.2752011,NA,NA,NA,NA,NA,NA,NA,NA,NA,NA,NA,NA,NA,NA,NA,NA,NA,NA,NA,NA,NA,NA,NA,NA
"311","Homeland Preparedness Project",0,8,8,0,0.00125786163522013,0.00128368044440564,"Brazoria","NGO","Alvin, TX",-95.2441009,29.4238472,NA,NA,NA,NA,NA,NA,NA,NA,NA,NA,NA,NA,NA,NA,NA,NA,NA,NA,NA,NA,NA,NA,NA,NA
"312","Housing Authority of the City of Austin",2,0,2,0,0.00146431785656324,0.00125786163522013,"Travis","NGO","Austin, TX",-97.7430608,30.267153,NA,NA,NA,NA,NA,NA,NA,NA,NA,NA,NA,NA,NA,NA,NA,NA,NA,NA,NA,NA,NA,NA,NA,NA
"313","HousingWorks",1,0,1,0,0.00146204214511413,0.00125786163522013,"Travis","NGO","Austin, TX",-97.7430608,30.267153,NA,NA,NA,NA,NA,NA,NA,NA,NA,NA,NA,NA,NA,NA,NA,NA,NA,NA,NA,NA,NA,NA,NA,NA
"314","Houston-Galveston Area Agency on Aging",1,0,1,0,0.00126103204514304,0.00125786163522013,"Harris","Municipal/County","Houston, TX",-95.3698028,29.7604267,NA,NA,NA,NA,NA,NA,NA,NA,NA,NA,NA,NA,NA,NA,NA,NA,NA,NA,NA,NA,NA,NA,NA,NA
"315","Houston Advanced Research Center",2,10,12,0.00165837555377961,0.00145378909804654,0.00253074181971174,"Montgomery","NGO","The Woodlands, TX",-95.4612625,30.1658207,2,10,12,0.00165837555377961,0.00145378909804654,0.00253074181971174,2,6,8,0.00204692345593137,0.00304274566899508,0.00273968567262229,1,8,9,0.00133858205349576,0.00222840485198607,0.00257776866704248,1,4,5,0.000482729028105557,0.00436423902034803,0.00489164086687306
"316","Houston Area Research Council",1,0,1,0,0.00145687538761326,0.00125786163522013,"Montgomery","NGO","Spring, TX",-95.4171601,30.0799405,NA,NA,NA,NA,NA,NA,NA,NA,NA,NA,NA,NA,NA,NA,NA,NA,NA,NA,NA,NA,NA,NA,NA,NA
"317","Houston Audubon Society",4,8,12,0.00319685319288268,0.00145462006752808,0.00253126623883804,"Harris","NGO","Houston, TX",-95.3698028,29.7604267,NA,NA,NA,NA,NA,NA,NA,NA,NA,NA,NA,NA,NA,NA,NA,NA,NA,NA,NA,NA,NA,NA,NA,NA
"318","Houston Botanic Garden",3,6,9,0.000835860891654501,0.00126422049024369,0.00260295438601092,"Harris","NGO","Houston, TX",-95.3698028,29.7604267,NA,NA,NA,NA,NA,NA,NA,NA,NA,NA,NA,NA,NA,NA,NA,NA,NA,NA,NA,NA,NA,NA,NA,NA
"319","Houston Flood Mitigation Consortium Group",1,0,1,0,0.00145687538761326,0.00125786163522013,"Harris","NGO","Houston, TX",-95.3698028,29.7604267,NA,NA,NA,NA,NA,NA,NA,NA,NA,NA,NA,NA,NA,NA,NA,NA,NA,NA,NA,NA,NA,NA,NA,NA
"320","Houston Food Bank",2,0,2,0,0.00145649055482385,0.00125786163522013,"Harris","NGO","Houston, TX",-95.3698028,29.7604267,NA,NA,NA,NA,NA,NA,NA,NA,NA,NA,NA,NA,NA,NA,NA,NA,NA,NA,NA,NA,NA,NA,NA,NA
"321","Houston Galveston Area Council",1,0,1,0,0.00145643177882781,0.00125786163522013,"Harris","NGO","Houston, TX",-95.3698028,29.7604267,NA,NA,NA,NA,NA,NA,NA,NA,NA,NA,NA,NA,NA,NA,NA,NA,NA,NA,NA,NA,NA,NA,NA,NA
"322","Houston Independent School District",2,0,2,0,0.0012674129611332,0.00125786163522013,"Harris","NGO","Houston, TX",-95.3698028,29.7604267,2,0,2,0,0.0012674129611332,0.00125786163522013,1,0,1,0,0.00268817204301075,0.00268096514745308,2,0,2,0,0.00199997614342572,0.00198412698412698,1,0,1,0,0.00421940928270042,0.00420168067226891
"323","Houston Organizing Movement for Equity Coalition",1,0,1,0,0.00145641842130847,0.00125786163522013,"Harris","NGO","Houston, TX",-95.3698028,29.7604267,1,0,1,0,0.00145641842130847,0.00125786163522013,1,0,1,0,0.00304451373714061,0.00268096514745308,1,0,1,0,0.00223418525526566,0.00198412698412698,1,0,1,0,0.0043834501636858,0.00420168067226891
"324","Houston Parks and Recreation Department",1,0,1,0,0.00126580865883268,0.00125786163522013,"Harris","Municipal/County","Houston, TX",-95.3698028,29.7604267,NA,NA,NA,NA,NA,NA,NA,NA,NA,NA,NA,NA,NA,NA,NA,NA,NA,NA,NA,NA,NA,NA,NA,NA
"325","Houston Parks Board",3,0,3,0,0.00145680054308937,0.00125786163522013,"Harris","NGO","Houston, TX",-95.3698028,29.7604267,3,0,3,0,0.00145680054308937,0.00125786163522013,3,0,3,0,0.00273956461542993,0.00268096514745308,1,0,1,0,0.00202407970769553,0.00198412698412698,1,0,1,0,0.00421940928270042,0.00420168067226891
"326","Houston Region Economic Development Association",1,0,1,0,0.00145643177882781,0.00125786163522013,"Harris","NGO","Houston, TX",-95.3698028,29.7604267,NA,NA,NA,NA,NA,NA,NA,NA,NA,NA,NA,NA,NA,NA,NA,NA,NA,NA,NA,NA,NA,NA,NA,NA
"327","Houston Tomorrow",1,0,1,0,0.00145687538761326,0.00125786163522013,"Harris","NGO","Houston, TX",-95.3698028,29.7604267,NA,NA,NA,NA,NA,NA,NA,NA,NA,NA,NA,NA,NA,NA,NA,NA,NA,NA,NA,NA,NA,NA,NA,NA
"328","Houston Wilderness",2,0,2,0,0.00126581673078119,0.00125786163522013,"Harris","NGO","Houston, TX",-95.3698028,29.7604267,2,0,2,0,0.00126581673078119,0.00125786163522013,1,0,1,0,0.0027026437959068,0.00268096514745308,1,0,1,0,0.00199598422259787,0.00198412698412698,1,0,1,0,0.00421940928270042,0.00420168067226891
"329","Houston Zoo",1,0,1,0,0.00126103204514304,0.00125786163522013,"Harris","NGO","Houston, TX",-95.3698028,29.7604267,NA,NA,NA,NA,NA,NA,NA,NA,NA,NA,NA,NA,NA,NA,NA,NA,NA,NA,NA,NA,NA,NA,NA,NA
"330","Humane Society Travis County",1,0,1,0,0.00126103204514304,0.00125786163522013,"Travis","NGO","Austin, TX",-97.7430608,30.267153,NA,NA,NA,NA,NA,NA,NA,NA,NA,NA,NA,NA,NA,NA,NA,NA,NA,NA,NA,NA,NA,NA,NA,NA
"331","Humanities Texas",1,0,1,0,0.00126103204514304,0.00125786163522013,"Travis","NGO","Austin, TX",-97.7430608,30.267153,NA,NA,NA,NA,NA,NA,NA,NA,NA,NA,NA,NA,NA,NA,NA,NA,NA,NA,NA,NA,NA,NA,NA,NA
"332","Hunt Regional Foundation",1,0,1,0,0.00126103204514304,0.00125786163522013,"Hunt","NGO","Greenville, TX",-96.1108066,33.1384488,NA,NA,NA,NA,NA,NA,NA,NA,NA,NA,NA,NA,NA,NA,NA,NA,NA,NA,NA,NA,NA,NA,NA,NA
"333","Huston-Tillotson University",1,0,1,0,0.00146204214511413,0.00125786163522013,"Travis","University","Austin, TX",-97.7430608,30.267153,NA,NA,NA,NA,NA,NA,NA,NA,NA,NA,NA,NA,NA,NA,NA,NA,NA,NA,NA,NA,NA,NA,NA,NA
"334","Independent Texans",1,0,1,0,0.00145657071155497,0.00125786163522013,"Bastrop","NGO","Bastrop, TX",-97.3152701,30.1104947,NA,NA,NA,NA,NA,NA,NA,NA,NA,NA,NA,NA,NA,NA,NA,NA,NA,NA,NA,NA,NA,NA,NA,NA
"335","Interfaith Action of Central Texas",1,0,1,0,0.001457664395721,0.00125786163522013,"Travis","NGO","Austin, TX",-97.7430608,30.267153,NA,NA,NA,NA,NA,NA,NA,NA,NA,NA,NA,NA,NA,NA,NA,NA,NA,NA,NA,NA,NA,NA,NA,NA
"336","International Code Council",1,0,1,0,0.00125944584382872,0.00125786163522013,"Cook","NGO","Country Club Hills, IL",-87.7203257,41.5680898,NA,NA,NA,NA,NA,NA,NA,NA,NA,NA,NA,NA,NA,NA,NA,NA,NA,NA,NA,NA,NA,NA,NA,NA
"337","International Crane Foundation",3,5,8,0.000769973899426826,0.00145418582077251,0.00253505657582182,"Aransas","NGO","Rockport, TX",-97.0544341,28.0205733,NA,NA,NA,NA,NA,NA,NA,NA,NA,NA,NA,NA,NA,NA,NA,NA,NA,NA,NA,NA,NA,NA,NA,NA
"338","International Dark Sky Association",3,0,3,0,0.00145859089831931,0.00125786163522013,"Pima","NGO","Tuscon, AZ",-110.9747108,32.2226066,NA,NA,NA,NA,NA,NA,NA,NA,NA,NA,NA,NA,NA,NA,NA,NA,NA,NA,NA,NA,NA,NA,NA,NA
"339","Internet of Water",1,0,1,0,0.00145688340712552,0.00125786163522013,"Durham","Private","Durham, NC",-78.898619,35.9940329,NA,NA,NA,NA,NA,NA,NA,NA,NA,NA,NA,NA,NA,NA,NA,NA,NA,NA,NA,NA,NA,NA,NA,NA
"340","James B. Harrison Foundation",1,0,1,0,0.00145670165319126,0.00125786163522013,"Fort Bend","NGO","Richmond, TX",-95.7607832,29.5821811,NA,NA,NA,NA,NA,NA,NA,NA,NA,NA,NA,NA,NA,NA,NA,NA,NA,NA,NA,NA,NA,NA,NA,NA
"341","Jewish Community Center",1,0,1,0,0.00126103204514304,0.00125786163522013,"Travis","NGO","Austin, TX",-97.7430608,30.267153,NA,NA,NA,NA,NA,NA,NA,NA,NA,NA,NA,NA,NA,NA,NA,NA,NA,NA,NA,NA,NA,NA,NA,NA
"342","John Bunker Sands Wetland Center",1,0,1,0,0.00126103204514304,0.00125786163522013,"Dallas","NGO","Seagoville, TX",-96.5383228,32.6395776,NA,NA,NA,NA,NA,NA,NA,NA,NA,NA,NA,NA,NA,NA,NA,NA,NA,NA,NA,NA,NA,NA,NA,NA
"343","Judges Hill",1,0,1,0,0.00125944584382872,0.00125786163522013,"Travis","Municipal/County","Austin, TX",-97.7430608,30.267153,NA,NA,NA,NA,NA,NA,NA,NA,NA,NA,NA,NA,NA,NA,NA,NA,NA,NA,NA,NA,NA,NA,NA,NA
"344","Karnes County",1,0,1,0,0.00145884549099154,0.00125786163522013,"Karnes","Municipal/County","Karnes City, TX",-97.9008355,28.8849772,NA,NA,NA,NA,NA,NA,NA,NA,NA,NA,NA,NA,NA,NA,NA,NA,NA,NA,NA,NA,NA,NA,NA,NA
"345","Katy High School",1,0,1,0,0.00126103204514304,0.00125786163522013,"Harris","Municipal/County","Katy, TX",-95.8245093,29.7857765,NA,NA,NA,NA,NA,NA,NA,NA,NA,NA,NA,NA,NA,NA,NA,NA,NA,NA,NA,NA,NA,NA,NA,NA
"346","Katy Prairie Conservancy",9,10,19,0.0104365348129265,0.0014550439078741,0.00253153256558391,"Harris","NGO","Houston, TX",-95.3698028,29.7604267,9,10,19,0.0104365348129265,0.0014550439078741,0.00253153256558391,6,5,11,0.00175709358606498,0.00308340102448486,0.00271739130434783,2,7,9,0.000502958345544264,0.0020281849156267,0.00203657741625942,1,1,2,1.78788528927984e-05,0.00421940928270042,0.00421940928270042
"347","Keep America Beautiful",3,0,3,0,0.00145578288666712,0.00125786163522013,"Fairfield","NGO","Stamford, CT",-73.5387341,41.0534302,NA,NA,NA,NA,NA,NA,NA,NA,NA,NA,NA,NA,NA,NA,NA,NA,NA,NA,NA,NA,NA,NA,NA,NA
"348","Keep Athens Beautiful",0,2,2,0,0.00125786163522013,0.00254421127848219,"Henderson","NGO","Athens, TX",-95.8555207,32.2048735,NA,NA,NA,NA,NA,NA,NA,NA,NA,NA,NA,NA,NA,NA,NA,NA,NA,NA,NA,NA,NA,NA,NA,NA
"349","Keep Austin Beautiful",2,7,9,0.000372169158558885,0.00145499591355052,0.00126903553299492,"Travis","NGO","Austin, TX",-97.7430608,30.267153,2,7,9,0.000372169158558885,0.00145499591355052,0.00126903553299492,1,0,1,0,0.00268817204301075,0.00268096514745308,1,3,4,1.18809058002582e-05,0.00198807157057654,0.00199600798403194,1,2,3,0.00010727311735679,0.00425508994936982,0.00423728813559322
"350","Keep Brazos Beautiful",0,2,2,0,0.00125786163522013,0.00126103404791929,"Brazos","NGO","Bryan, TX",-96.3699632,30.6743643,NA,NA,NA,NA,NA,NA,NA,NA,NA,NA,NA,NA,NA,NA,NA,NA,NA,NA,NA,NA,NA,NA,NA,NA
"351","Keep Greenville Beautiful",0,10,10,0,0.00125786163522013,0.00128368459513817,"Hunt","NGO","Greenville, TX",-96.1108066,33.1384488,NA,NA,NA,NA,NA,NA,NA,NA,NA,NA,NA,NA,NA,NA,NA,NA,NA,NA,NA,NA,NA,NA,NA,NA
"352","Keep Midland Beautiful",0,9,9,0,0.00125786163522013,0.00261060550265664,"Midland","NGO","Midland, TX",-102.0779146,31.9973456,NA,NA,NA,NA,NA,NA,NA,NA,NA,NA,NA,NA,NA,NA,NA,NA,NA,NA,NA,NA,NA,NA,NA,NA
"353","Keep Odessa Beautiful",1,0,1,0,0.00125944584382872,0.00125786163522013,"Ector","NGO","Odessa, TX",-102.3676431,31.8456816,NA,NA,NA,NA,NA,NA,NA,NA,NA,NA,NA,NA,NA,NA,NA,NA,NA,NA,NA,NA,NA,NA,NA,NA
"354","Keep San Antonio Beautiful",0,3,3,0,0.00125786163522013,0.00258876463108474,"Bexar","NGO","San Antonio, TX",-98.4936282,29.4241219,0,3,3,0,0.00125786163522013,0.00258876463108474,0,1,1,0,0.00268096514745308,0.00268817204301075,0,2,2,0,0.00198412698412698,0.00291096385890795,0,1,1,0,0.00420168067226891,0.00477668494034183
"355","Keep Texas Beautiful",6,9,15,0.00812258426537652,0.00145393817649784,0.00253458721980681,"Travis","NGO","Austin, TX",-97.7430608,30.267153,6,9,15,0.00812258426537652,0.00145393817649784,0.00253458721980681,2,0,2,0,0.00269541778975741,0.00268096514745308,3,4,7,0.00141547791603632,0.00199600798403194,0.00284729337310864,1,3,4,0.000500607880998355,0.00421940928270042,0.00475664826894129
"356","Keystone Heritage Park, Inc.",0,4,4,0,0.00125786163522013,0.00126422250316056,"El Paso","NGO","El Paso, TX",-106.4850217,31.7618778,NA,NA,NA,NA,NA,NA,NA,NA,NA,NA,NA,NA,NA,NA,NA,NA,NA,NA,NA,NA,NA,NA,NA,NA
"357","Killeen Community Center",1,0,1,0,0.00125944584382872,0.00125786163522013,"Bell","NGO","Killeen, TX",-97.7277959,31.1171194,NA,NA,NA,NA,NA,NA,NA,NA,NA,NA,NA,NA,NA,NA,NA,NA,NA,NA,NA,NA,NA,NA,NA,NA
"358","Kiwanis",1,0,1,0,0.00125944584382872,0.00125786163522013,"Marion","NGO","Indianapolis, IN",-86.158068,39.768403,NA,NA,NA,NA,NA,NA,NA,NA,NA,NA,NA,NA,NA,NA,NA,NA,NA,NA,NA,NA,NA,NA,NA,NA
"359","Kleberg Foundation",1,0,1,0,0.00145609524403349,0.00125786163522013,"Bexar","NGO","San Antonio, TX",-98.4936282,29.4241219,NA,NA,NA,NA,NA,NA,NA,NA,NA,NA,NA,NA,NA,NA,NA,NA,NA,NA,NA,NA,NA,NA,NA,NA
"360","KOOP Radio",1,0,1,0,0.00145823461782866,0.00125786163522013,"Travis","NGO","Austin, TX",-97.7430608,30.267153,NA,NA,NA,NA,NA,NA,NA,NA,NA,NA,NA,NA,NA,NA,NA,NA,NA,NA,NA,NA,NA,NA,NA,NA
"361","KUT Radio",1,0,1,0,0.00145823461782866,0.00125786163522013,"Travis","Private","Austin, TX",-97.7430608,30.267153,NA,NA,NA,NA,NA,NA,NA,NA,NA,NA,NA,NA,NA,NA,NA,NA,NA,NA,NA,NA,NA,NA,NA,NA
"362","La Porte Independent School District",1,0,1,0,0.00125944584382872,0.00125786163522013,"Harris","NGO","La Porte, TX",-95.0193728,29.6657838,NA,NA,NA,NA,NA,NA,NA,NA,NA,NA,NA,NA,NA,NA,NA,NA,NA,NA,NA,NA,NA,NA,NA,NA
"363","Lafitttes Cove Nature Society",0,1,1,0,0.00125786163522013,0.00125944584382872,"Galveston","NGO","Galveston, TX",-94.7976958,29.3013479,NA,NA,NA,NA,NA,NA,NA,NA,NA,NA,NA,NA,NA,NA,NA,NA,NA,NA,NA,NA,NA,NA,NA,NA
"364","Lake Area Shared Ministries",1,0,1,0,0.00126103204514304,0.00125786163522013,"Hunt","NGO","Quinlan, TX",-96.1355295,32.9103998,NA,NA,NA,NA,NA,NA,NA,NA,NA,NA,NA,NA,NA,NA,NA,NA,NA,NA,NA,NA,NA,NA,NA,NA
"365","Land Trust Alliance",6,0,6,0,0.00145705183727997,0.00125786163522013,"District of Columbia","NGO","Washington, DC",-77.0368707,38.9071923,NA,NA,NA,NA,NA,NA,NA,NA,NA,NA,NA,NA,NA,NA,NA,NA,NA,NA,NA,NA,NA,NA,NA,NA
"366","Larch Terrace Neighborhood Association",1,0,1,0,0.00125944584382872,0.00125786163522013,"Travis","NGO","Austin, TX",-97.7430608,30.267153,NA,NA,NA,NA,NA,NA,NA,NA,NA,NA,NA,NA,NA,NA,NA,NA,NA,NA,NA,NA,NA,NA,NA,NA
"367","Latinitas",1,0,1,0,0.00126262023913455,0.00125786163522013,"Travis","NGO","Austin, TX",-97.7430608,30.267153,NA,NA,NA,NA,NA,NA,NA,NA,NA,NA,NA,NA,NA,NA,NA,NA,NA,NA,NA,NA,NA,NA,NA,NA
"368","Latino Healthcare Forum",1,0,1,0,0.00145464671687702,0.00125786163522013,"Travis","NGO","Austin, TX",-97.7430608,30.267153,NA,NA,NA,NA,NA,NA,NA,NA,NA,NA,NA,NA,NA,NA,NA,NA,NA,NA,NA,NA,NA,NA,NA,NA
"369","Lavaca Bay Foundation",2,0,2,0,0.00145602314966781,0.00125786163522013,"Calhoun","NGO","Port Lavaca, TX",-96.6260892,28.6149968,NA,NA,NA,NA,NA,NA,NA,NA,NA,NA,NA,NA,NA,NA,NA,NA,NA,NA,NA,NA,NA,NA,NA,NA
"370","LBJ Hospital",1,0,1,0,0.00145437227534161,0.00125786163522013,"Harris","NGO","Houston, TX",-95.3698028,29.7604267,NA,NA,NA,NA,NA,NA,NA,NA,NA,NA,NA,NA,NA,NA,NA,NA,NA,NA,NA,NA,NA,NA,NA,NA
"371","Leadership San Marcos",1,0,1,0,0.00145622877097226,0.00125786163522013,"Hays","NGO","San Marcos, TX",-97.9413941,29.8832749,NA,NA,NA,NA,NA,NA,NA,NA,NA,NA,NA,NA,NA,NA,NA,NA,NA,NA,NA,NA,NA,NA,NA,NA
"372","League of Independent Voters of Texas",1,6,7,0.00316172552169357,0.00145256036632328,0.00253470858832055,"Bastrop","NGO","Bastrop, TX",-97.3152701,30.1104947,NA,NA,NA,NA,NA,NA,NA,NA,NA,NA,NA,NA,NA,NA,NA,NA,NA,NA,NA,NA,NA,NA,NA,NA
"373","League of United Latin American Citizens",1,0,1,0,0.00125944584382872,0.00125786163522013,"DC","NGO","Washington, DC",-77.0368707,38.9071923,NA,NA,NA,NA,NA,NA,NA,NA,NA,NA,NA,NA,NA,NA,NA,NA,NA,NA,NA,NA,NA,NA,NA,NA
"374","League of Women Voters",1,0,1,0,0.00145823461782866,0.00125786163522013,"Travis","NGO","Austin, NA",-97.7452273,30.2702889,NA,NA,NA,NA,NA,NA,NA,NA,NA,NA,NA,NA,NA,NA,NA,NA,NA,NA,NA,NA,NA,NA,NA,NA
"375","Life Four Square Church",1,0,1,0,0.00125944584382872,0.00125786163522013,"Brazoria","NGO","Angleton, TX",-95.4318847,29.16941,NA,NA,NA,NA,NA,NA,NA,NA,NA,NA,NA,NA,NA,NA,NA,NA,NA,NA,NA,NA,NA,NA,NA,NA
"376","LINK Houston",1,0,1,0,0.00126103204514304,0.00125786163522013,"Harris","NGO","Houston, TX",-95.3698028,29.7604267,1,0,1,0,0.00126103204514304,0.00125786163522013,1,0,1,0,0.00269539825958424,0.00268096514745308,1,0,1,0,0.00198807157057654,0.00198412698412698,1,0,1,0,0.00421940928270042,0.00420168067226891
"377","Lions Club",1,0,1,0,0.00125944584382872,0.00125786163522013,"Dupage","NGO","Oak Brook, IL",-87.9535534,41.8397865,NA,NA,NA,NA,NA,NA,NA,NA,NA,NA,NA,NA,NA,NA,NA,NA,NA,NA,NA,NA,NA,NA,NA,NA
"378","Llano River Watershed Alliance",1,0,1,0,0.00145666423889294,0.00125786163522013,"Kimble","NGO","Junction, TX",-99.7720109,30.4893555,NA,NA,NA,NA,NA,NA,NA,NA,NA,NA,NA,NA,NA,NA,NA,NA,NA,NA,NA,NA,NA,NA,NA,NA
"379","Lone Star Circle of Care",2,0,2,0,0.00145793740417367,0.00125786163522013,"Williamson","NGO","Georgetown, TX",-97.6779842,30.6332618,2,0,2,0,0.00145793740417367,0.00125786163522013,1,0,1,0,0.00268817204301075,0.00268096514745308,2,0,2,0,0.0020200316458238,0.00198412698412698,1,0,1,0,0.00430932596323436,0.00420168067226891
"380","Long Acres Ranch",1,0,1,0,0.00145670165319126,0.00125786163522013,"Fort Bend","NGO","Richmond, TX",-95.7607832,29.5821811,NA,NA,NA,NA,NA,NA,NA,NA,NA,NA,NA,NA,NA,NA,NA,NA,NA,NA,NA,NA,NA,NA,NA,NA
"381","Los Padres Prostate Cancer Charity",1,0,1,0,0.00126103204514304,0.00125786163522013,"Bexar","NGO","San Antonio, TX",-98.4936282,29.4241219,NA,NA,NA,NA,NA,NA,NA,NA,NA,NA,NA,NA,NA,NA,NA,NA,NA,NA,NA,NA,NA,NA,NA,NA
"382","Lower Colorado River Authority",1,0,1,0,0.00145573751255894,0.00125786163522013,"Travis","NGO","Austin, TX",-97.7430608,30.267153,NA,NA,NA,NA,NA,NA,NA,NA,NA,NA,NA,NA,NA,NA,NA,NA,NA,NA,NA,NA,NA,NA,NA,NA
"383","Lower Colorado River Trust",1,0,1,0,0.00145638636426167,0.00125786163522013,"Travis","Municipal/County","Austin, TX",-97.7430608,30.267153,NA,NA,NA,NA,NA,NA,NA,NA,NA,NA,NA,NA,NA,NA,NA,NA,NA,NA,NA,NA,NA,NA,NA,NA
"384","Master Gardeners",1,0,1,0,0.00125944584382872,0.00125786163522013,"Brazos","NGO","College Station, TX",-96.3344068,30.627977,NA,NA,NA,NA,NA,NA,NA,NA,NA,NA,NA,NA,NA,NA,NA,NA,NA,NA,NA,NA,NA,NA,NA,NA
"385","Master Naturalist",5,0,5,0,0.00145823461782866,0.00125786163522013,"Brazos","NGO","College Station, TX",-96.3344068,30.627977,5,0,5,0,0.00145823461782866,0.00125786163522013,1,0,1,0,0.00268817204301075,0.00268096514745308,4,0,4,0,0.002,0.00198412698412698,2,0,2,0,0.00423728813559322,0.00420168067226891
"386","McDonald Observatory",1,0,1,0,0.00126580462289703,0.00125786163522013,"Jeff Davis","NGO","McDonald Observatory, TX",-104.0221435,30.671896,NA,NA,NA,NA,NA,NA,NA,NA,NA,NA,NA,NA,NA,NA,NA,NA,NA,NA,NA,NA,NA,NA,NA,NA
"387","McKenna Children's Museum",1,0,1,0,0.00145606854158414,0.00125786163522013,"Comal","NGO","New Braunfels, TX",-98.1244531,29.7030024,NA,NA,NA,NA,NA,NA,NA,NA,NA,NA,NA,NA,NA,NA,NA,NA,NA,NA,NA,NA,NA,NA,NA,NA
"388","McLean Astronomical Research and Studies",0,1,1,0,0.00125786163522013,0.00125944584382872,"Mitchell","NGO","Colorado City, TX",-100.8645576,32.3881745,NA,NA,NA,NA,NA,NA,NA,NA,NA,NA,NA,NA,NA,NA,NA,NA,NA,NA,NA,NA,NA,NA,NA,NA
"389","Memorial Hermann",1,0,1,0,0.00145437227534161,0.00125786163522013,"Harris","NGO","Houston, TX",-95.3698028,29.7604267,NA,NA,NA,NA,NA,NA,NA,NA,NA,NA,NA,NA,NA,NA,NA,NA,NA,NA,NA,NA,NA,NA,NA,NA
"390","Memorial Park Conservancy",3,0,3,0,0.00126742105355572,0.00125786163522013,"Harris","NGO","Houston, TX",-95.3698028,29.7604267,NA,NA,NA,NA,NA,NA,NA,NA,NA,NA,NA,NA,NA,NA,NA,NA,NA,NA,NA,NA,NA,NA,NA,NA
"391","Mercer Garden",1,0,1,0,0.00125944584382872,0.00125786163522013,"Harris","NGO","Humble, TX",-95.2621553,29.9988312,NA,NA,NA,NA,NA,NA,NA,NA,NA,NA,NA,NA,NA,NA,NA,NA,NA,NA,NA,NA,NA,NA,NA,NA
"392","Mermaid Society San Marcos Texas",1,0,1,0,0.00145622877097226,0.00125786163522013,"Hays","NGO","San Marcos, TX",-97.9413941,29.8832749,NA,NA,NA,NA,NA,NA,NA,NA,NA,NA,NA,NA,NA,NA,NA,NA,NA,NA,NA,NA,NA,NA,NA,NA
"393","Midland County",1,0,1,0,0.00125944584382872,0.00125786163522013,"Midland","Municipal/County","Midland, TX",-102.0779146,31.9973456,NA,NA,NA,NA,NA,NA,NA,NA,NA,NA,NA,NA,NA,NA,NA,NA,NA,NA,NA,NA,NA,NA,NA,NA
"394","Midland Independent School District",1,0,1,0,0.00125944584382872,0.00125786163522013,"Midland","NGO","Midland, TX",-102.0779146,31.9973456,NA,NA,NA,NA,NA,NA,NA,NA,NA,NA,NA,NA,NA,NA,NA,NA,NA,NA,NA,NA,NA,NA,NA,NA
"395","Midland Shared Spaces",1,4,5,6.35281636231382e-06,0.00125944584382872,0.00126422250316056,"Midland","NGO","Midland, TX",-102.0779146,31.9973456,NA,NA,NA,NA,NA,NA,NA,NA,NA,NA,NA,NA,NA,NA,NA,NA,NA,NA,NA,NA,NA,NA,NA,NA
"396","Mission-Aransas National Estuarine Research Reserve",1,0,1,0,0.00145601513962342,0.00125786163522013,"Nueces","Federal Agency","Port Aransas, TX",-97.0610994,27.8339158,NA,NA,NA,NA,NA,NA,NA,NA,NA,NA,NA,NA,NA,NA,NA,NA,NA,NA,NA,NA,NA,NA,NA,NA
"397","Mission Adventure Tours",1,0,1,0,0.00145549467571249,0.00125786163522013,"Bexar","Private","San Antonio, TX",-98.4936282,29.4241219,NA,NA,NA,NA,NA,NA,NA,NA,NA,NA,NA,NA,NA,NA,NA,NA,NA,NA,NA,NA,NA,NA,NA,NA
"398","Mission Capital",2,0,2,0,0.00145704381591334,0.00125786163522013,"Travis","NGO","Austin, TX",-97.7430608,30.267153,NA,NA,NA,NA,NA,NA,NA,NA,NA,NA,NA,NA,NA,NA,NA,NA,NA,NA,NA,NA,NA,NA,NA,NA
"399","Missouri Botanical Garden",1,0,1,0,0.00145637300757534,0.00125786163522013,"St. Louis","NGO","St. Louis, MO",-90.1994042,38.6270025,NA,NA,NA,NA,NA,NA,NA,NA,NA,NA,NA,NA,NA,NA,NA,NA,NA,NA,NA,NA,NA,NA,NA,NA
"400","Mobile Om",1,0,1,0,0.00145549467571249,0.00125786163522013,"Bexar","Private","San Antonio, TX",-98.4936282,29.4241219,NA,NA,NA,NA,NA,NA,NA,NA,NA,NA,NA,NA,NA,NA,NA,NA,NA,NA,NA,NA,NA,NA,NA,NA
"401","Monarch Academy",1,0,1,0,0.00125944584382872,0.00125786163522013,"Bell","NGO","Killeen, TX",-97.7277959,31.1171194,NA,NA,NA,NA,NA,NA,NA,NA,NA,NA,NA,NA,NA,NA,NA,NA,NA,NA,NA,NA,NA,NA,NA,NA
"402","Monarch Gateway Project",1,0,1,0,0.00145670165319126,0.00125786163522013,"Fort Bend","NGO","Richmond, TX",-95.7607832,29.5821811,NA,NA,NA,NA,NA,NA,NA,NA,NA,NA,NA,NA,NA,NA,NA,NA,NA,NA,NA,NA,NA,NA,NA,NA
"403","Monarch Joint Venture",2,0,2,0,0.00145665622179334,0.00125786163522013,"Ramsey","NGO","St. Paul, MN",-93.0899578,44.9537029,NA,NA,NA,NA,NA,NA,NA,NA,NA,NA,NA,NA,NA,NA,NA,NA,NA,NA,NA,NA,NA,NA,NA,NA
"404","Monarch Watch",1,0,1,0,0.00145664820478199,0.00125786163522013,"Douglas","NGO","Lawrence, KS",-95.2352501,38.9716689,NA,NA,NA,NA,NA,NA,NA,NA,NA,NA,NA,NA,NA,NA,NA,NA,NA,NA,NA,NA,NA,NA,NA,NA
"405","Montopolis Neighborhood Association",1,0,1,0,0.00125944584382872,0.00125786163522013,"Travis","NGO","Austin, TX",-97.7430608,30.267153,NA,NA,NA,NA,NA,NA,NA,NA,NA,NA,NA,NA,NA,NA,NA,NA,NA,NA,NA,NA,NA,NA,NA,NA
"406","Mother Earth News",1,0,1,0,0.00126103204514304,0.00125786163522013,"Shawnee","Private","Topeka, KS",-95.6751576,39.0473451,NA,NA,NA,NA,NA,NA,NA,NA,NA,NA,NA,NA,NA,NA,NA,NA,NA,NA,NA,NA,NA,NA,NA,NA
"407","Move Texas",1,0,1,0,0.00145463872196981,0.00125786163522013,"Bexar","NGO","San Antonio, TX",-98.4936282,29.4241219,NA,NA,NA,NA,NA,NA,NA,NA,NA,NA,NA,NA,NA,NA,NA,NA,NA,NA,NA,NA,NA,NA,NA,NA
"408","Multicultural Refugee Coalition",1,0,1,0,0.00145464138692911,0.00125786163522013,"Travis","NGO","Austin, TX",-97.7430608,30.267153,NA,NA,NA,NA,NA,NA,NA,NA,NA,NA,NA,NA,NA,NA,NA,NA,NA,NA,NA,NA,NA,NA,NA,NA
"409","NAACP",1,0,1,0,0.00125944584382872,0.00125786163522013,"Baltimore","NGO","Baltimore, MD",-76.6121893,39.2903848,NA,NA,NA,NA,NA,NA,NA,NA,NA,NA,NA,NA,NA,NA,NA,NA,NA,NA,NA,NA,NA,NA,NA,NA
"410","National Association of Conservation Districts",2,0,2,0,0.00145995870192387,0.00125786163522013,"DC","NGO","Washington, DC",-77.0368707,38.9071923,NA,NA,NA,NA,NA,NA,NA,NA,NA,NA,NA,NA,NA,NA,NA,NA,NA,NA,NA,NA,NA,NA,NA,NA
"411","National Cattlemen's Beef Association",1,0,1,0,0.00125944584382872,0.00125786163522013,"District of Columbia","NGO","Washington, DC",-77.0368707,38.9071923,NA,NA,NA,NA,NA,NA,NA,NA,NA,NA,NA,NA,NA,NA,NA,NA,NA,NA,NA,NA,NA,NA,NA,NA
"412","National Center for Appropriate Technology",2,10,12,0.000764005577772765,0.00145281551621609,0.00253256612102732,"Bexar","NGO","San Antonio, TX",-98.4936282,29.4241219,2,10,12,0.000764005577772765,0.00145281551621609,0.00253256612102732,1,10,11,0.0002427325160131,0.00271725236116082,0.0039724915637948,2,10,12,0.000108908303169034,0.00199600006349106,0.00210937729337119,0,5,5,0,0.00420168067226891,0.00442403539228314
"413","National Farmers Union",1,0,1,0,0.00125944584382872,0.00125786163522013,"District of Columbia","NGO","Washington, DC",-77.0368707,38.9071923,NA,NA,NA,NA,NA,NA,NA,NA,NA,NA,NA,NA,NA,NA,NA,NA,NA,NA,NA,NA,NA,NA,NA,NA
"414","National Fish and Wildlife Foundation",1,0,1,0,0.00145609524403349,0.00125786163522013,"DC","NGO","Washington, DC",-77.0368707,38.9071923,NA,NA,NA,NA,NA,NA,NA,NA,NA,NA,NA,NA,NA,NA,NA,NA,NA,NA,NA,NA,NA,NA,NA,NA
"415","National Grazing Lands Coalition",0,10,10,0,0.00125786163522013,0.00127388535031847,"Brazos","NGO","Bowie, TX",-97.8486457,33.5589953,NA,NA,NA,NA,NA,NA,NA,NA,NA,NA,NA,NA,NA,NA,NA,NA,NA,NA,NA,NA,NA,NA,NA,NA
"416","National Habitat Conservation Plan Coalition",1,0,1,0,0.00125944584382872,0.00125786163522013,"Yolo","NGO","Davis, CA",-121.7405167,38.5449065,NA,NA,NA,NA,NA,NA,NA,NA,NA,NA,NA,NA,NA,NA,NA,NA,NA,NA,NA,NA,NA,NA,NA,NA
"417","National League of Cities",1,0,1,0,0.00145731124240372,0.00125786163522013,"DC","NGO","Washington, DC",-77.0368707,38.9071923,NA,NA,NA,NA,NA,NA,NA,NA,NA,NA,NA,NA,NA,NA,NA,NA,NA,NA,NA,NA,NA,NA,NA,NA
"418","National Marine Fisheries Service",1,0,1,0,0.00145573751255894,0.00125786163522013,"Pinellas","Federal Agency","Saint Petersburg, FL",-82.6402915,27.7676008,NA,NA,NA,NA,NA,NA,NA,NA,NA,NA,NA,NA,NA,NA,NA,NA,NA,NA,NA,NA,NA,NA,NA,NA
"419","National Mining Association",1,0,1,0,0.00125944584382872,0.00125786163522013,"DC","NGO","Washington, DC",-77.0368707,38.9071923,NA,NA,NA,NA,NA,NA,NA,NA,NA,NA,NA,NA,NA,NA,NA,NA,NA,NA,NA,NA,NA,NA,NA,NA
"420","National Park Service",1,0,1,0,0.00145871684358661,0.00125786163522013,"Jefferson","Federal Agency","Denver, CO",-104.990251,39.7392358,NA,NA,NA,NA,NA,NA,NA,NA,NA,NA,NA,NA,NA,NA,NA,NA,NA,NA,NA,NA,NA,NA,NA,NA
"421","National Parks Conservation Association",2,10,12,0.000339394802478587,0.00126421847733323,0.00259214521236656,"Travis","NGO","Austin, TX",-97.7430608,30.267153,NA,NA,NA,NA,NA,NA,NA,NA,NA,NA,NA,NA,NA,NA,NA,NA,NA,NA,NA,NA,NA,NA,NA,NA
"422","National Resources Defense Council",1,0,1,0,0.00125944584382872,0.00125786163522013,"New York","NGO","New York, NY",-74.0059728,40.7127753,NA,NA,NA,NA,NA,NA,NA,NA,NA,NA,NA,NA,NA,NA,NA,NA,NA,NA,NA,NA,NA,NA,NA,NA
"423","National Science Foundation",1,0,1,0,0.00145637300757534,0.00125786163522013,"Alexandria","Federal Agency","Alexandria, VA",-77.0469214,38.8048355,NA,NA,NA,NA,NA,NA,NA,NA,NA,NA,NA,NA,NA,NA,NA,NA,NA,NA,NA,NA,NA,NA,NA,NA
"424","National Wildlife Federation",10,9,19,0.0114656249390049,0.00145516124066241,0.00253390777086325,"Travis","NGO","Austin, TX",-97.7430608,30.267153,10,9,19,0.0114656249390049,0.00145516124066241,0.00253390777086325,6,6,12,0.00558559090099825,0.00303747856617947,0.003720037200372,7,5,12,0.00375159559307659,0.00223131110598506,0.00257805933124218,0,1,1,0,0.00420168067226891,0.00421940928270042
"425","Native Plant Society of Texas",6,5,11,0.00430220391384831,0.00145481729583545,0.00253116940664161,"Gillespie","NGO","Fredericksburg, TX",-98.8719843,30.2752011,6,5,11,0.00430220391384831,0.00145481729583545,0.00253116940664161,1,0,1,0,0.00268817204301075,0.00268096514745308,3,2,5,0.00138214537476337,0.00199600798403194,0.00258985990042169,1,0,1,0,0.00421940928270042,0.00420168067226891
"426","Native Prairies Association of Texas",3,0,3,0,0.0014588722953904,0.00125786163522013,"Hays","NGO","San Marcos, TX",-97.9413941,29.8832749,NA,NA,NA,NA,NA,NA,NA,NA,NA,NA,NA,NA,NA,NA,NA,NA,NA,NA,NA,NA,NA,NA,NA,NA
"427","Natural Areas Association",1,0,1,0,0.00126103204514304,0.00125786163522013,"Westmoreland","NGO","Ligonier, PA",-79.2375325,40.2431278,NA,NA,NA,NA,NA,NA,NA,NA,NA,NA,NA,NA,NA,NA,NA,NA,NA,NA,NA,NA,NA,NA,NA,NA
"428","NatureBridge",1,0,1,0,0.00125944584382872,0.00125786163522013,"Marin","NGO","Sausalito, CA",-122.4852507,37.8590937,NA,NA,NA,NA,NA,NA,NA,NA,NA,NA,NA,NA,NA,NA,NA,NA,NA,NA,NA,NA,NA,NA,NA,NA
"429","New Braunfels Independent School District",1,0,1,0,0.00145606854158414,0.00125786163522013,"Comal","NGO","New Braunfels, TX",-98.1244531,29.7030024,NA,NA,NA,NA,NA,NA,NA,NA,NA,NA,NA,NA,NA,NA,NA,NA,NA,NA,NA,NA,NA,NA,NA,NA
"430","New Braunfels Parks and Recreation Department",2,0,2,0,0.00145635697987513,0.00125786163522013,"Comal","Municipal/County","New Braunfels, TX",-98.1244531,29.7030024,2,0,2,0,0.00145635697987513,0.00125786163522013,1,0,1,0,0.00268817204301075,0.00268096514745308,1,0,1,0,0.00198807157057654,0.00198412698412698,1,0,1,0,0.00421940928270042,0.00420168067226891
"431","New Braunfels Utilities",2,0,2,0,0.00145654933556402,0.00125786163522013,"Comal","Private","New Braunfels, TX",-98.1244531,29.7030024,NA,NA,NA,NA,NA,NA,NA,NA,NA,NA,NA,NA,NA,NA,NA,NA,NA,NA,NA,NA,NA,NA,NA,NA
"432","Next to New",1,0,1,0,0.00126103204514304,0.00125786163522013,"Travis","NGO","Austin, TX",-97.7430608,30.267153,NA,NA,NA,NA,NA,NA,NA,NA,NA,NA,NA,NA,NA,NA,NA,NA,NA,NA,NA,NA,NA,NA,NA,NA
"433","NOAA",1,0,1,0,0.00126103204514304,0.00125786163522013,"DC","Federal Agency","Washington, DC",-77.0368707,38.9071923,NA,NA,NA,NA,NA,NA,NA,NA,NA,NA,NA,NA,NA,NA,NA,NA,NA,NA,NA,NA,NA,NA,NA,NA
"434","Noble Foundation",1,0,1,0,0.00145637300757534,0.00125786163522013,"Carter","NGO","Ardmore, OK",-97.1436254,34.1742611,NA,NA,NA,NA,NA,NA,NA,NA,NA,NA,NA,NA,NA,NA,NA,NA,NA,NA,NA,NA,NA,NA,NA,NA
"435","Nona Payne Foundation",1,0,1,0,0.00126262224695873,0.00125786163522013,"Gray","NGO","Pampa, TX",-100.9598709,35.5361559,NA,NA,NA,NA,NA,NA,NA,NA,NA,NA,NA,NA,NA,NA,NA,NA,NA,NA,NA,NA,NA,NA,NA,NA
"436","Nonprofit Management Center of the Permian Basin",1,0,1,0,0.00126103204514304,0.00125786163522013,"Midland","NGO","Midland, TX",-102.0779146,31.9973456,NA,NA,NA,NA,NA,NA,NA,NA,NA,NA,NA,NA,NA,NA,NA,NA,NA,NA,NA,NA,NA,NA,NA,NA
"437","Noon Rotary",2,0,2,0,0.00126103404791929,0.00125786163522013,"Hunt","NGO","Greenville, TX",-96.1108066,33.1384488,NA,NA,NA,NA,NA,NA,NA,NA,NA,NA,NA,NA,NA,NA,NA,NA,NA,NA,NA,NA,NA,NA,NA,NA
"438","North American Association for Environmental Education",1,0,1,0,0.00145496925140549,0.00125786163522013,"DC","NGO","Washington, DC",-77.0368707,38.9071923,NA,NA,NA,NA,NA,NA,NA,NA,NA,NA,NA,NA,NA,NA,NA,NA,NA,NA,NA,NA,NA,NA,NA,NA
"439","North Central Texas Council of Governments",1,8,9,0.00112524259817484,0.00145548133537663,0.00127388126271475,"Tarrant","State Agency","Arlington, TX",-97.1080656,32.735687,1,8,9,0.00112524259817484,0.00145548133537663,0.00127388126271475,1,5,6,3.62287337332986e-05,0.00268817204301075,0.00271739130434783,1,8,9,2.77221135339358e-05,0.00198807157057654,0.00202427520484216,0,6,6,0,0.00420168067226891,0.00431034482758621
"440","North Texas Commission",1,0,1,0,0.00145731124240372,0.00125786163522013,"Dallas","NGO","Irving, TX",-96.9488945,32.8140177,NA,NA,NA,NA,NA,NA,NA,NA,NA,NA,NA,NA,NA,NA,NA,NA,NA,NA,NA,NA,NA,NA,NA,NA
"441","North Texas Master Naturalists",1,0,1,0,0.00125944584382872,0.00125786163522013,"Dallas","NGO","Dallas, TX",-96.7969879,32.7766642,NA,NA,NA,NA,NA,NA,NA,NA,NA,NA,NA,NA,NA,NA,NA,NA,NA,NA,NA,NA,NA,NA,NA,NA
"442","Northwest Membrane Operator Association",1,0,1,0,0.00125944584382872,0.00125786163522013,"Ada","NGO","Boise, ID",-116.2023137,43.6150186,NA,NA,NA,NA,NA,NA,NA,NA,NA,NA,NA,NA,NA,NA,NA,NA,NA,NA,NA,NA,NA,NA,NA,NA
"443","Nueces River Authority",4,5,9,7.46455922571874e-05,0.00126422250316056,0.00255209454963888,"Uvalde","Municipal/County","Uvalde, TX",-99.7861679,29.2096836,NA,NA,NA,NA,NA,NA,NA,NA,NA,NA,NA,NA,NA,NA,NA,NA,NA,NA,NA,NA,NA,NA,NA,NA
"444","Nueces River Preservation Association",1,0,1,0,0.00126581471278441,0.00125786163522013,"Nueces","NGO","Corpus Christi, TX",-97.396381,27.8005828,NA,NA,NA,NA,NA,NA,NA,NA,NA,NA,NA,NA,NA,NA,NA,NA,NA,NA,NA,NA,NA,NA,NA,NA
"445","Oaks and Prairies Joint Venture",1,0,1,0,0.00126103204514304,0.00125786163522013,"Williamson","Federal Agency","Round Rock, TX",-97.678896,30.5082551,NA,NA,NA,NA,NA,NA,NA,NA,NA,NA,NA,NA,NA,NA,NA,NA,NA,NA,NA,NA,NA,NA,NA,NA
"446","Ocean Conservancy",1,0,1,0,0.00145576687195302,0.00125786163522013,"Travis","NGO","Austin, TX",-97.7430608,30.267153,NA,NA,NA,NA,NA,NA,NA,NA,NA,NA,NA,NA,NA,NA,NA,NA,NA,NA,NA,NA,NA,NA,NA,NA
"447","Oil, Chemical, and Atomic Workers Union",1,0,1,0,0.00125944584382872,0.00125786163522013,"Montgomery","NGO","Rockville, MD",-77.1527578,39.0839973,NA,NA,NA,NA,NA,NA,NA,NA,NA,NA,NA,NA,NA,NA,NA,NA,NA,NA,NA,NA,NA,NA,NA,NA
"448","OneStar Foundation",0,9,9,0,0.00125786163522013,0.00128039940721055,"Travis","NGO","Austin, TX",-97.7430608,30.267153,0,9,9,0,0.00125786163522013,0.00128039940721055,0,5,5,0,0.00268096514745308,0.00271739130434783,0,5,5,0,0.00198412698412698,0.00201610478935112,0,2,2,0,0.00420168067226891,0.00423728813559322
"449","Original Austin Neighborhood Association",1,0,1,0,0.00125944584382872,0.00125786163522013,"Travis","NGO","Austin, TX",-97.7430608,30.267153,NA,NA,NA,NA,NA,NA,NA,NA,NA,NA,NA,NA,NA,NA,NA,NA,NA,NA,NA,NA,NA,NA,NA,NA
"450","Our Nation's Energy Future Coalition, Inc.",0,3,3,0,0.00125786163522013,0.00255149587068993,"DC","NGO","Washington, DC",-77.0368707,38.9071923,NA,NA,NA,NA,NA,NA,NA,NA,NA,NA,NA,NA,NA,NA,NA,NA,NA,NA,NA,NA,NA,NA,NA,NA
"451","Out Teach",1,3,4,0.000360257627879546,0.00145523058256876,0.00126262626262626,"Tarrant","NGO","Canyon, TX",-101.9188024,34.9803342,NA,NA,NA,NA,NA,NA,NA,NA,NA,NA,NA,NA,NA,NA,NA,NA,NA,NA,NA,NA,NA,NA,NA,NA
"452","Outdoor Afro",1,0,1,0,0.00125944584382872,0.00125786163522013,"Alameda","NGO","Oakland, CA",-122.2711639,37.8043514,NA,NA,NA,NA,NA,NA,NA,NA,NA,NA,NA,NA,NA,NA,NA,NA,NA,NA,NA,NA,NA,NA,NA,NA
"453","Panhandle-Plains Historical Museum",1,8,9,1.11174286340492e-05,0.00125944584382872,0.00128532831720737,"Randall","NGO","Canyon, TX",-101.9188024,34.9803342,1,8,9,1.11174286340492e-05,0.00125944584382872,0.00128532831720737,0,5,5,0,0.00268096514745308,0.0027471715948365,1,6,7,1.9801509667097e-05,0.00198807157057654,0.00201206438606035,1,0,1,0,0.00421940928270042,0.00420168067226891
"454","Panhandle Regional Planning Commission",1,0,1,0,0.00126262224695873,0.00125786163522013,"Potter","Municipal/County","Amarillo, TX",-101.8312969,35.2219971,NA,NA,NA,NA,NA,NA,NA,NA,NA,NA,NA,NA,NA,NA,NA,NA,NA,NA,NA,NA,NA,NA,NA,NA
"455","Parks and Recreation Department",2,0,2,0,0.00145918598005289,0.00125786163522013,"Travis","Municipal/County","Austin, TX",-97.7430608,30.267153,2,0,2,0,0.00145918598005289,0.00125786163522013,1,0,1,0,0.0030457600890803,0.00268096514745308,2,0,2,0,0.00224581644134088,0.00198412698412698,1,0,1,0,0.00438458549941724,0.00420168067226891
"456","Partners in Education, Agriculture and Sustainability",1,4,5,0.00330182336417626,0.00145314255804335,0.00253095962896259,"Travis","NGO","Austin, TX",-97.7430608,30.267153,NA,NA,NA,NA,NA,NA,NA,NA,NA,NA,NA,NA,NA,NA,NA,NA,NA,NA,NA,NA,NA,NA,NA,NA
"457","Pasadena Chamber",1,0,1,0,0.00125944584382872,0.00125786163522013,"Harris","NGO","Pasadena, TX",-95.2091006,29.6910625,NA,NA,NA,NA,NA,NA,NA,NA,NA,NA,NA,NA,NA,NA,NA,NA,NA,NA,NA,NA,NA,NA,NA,NA
"458","Pasadena Independent School District",1,0,1,0,0.00125944584382872,0.00125786163522013,"Harris","NGO","Pasadena, TX",-95.2091006,29.6910625,NA,NA,NA,NA,NA,NA,NA,NA,NA,NA,NA,NA,NA,NA,NA,NA,NA,NA,NA,NA,NA,NA,NA,NA
"459","Pathfinders",1,0,1,0,0.00125944584382872,0.00125786163522013,"Tarrant","NGO","Fort Worth, TX",-97.3307658,32.7554883,NA,NA,NA,NA,NA,NA,NA,NA,NA,NA,NA,NA,NA,NA,NA,NA,NA,NA,NA,NA,NA,NA,NA,NA
"460","Pecan Street, Inc.",1,0,1,0,0.00145589766909683,0.00125786163522013,"Travis","NGO","Austin, TX",-97.7430608,30.267153,1,0,1,0,0.00145589766909683,0.00125786163522013,1,0,1,0,0.0030426958939964,0.00268096514745308,1,0,1,0,0.00223337181422609,0.00198412698412698,1,0,1,0,0.00438328802086223,0.00420168067226891
"461","People's Community Clinic",2,0,2,0,0.00145492659400585,0.00125786163522013,"Travis","NGO","Austin, TX",-97.7430608,30.267153,NA,NA,NA,NA,NA,NA,NA,NA,NA,NA,NA,NA,NA,NA,NA,NA,NA,NA,NA,NA,NA,NA,NA,NA
"462","People Organized in Defense of Earth and Her Resources",0,10,10,0,0.00125786163522013,0.00127388535031847,"Travis","NGO","Austin, TX",-97.7430608,30.267153,NA,NA,NA,NA,NA,NA,NA,NA,NA,NA,NA,NA,NA,NA,NA,NA,NA,NA,NA,NA,NA,NA,NA,NA
"463","People Organizing to Demand Environmental and Economic Rights",1,0,1,0,0.00145657071155497,0.00125786163522013,"San Francisco","NGO","San Francisco, CA",-122.4194155,37.7749295,NA,NA,NA,NA,NA,NA,NA,NA,NA,NA,NA,NA,NA,NA,NA,NA,NA,NA,NA,NA,NA,NA,NA,NA
"464","Permian Basin Area Foundation",1,0,1,0,0.00126739879964245,0.00125786163522013,"Midland","NGO","Midland, TX",-102.0779146,31.9973456,NA,NA,NA,NA,NA,NA,NA,NA,NA,NA,NA,NA,NA,NA,NA,NA,NA,NA,NA,NA,NA,NA,NA,NA
"465","Permian Basin Regional Planning Commission",1,0,1,0,0.00125944584382872,0.00125786163522013,"Midland","Municipal/County","Midland, TX",-102.0779146,31.9973456,NA,NA,NA,NA,NA,NA,NA,NA,NA,NA,NA,NA,NA,NA,NA,NA,NA,NA,NA,NA,NA,NA,NA,NA
"466","Perscribed Burn Alliance of Texas",1,0,1,0,0.00126103204514304,0.00125786163522013,"Bexar","NGO","San Antonio, TX",-98.4936282,29.4241219,NA,NA,NA,NA,NA,NA,NA,NA,NA,NA,NA,NA,NA,NA,NA,NA,NA,NA,NA,NA,NA,NA,NA,NA
"467","Phil Hardberger Park Conservancy",0,4,4,0,0.00125786163522013,0.00255041404076808,"Bexar","NGO","San Antonio, TX",-98.4936282,29.4241219,NA,NA,NA,NA,NA,NA,NA,NA,NA,NA,NA,NA,NA,NA,NA,NA,NA,NA,NA,NA,NA,NA,NA,NA
"468","Pineywoods Resource Conservation and Development Corporation",0,9,9,0,0.00125786163522013,0.00127226463104326,"Nacogdoches Nacogdoches","NGO","Nacogdoches, TX",-94.6554874,31.6035129,NA,NA,NA,NA,NA,NA,NA,NA,NA,NA,NA,NA,NA,NA,NA,NA,NA,NA,NA,NA,NA,NA,NA,NA
"469","Pioneer Association of El Paso",1,0,1,0,0.00125944584382872,0.00125786163522013,"El Paso","NGO","El Paso, TX",-106.4850217,31.7618778,NA,NA,NA,NA,NA,NA,NA,NA,NA,NA,NA,NA,NA,NA,NA,NA,NA,NA,NA,NA,NA,NA,NA,NA
"470","Planet Texas 2050",1,0,1,0,0.00145700905767847,0.00125786163522013,"Travis","University","Austin, TX",-97.7430608,30.267153,NA,NA,NA,NA,NA,NA,NA,NA,NA,NA,NA,NA,NA,NA,NA,NA,NA,NA,NA,NA,NA,NA,NA,NA
"471","Plant Conservation Alliance",1,0,1,0,0.00126103204514304,0.00125786163522013,"DC","Federal Agency","Washington, DC",-77.0368707,38.9071923,NA,NA,NA,NA,NA,NA,NA,NA,NA,NA,NA,NA,NA,NA,NA,NA,NA,NA,NA,NA,NA,NA,NA,NA
"472","Plateau Region Water Planning Group (Region J)",1,0,1,0,0.00126103204514304,0.00125786163522013,"Kerr","State Agency","Kerrville, TX",-99.1403189,30.0474332,NA,NA,NA,NA,NA,NA,NA,NA,NA,NA,NA,NA,NA,NA,NA,NA,NA,NA,NA,NA,NA,NA,NA,NA
"473","Port Aransas Conservancy",1,0,1,0,0.00125944584382872,0.00125786163522013,"Aransas","NGO","Port Aransas, TX",-97.0610994,27.8339158,NA,NA,NA,NA,NA,NA,NA,NA,NA,NA,NA,NA,NA,NA,NA,NA,NA,NA,NA,NA,NA,NA,NA,NA
"474","Port Mansfield Chamber of Commerce",1,0,1,0,0.00145573484358184,0.00125786163522013,"Willacy","Municipal/County","Port Mansfield, TX",-97.4249807,26.5547882,NA,NA,NA,NA,NA,NA,NA,NA,NA,NA,NA,NA,NA,NA,NA,NA,NA,NA,NA,NA,NA,NA,NA,NA
"475","Port of Houston Partners in Maritime Education",0,10,10,0,0.00125786163522013,0.00127388535031847,"Harris","Municipal/County","Houston, TX",-95.3698028,29.7604267,NA,NA,NA,NA,NA,NA,NA,NA,NA,NA,NA,NA,NA,NA,NA,NA,NA,NA,NA,NA,NA,NA,NA,NA
"476","Preservation Texas",3,0,3,0,0.00145683529137623,0.00125786163522013,"Travis","NGO","Austin, TX",-97.7430608,30.267153,NA,NA,NA,NA,NA,NA,NA,NA,NA,NA,NA,NA,NA,NA,NA,NA,NA,NA,NA,NA,NA,NA,NA,NA
"477","Project Healing Waters",1,0,1,0,0.00126103204514304,0.00125786163522013,"Charles","NGO","LaPlata, MD",-76.9752514,38.5292877,NA,NA,NA,NA,NA,NA,NA,NA,NA,NA,NA,NA,NA,NA,NA,NA,NA,NA,NA,NA,NA,NA,NA,NA
"478","Public Citizen",3,0,3,0,0.00145858821886906,0.00125786163522013,"Travis","NGO","Austin, TX",-97.7430608,30.267153,3,0,3,0,0.00145858821886906,0.00125786163522013,2,0,2,0,0.00305381110700653,0.00268096514745308,2,0,2,0,0.00223918801611503,0.00198412698412698,1,0,1,0,0.00421940928270042,0.00420168067226891
"479","Recycled Reads",1,3,4,1.58820409057846e-06,0.00125944584382872,0.00128530334939693,"Travis","Municipal/County","Austin, TX",-97.7430608,30.267153,1,3,4,1.58820409057846e-06,0.00125944584382872,0.00128530334939693,0,3,3,0,0.00268096514745308,0.0027027027027027,1,3,4,7.92060386683881e-06,0.00198807157057654,0.00203652794253995,0,3,3,0,0.00420168067226891,0.00425531914893617
"480","Red River Cultural District",2,0,2,0,0.00146319799059057,0.00125786163522013,"Travis","NGO","Austin, TX",-97.7430608,30.267153,NA,NA,NA,NA,NA,NA,NA,NA,NA,NA,NA,NA,NA,NA,NA,NA,NA,NA,NA,NA,NA,NA,NA,NA
"481","Reel Recovery",1,2,3,1.58820409057846e-06,0.00125944584382872,0.00126902539169572,"Norfolk","NGO","Needham, MA",-71.2377548,42.2809285,1,2,3,1.58820409057846e-06,0.00125944584382872,0.00126902539169572,1,0,1,0,0.00268817204301075,0.00268096514745308,1,0,1,0,0.00198807157057654,0.00198412698412698,1,0,1,0,0.00421940928270042,0.00420168067226891
"482","Refugee Services of Texas",1,0,1,0,0.001457664395721,0.00125786163522013,"Dallas","NGO","Dallas, TX",-96.7969879,32.7766642,NA,NA,NA,NA,NA,NA,NA,NA,NA,NA,NA,NA,NA,NA,NA,NA,NA,NA,NA,NA,NA,NA,NA,NA
"483","Remember for Me",1,0,1,0,0.00126103204514304,0.00125786163522013,"Hunt","NGO","Greenville, TX",-96.1108066,33.1384488,NA,NA,NA,NA,NA,NA,NA,NA,NA,NA,NA,NA,NA,NA,NA,NA,NA,NA,NA,NA,NA,NA,NA,NA
"484","Resource Environmental Solutions",1,0,1,0,0.00126103204514304,0.00125786163522013,"Harris","NGO","Bellaire, TX",-95.4588299,29.7057858,NA,NA,NA,NA,NA,NA,NA,NA,NA,NA,NA,NA,NA,NA,NA,NA,NA,NA,NA,NA,NA,NA,NA,NA
"485","Resources for the Future",1,0,1,0,0.00125944584382872,0.00125786163522013,"DC","NGO","Washington, DC",-77.0368707,38.9071923,NA,NA,NA,NA,NA,NA,NA,NA,NA,NA,NA,NA,NA,NA,NA,NA,NA,NA,NA,NA,NA,NA,NA,NA
"486","Respect Big Bend",1,10,11,7.4010310620956e-05,0.00126580462289703,0.00255847599898177,"Brewster","NGO","Alpine, TX",-103.6610115,30.3584919,NA,NA,NA,NA,NA,NA,NA,NA,NA,NA,NA,NA,NA,NA,NA,NA,NA,NA,NA,NA,NA,NA,NA,NA
"487","RETREET",0,5,5,0,0.00125786163522013,0.00253830636782425,"Dallas","NGO","Dallas, TX",-96.7969879,32.7766642,NA,NA,NA,NA,NA,NA,NA,NA,NA,NA,NA,NA,NA,NA,NA,NA,NA,NA,NA,NA,NA,NA,NA,NA
"488","Rey Feo Consejo Educational Foundation",1,0,1,0,0.00126103204514304,0.00125786163522013,"Bexar","NGO","San Antonio, TX",-98.4936282,29.4241219,NA,NA,NA,NA,NA,NA,NA,NA,NA,NA,NA,NA,NA,NA,NA,NA,NA,NA,NA,NA,NA,NA,NA,NA
"489","RGK Center for Philanthropy and Community Service",1,0,1,0,0.00125944584382872,0.00125786163522013,"Travis","University","Austin, TX",-97.7430608,30.267153,NA,NA,NA,NA,NA,NA,NA,NA,NA,NA,NA,NA,NA,NA,NA,NA,NA,NA,NA,NA,NA,NA,NA,NA
"490","Rice Design Alliance",1,0,1,0,0.00125944584382872,0.00125786163522013,"Harris","NGO","Houston, TX",-95.3698028,29.7604267,NA,NA,NA,NA,NA,NA,NA,NA,NA,NA,NA,NA,NA,NA,NA,NA,NA,NA,NA,NA,NA,NA,NA,NA
"491","Ridge Riders",1,0,1,0,0.00126262023913455,0.00125786163522013,"Travis","NGO","Austin, TX",-97.7430608,30.267153,NA,NA,NA,NA,NA,NA,NA,NA,NA,NA,NA,NA,NA,NA,NA,NA,NA,NA,NA,NA,NA,NA,NA,NA
"492","Rio Grande Water Conservation District",1,0,1,0,0.00145884549099154,0.00125786163522013,"Alamosa","Municipal/County","Alamosa, CO",-105.8700214,37.4694491,NA,NA,NA,NA,NA,NA,NA,NA,NA,NA,NA,NA,NA,NA,NA,NA,NA,NA,NA,NA,NA,NA,NA,NA
"493","River Legacy Foundation",0,8,8,0,0.00125786163522013,0.00256062125702639,"Tarrant","NGO","Arlington, TX",-97.1080656,32.735687,NA,NA,NA,NA,NA,NA,NA,NA,NA,NA,NA,NA,NA,NA,NA,NA,NA,NA,NA,NA,NA,NA,NA,NA
"494","Rocky Mountain Coal Mining Institute",1,0,1,0,0.00125944584382872,0.00125786163522013,"Jefferson","NGO","Lakewood, CO",-105.0813734,39.7047095,1,0,1,0,0.00125944584382872,0.00125786163522013,1,0,1,0,0.00268817204301075,0.00268096514745308,1,0,1,0,0.00198807157057654,0.00198412698412698,1,0,1,0,0.00421940928270042,0.00420168067226891
"495","Rocky Mountain Institute",1,0,1,0,0.00125944584382872,0.00125786163522013,"Boulder","NGO","Boulder, CO",-105.2705456,40.0149856,NA,NA,NA,NA,NA,NA,NA,NA,NA,NA,NA,NA,NA,NA,NA,NA,NA,NA,NA,NA,NA,NA,NA,NA
"496","Rosemont Elementary School",1,0,1,0,0.00125944584382872,0.00125786163522013,"Tarrant","Municipal/County","Fort Worth, TX",-97.3307658,32.7554883,NA,NA,NA,NA,NA,NA,NA,NA,NA,NA,NA,NA,NA,NA,NA,NA,NA,NA,NA,NA,NA,NA,NA,NA
"497","Rosenberg Development Corporation",1,7,8,0.00812571976527049,0.0014546014135648,0.00252583091566142,"Fort Bend","NGO","Rosenberg, TX",-95.8085623,29.5571825,NA,NA,NA,NA,NA,NA,NA,NA,NA,NA,NA,NA,NA,NA,NA,NA,NA,NA,NA,NA,NA,NA,NA,NA
"498","Rotary Club of Angleton",1,0,1,0,0.00126103204514304,0.00125786163522013,"Brazoria","NGO","Angleton, TX",-95.4318847,29.16941,NA,NA,NA,NA,NA,NA,NA,NA,NA,NA,NA,NA,NA,NA,NA,NA,NA,NA,NA,NA,NA,NA,NA,NA
"499","Rotary Club of Brazosport",1,0,1,0,0.00126103204514304,0.00125786163522013,"Brazoria","NGO","Lake Jackson, TX",-95.4343859,29.0338575,NA,NA,NA,NA,NA,NA,NA,NA,NA,NA,NA,NA,NA,NA,NA,NA,NA,NA,NA,NA,NA,NA,NA,NA
"500","Rotary Club of Sweeny",1,0,1,0,0.00126103204514304,0.00125786163522013,"Brazoria","NGO","Sweeny, TX",-95.6985608,29.0388615,NA,NA,NA,NA,NA,NA,NA,NA,NA,NA,NA,NA,NA,NA,NA,NA,NA,NA,NA,NA,NA,NA,NA,NA
"501","Salvation Army",1,0,1,0,0.00125944584382872,0.00125786163522013,"Alexandria City","NGO","Alexandria, VA",-77.0469214,38.8048355,NA,NA,NA,NA,NA,NA,NA,NA,NA,NA,NA,NA,NA,NA,NA,NA,NA,NA,NA,NA,NA,NA,NA,NA
"502","San Antonio Bay Partnership",5,10,15,0.0137583054052254,0.00145419114738246,0.00253708975993507,"Victoria","NGO","Victoria, TX",-97.0035982,28.8052674,5,10,15,0.0137583054052254,0.00145419114738246,0.00253708975993507,2,10,12,0.000289174302303595,0.00269541778975741,0.00390280750346217,3,10,13,0.000649489517080782,0.00199600798403194,0.00266507009717174,1,0,1,0,0.00421940928270042,0.00420168067226891
"503","San Antonio Food Bank",1,0,1,0,0.00125944584382872,0.00125786163522013,"Bexar","NGO","San Antonio, TX",-98.4936282,29.4241219,NA,NA,NA,NA,NA,NA,NA,NA,NA,NA,NA,NA,NA,NA,NA,NA,NA,NA,NA,NA,NA,NA,NA,NA
"504","San Antonio River Authority",5,0,5,0,0.00145680054308937,0.00125786163522013,"Bexar","Municipal/County","San Antonio, TX",-98.4936282,29.4241219,5,0,5,0,0.00145680054308937,0.00125786163522013,3,0,3,0,0.0030451118587461,0.00268096514745308,4,0,4,0,0.00224015534118946,0.00198412698412698,2,0,2,0,0.00440307658009141,0.00420168067226891
"505","San Antonio River Foundation",2,9,11,0.0112707958652956,0.00145366666361531,0.0025368222626921,"Bexar","NGO","San Antonio, TX",-98.4936282,29.4241219,2,9,11,0.0112707958652956,0.00145366666361531,0.0025368222626921,0,9,9,0,0.00268096514745308,0.00415860843124322,0,6,6,0,0.00198412698412698,0.00200803212851406,0,5,5,0,0.00420168067226891,0.00462637620051534
"506","San Antonio Water System",1,0,1,0,0.00145649055482385,0.00125786163522013,"Bexar","Municipal/County","San Antonio, TX",-98.4936282,29.4241219,NA,NA,NA,NA,NA,NA,NA,NA,NA,NA,NA,NA,NA,NA,NA,NA,NA,NA,NA,NA,NA,NA,NA,NA
"507","San Antonio Zoo",2,0,2,0,0.00146036417141806,0.00125786163522013,"Bexar","NGO","San Antonio, TX",-98.4936282,29.4241219,NA,NA,NA,NA,NA,NA,NA,NA,NA,NA,NA,NA,NA,NA,NA,NA,NA,NA,NA,NA,NA,NA,NA,NA
"508","San Antonio Zulu Association",1,0,1,0,0.00126103204514304,0.00125786163522013,"Bexar","NGO","San Antonio, TX",-98.4936282,29.4241219,NA,NA,NA,NA,NA,NA,NA,NA,NA,NA,NA,NA,NA,NA,NA,NA,NA,NA,NA,NA,NA,NA,NA,NA
"509","San Marcos Council of Neighborhood Associations",1,0,1,0,0.00145622877097226,0.00125786163522013,"Hays","NGO","San Marcos, TX",-97.9413941,29.8832749,NA,NA,NA,NA,NA,NA,NA,NA,NA,NA,NA,NA,NA,NA,NA,NA,NA,NA,NA,NA,NA,NA,NA,NA
"510","San Marcos Greenbelt Alliance",3,10,13,0.00357872113250566,0.00145439891561189,0.00253670069168224,"Hays","NGO","San Maros, TX",-97.9413941,29.8832749,3,10,13,0.00357872113250566,0.00145439891561189,0.00253670069168224,2,0,2,0,0.0030440902098131,0.00268096514745308,2,8,10,0.00100558666592741,0.00222979772232591,0.00257909039634928,1,0,1,0,0.00421940928270042,0.00420168067226891
"511","San Marcos River Foundation",5,18,23,0.00787553230803897,0.00145455611307433,0.00253896382136439,"Hays","NGO","San Marcos, TX",-97.9413941,29.8832749,5,18,23,0.00787553230803897,0.00145455611307433,0.00253896382136439,4,13,17,0.00274458535696689,0.00303561956832184,0.00372376099860859,4,12,16,0.0037016502138123,0.0022298273767832,0.00258030758497574,0,6,6,0,0.00420168067226891,0.00503847952719078
"512","Save Barton Creek Association",2,10,12,0.00201119767075501,0.0014545241379563,0.00253600390940653,"Travis","NGO","Austin, TX",-97.7430608,30.267153,NA,NA,NA,NA,NA,NA,NA,NA,NA,NA,NA,NA,NA,NA,NA,NA,NA,NA,NA,NA,NA,NA,NA,NA
"513","Save Oak Hill",1,0,1,0,0.00145635430862606,0.00125786163522013,"Travis","NGO","Oak Hill, TX",-97.8648067,30.2339613,NA,NA,NA,NA,NA,NA,NA,NA,NA,NA,NA,NA,NA,NA,NA,NA,NA,NA,NA,NA,NA,NA,NA,NA
"514","Save Our Blanco",1,0,1,0,0.00125944584382872,0.00125786163522013,"Hays","NGO","Wimberley, TX",-98.0986204,29.9974362,NA,NA,NA,NA,NA,NA,NA,NA,NA,NA,NA,NA,NA,NA,NA,NA,NA,NA,NA,NA,NA,NA,NA,NA
"515","Save Our Springs Alliance",6,10,16,0.00867697301627218,0.00145473999728839,0.00253751138524472,"Travis","NGO","Austin, TX",-97.7430608,30.267153,6,10,16,0.00867697301627218,0.00145473999728839,0.00253751138524472,4,9,13,0.00276069851758922,0.00303631332794633,0.00372253132129848,2,2,4,0.00046335532621007,0.00222930359746666,0.00257881272077559,2,3,5,0.000536365586783952,0.00438385557323074,0.00425531914893617
"516","Scenic Texas",1,10,11,0.00523569125171305,0.00145365335676754,0.00253638466158112,"Travis","NGO","Austin, TX",-97.7430608,30.267153,NA,NA,NA,NA,NA,NA,NA,NA,NA,NA,NA,NA,NA,NA,NA,NA,NA,NA,NA,NA,NA,NA,NA,NA
"517","Scenic Texas Houston",1,0,1,0,0.00145548133537663,0.00125786163522013,"Harris","NGO","Houston, TX",-95.3698028,29.7604267,NA,NA,NA,NA,NA,NA,NA,NA,NA,NA,NA,NA,NA,NA,NA,NA,NA,NA,NA,NA,NA,NA,NA,NA
"518","Sci-Port Discovery Center",1,0,1,0,0.00126421243864032,0.00125786163522013,"Caddo","NGO","Shreveport, LA",-93.7501789,32.5251516,NA,NA,NA,NA,NA,NA,NA,NA,NA,NA,NA,NA,NA,NA,NA,NA,NA,NA,NA,NA,NA,NA,NA,NA
"519","See to Succeed",1,0,1,0,0.00125944584382872,0.00125786163522013,"Harris","NGO","Houston, TX",-95.3698028,29.7604267,NA,NA,NA,NA,NA,NA,NA,NA,NA,NA,NA,NA,NA,NA,NA,NA,NA,NA,NA,NA,NA,NA,NA,NA
"520","Seed Preschool",1,0,1,0,0.00125944584382872,0.00125786163522013,"Dallas","NGO","Dallas, TX",-96.7969879,32.7766642,NA,NA,NA,NA,NA,NA,NA,NA,NA,NA,NA,NA,NA,NA,NA,NA,NA,NA,NA,NA,NA,NA,NA,NA
"521","Severe Storm Prediction, Education, and Evacuation from Disasters Center",1,0,1,0,0.00125944584382872,0.00125786163522013,"Harris","Private","Houston, TX",-95.3698028,29.7604267,NA,NA,NA,NA,NA,NA,NA,NA,NA,NA,NA,NA,NA,NA,NA,NA,NA,NA,NA,NA,NA,NA,NA,NA
"522","Shield Ranch",1,0,1,0,0.00145583360225306,0.00125786163522013,"Travis","NGO","Austin, TX",-97.7430608,30.267153,NA,NA,NA,NA,NA,NA,NA,NA,NA,NA,NA,NA,NA,NA,NA,NA,NA,NA,NA,NA,NA,NA,NA,NA
"523","Shoal Creek Conservancy",1,0,1,0,0.00145496658524473,0.00125786163522013,"Travis","NGO","Austin, TX",-97.7430608,30.267153,NA,NA,NA,NA,NA,NA,NA,NA,NA,NA,NA,NA,NA,NA,NA,NA,NA,NA,NA,NA,NA,NA,NA,NA
"524","Sierra Club",9,0,9,0,0.00146138286574603,0.00125786163522013,"Travis","NGO","Austin, TX",-97.7430608,30.267153,9,0,9,0,0.00146138286574603,0.00125786163522013,4,0,4,0,0.00304688267863578,0.00268096514745308,4,0,4,0,0.00224103363778124,0.00198412698412698,1,0,1,0,0.00421940928270042,0.00420168067226891
"525","Sierra Club, Lone Star Chapter",2,10,12,0.00591080713205667,0.00145458808959823,0.002527744704152,"Travis","NGO","Austin, TX",-97.7430608,30.267153,2,10,12,0.00591080713205667,0.00145458808959823,0.002527744704152,2,6,8,0.00983634273348211,0.00303636289433947,0.00371531869843997,1,9,10,0.00586223693694407,0.00222975818427644,0.00257710831027769,1,6,7,0.00269970678681256,0.00436504282162262,0.00489305475266331
"526","Simsboro Aquifer Water Defense Fund",1,0,1,0,0.00145438559535476,0.00125786163522013,"Lee","NGO","Levingston, TX",-94.9329898,30.711029,NA,NA,NA,NA,NA,NA,NA,NA,NA,NA,NA,NA,NA,NA,NA,NA,NA,NA,NA,NA,NA,NA,NA,NA
"527","Society for Range Management",1,0,1,0,0.00125944584382872,0.00125786163522013,"Sedgwick","NGO","Wichita, KS",-97.330053,37.6871761,NA,NA,NA,NA,NA,NA,NA,NA,NA,NA,NA,NA,NA,NA,NA,NA,NA,NA,NA,NA,NA,NA,NA,NA
"528","Soil and Water Conservation Society",1,0,1,0,0.00125944584382872,0.00125786163522013,"Polk","NGO","Ankeny, IA",-93.6001278,41.7317884,NA,NA,NA,NA,NA,NA,NA,NA,NA,NA,NA,NA,NA,NA,NA,NA,NA,NA,NA,NA,NA,NA,NA,NA
"529","Solar United Neighbors",1,0,1,0,0.00145589766909683,0.00125786163522013,"DC","NGO","Washington, DC",-77.0368707,38.9071923,NA,NA,NA,NA,NA,NA,NA,NA,NA,NA,NA,NA,NA,NA,NA,NA,NA,NA,NA,NA,NA,NA,NA,NA
"530","Somervell County Residents Against Mining",1,0,1,0,0.00125944584382872,0.00125786163522013,"Somervell","NGO","Somervell, TX",-97.7416703,32.2547696,NA,NA,NA,NA,NA,NA,NA,NA,NA,NA,NA,NA,NA,NA,NA,NA,NA,NA,NA,NA,NA,NA,NA,NA
"531","South-Central Partnership for Energy Efficiency as a Resource",3,8,11,0.00504137127273767,0.00145434829993278,0.00253054824295813,"Travis","NGO","Austin, TX",-97.7430608,30.267153,3,8,11,0.00504137127273767,0.00145434829993278,0.00253054824295813,3,8,11,0.00882193818894975,0.00303561956832184,0.00371791796593907,3,6,9,0.00480087601878767,0.0022294715753455,0.00257771582604774,1,4,5,0.0022527354644926,0.004364721265585,0.00489295373371596
"532","South Central Membrane Association",0,7,7,0,0.00125786163522013,0.00128532623651945,"Travis","NGO","Austin, TX",-97.7430608,30.267153,NA,NA,NA,NA,NA,NA,NA,NA,NA,NA,NA,NA,NA,NA,NA,NA,NA,NA,NA,NA,NA,NA,NA,NA
"533","South Central Texas Prescribed Burn Association",1,2,3,1.58820409057846e-06,0.00125944584382872,0.00254225620435385,"Fayette","NGO","La Grange, TX",-96.876647,29.9055033,NA,NA,NA,NA,NA,NA,NA,NA,NA,NA,NA,NA,NA,NA,NA,NA,NA,NA,NA,NA,NA,NA,NA,NA
"534","South Oak Cliff High School",1,0,1,0,0.00145599111001902,0.00125786163522013,"Dallas","Municipal/County","Dallas, TX",-96.7969879,32.7766642,NA,NA,NA,NA,NA,NA,NA,NA,NA,NA,NA,NA,NA,NA,NA,NA,NA,NA,NA,NA,NA,NA,NA,NA
"535","Southeast Desalting Association",1,0,1,0,0.00125944584382872,0.00125786163522013,"Martin","NGO","Stuart, FL",-80.2528257,27.197548,NA,NA,NA,NA,NA,NA,NA,NA,NA,NA,NA,NA,NA,NA,NA,NA,NA,NA,NA,NA,NA,NA,NA,NA
"536","Southside Economic and Community Development Corporation",1,0,1,0,0.00145589766909683,0.00125786163522013,"Dallas","NGO","Dallas, TX",-96.7969879,32.7766642,1,0,1,0,0.00145589766909683,0.00125786163522013,1,0,1,0,0.0030426958939964,0.00268096514745308,1,0,1,0,0.00223337181422609,0.00198412698412698,1,0,1,0,0.00438328802086223,0.00420168067226891
"537","Southwest Membrane Operator Association",1,0,1,0,0.00125944584382872,0.00125786163522013,"Martin","NGO","Stuart, FL",-80.2528257,27.197548,NA,NA,NA,NA,NA,NA,NA,NA,NA,NA,NA,NA,NA,NA,NA,NA,NA,NA,NA,NA,NA,NA,NA,NA
"538","Southwest School of Art",1,0,1,0,0.00145549467571249,0.00125786163522013,"Bexar","University","San Antonio, TX",-98.4936282,29.4241219,1,0,1,0,0.00145549467571249,0.00125786163522013,1,0,1,0,0.00268817204301075,0.00268096514745308,1,0,1,0,0.00198807157057654,0.00198412698412698,1,0,1,0,0.00421940928270042,0.00420168067226891
"539","Spanish Goat Association",1,0,1,0,0.00126103204514304,0.00125786163522013,"Abbeville","Private","Abbeville, SC",-82.3790147,34.1781719,NA,NA,NA,NA,NA,NA,NA,NA,NA,NA,NA,NA,NA,NA,NA,NA,NA,NA,NA,NA,NA,NA,NA,NA
"540","Spring Branch Independent School District",1,0,1,0,0.00125944584382872,0.00125786163522013,"Harris","Municipal/County","Houston, TX",-95.3698028,29.7604267,NA,NA,NA,NA,NA,NA,NA,NA,NA,NA,NA,NA,NA,NA,NA,NA,NA,NA,NA,NA,NA,NA,NA,NA
"541","Spring Creek Forest Preserve",1,0,1,0,0.00125944584382872,0.00125786163522013,"Dallas","NGO","Garland, TX",-96.6388833,32.912624,NA,NA,NA,NA,NA,NA,NA,NA,NA,NA,NA,NA,NA,NA,NA,NA,NA,NA,NA,NA,NA,NA,NA,NA
"542","St. Edward's University",1,0,1,0,0.00145704916348128,0.00125786163522013,"Travis","Private","Austin, TX",-97.7430608,30.267153,NA,NA,NA,NA,NA,NA,NA,NA,NA,NA,NA,NA,NA,NA,NA,NA,NA,NA,NA,NA,NA,NA,NA,NA
"543","St. Isadore's Academy",1,0,1,0,0.00125944584382872,0.00125786163522013,"Hunt","NGO","Greenville, TX",-96.1108066,33.1384488,NA,NA,NA,NA,NA,NA,NA,NA,NA,NA,NA,NA,NA,NA,NA,NA,NA,NA,NA,NA,NA,NA,NA,NA
"544","State Association of Fire and Emergency Districts",0,7,7,0,0.00125786163522013,0.00127064599706503,"Travis","NGO","Pflugerville, TX",-97.6222665,30.4548451,NA,NA,NA,NA,NA,NA,NA,NA,NA,NA,NA,NA,NA,NA,NA,NA,NA,NA,NA,NA,NA,NA,NA,NA
"545","State Energy Conservation Office",1,0,1,0,0.00145561741827735,0.00125786163522013,"Travis","State Agency","Austin, TX",-97.7430608,30.267153,NA,NA,NA,NA,NA,NA,NA,NA,NA,NA,NA,NA,NA,NA,NA,NA,NA,NA,NA,NA,NA,NA,NA,NA
"546","State Firefighters' and Fire Marshals' Association",1,0,1,0,0.00125944584382872,0.00125786163522013,"Travis","NGO","Austin, TX",-97.7430608,30.267153,NA,NA,NA,NA,NA,NA,NA,NA,NA,NA,NA,NA,NA,NA,NA,NA,NA,NA,NA,NA,NA,NA,NA,NA
"547","State of Texas Alliance for Recycling",1,0,1,0,0.00145576687195302,0.00125786163522013,"Travis","NGO","Austin, TX",-97.7430608,30.267153,NA,NA,NA,NA,NA,NA,NA,NA,NA,NA,NA,NA,NA,NA,NA,NA,NA,NA,NA,NA,NA,NA,NA,NA
"548","Stephen F. Austin Clinic",1,0,1,0,0.00125944584382872,0.00125786163522013,"Brazoria","NGO","Alvin, TX",-95.2441009,29.4238472,NA,NA,NA,NA,NA,NA,NA,NA,NA,NA,NA,NA,NA,NA,NA,NA,NA,NA,NA,NA,NA,NA,NA,NA
"549","Stephen F. Austin Gardens",1,0,1,0,0.00125944584382872,0.00125786163522013,"Nacogdoches","State Agency","Nacogdoches, TX",-94.6554874,31.6035129,NA,NA,NA,NA,NA,NA,NA,NA,NA,NA,NA,NA,NA,NA,NA,NA,NA,NA,NA,NA,NA,NA,NA,NA
"550","Stephen F. Austin State University",1,0,1,0,0.00125944584382872,0.00125786163522013,"Nacogdoches","University","Nacogdoches, TX",-94.6554874,31.6035129,NA,NA,NA,NA,NA,NA,NA,NA,NA,NA,NA,NA,NA,NA,NA,NA,NA,NA,NA,NA,NA,NA,NA,NA
"551","Stop Abuse for Everyone",2,0,2,0,0.00146405865085336,0.00125786163522013,"Travis","NGO","Austin, TX",-97.7430608,30.267153,2,0,2,0,0.00146405865085336,0.00125786163522013,1,0,1,0,0.00268817204301075,0.00268096514745308,1,0,1,0,0.00199598422259787,0.00198412698412698,2,0,2,0,0.00432797662527392,0.00420168067226891
"552","Stuart Circle Neighborhood Association",1,0,1,0,0.00125944584382872,0.00125786163522013,"Travis","NGO","Austin, TX",-97.7430608,30.267153,NA,NA,NA,NA,NA,NA,NA,NA,NA,NA,NA,NA,NA,NA,NA,NA,NA,NA,NA,NA,NA,NA,NA,NA
"553","Success North Dallas",1,0,1,0,0.00125944584382872,0.00125786163522013,"Dallas","NGO","Dallas, TX",-96.7969879,32.7766642,NA,NA,NA,NA,NA,NA,NA,NA,NA,NA,NA,NA,NA,NA,NA,NA,NA,NA,NA,NA,NA,NA,NA,NA
"554","Sustainable Food Center",7,10,17,0.00769089398528826,0.00145309734837185,0.00253356009866206,"Travis","NGO","Austin, TX",-97.7430608,30.267153,7,10,17,0.00769089398528826,0.00145309734837185,0.00253356009866206,3,4,7,0.00236935918615773,0.0027173317555278,0.00397223705285638,3,6,9,0.000182173888937293,0.00199600798403194,0.0021093861392782,4,5,9,0.000411213616534363,0.00427350427350427,0.00432884618897149
"555","Tallowood Baptist Church",1,0,1,0,0.00125944584382872,0.00125786163522013,"Harris","NGO","Houston, TX",-95.3698028,29.7604267,NA,NA,NA,NA,NA,NA,NA,NA,NA,NA,NA,NA,NA,NA,NA,NA,NA,NA,NA,NA,NA,NA,NA,NA
"556","Tarrant County Master Gardeners",1,0,1,0,0.00125944584382872,0.00125786163522013,"Tarrant","NGO","Fort Worth, TX",-97.3307658,32.7554883,NA,NA,NA,NA,NA,NA,NA,NA,NA,NA,NA,NA,NA,NA,NA,NA,NA,NA,NA,NA,NA,NA,NA,NA
"557","Tarrant Transit Alliance",1,0,1,0,0.00126103204514304,0.00125786163522013,"Tarrant","NGO","Fort Worth, TX",-97.3307658,32.7554883,NA,NA,NA,NA,NA,NA,NA,NA,NA,NA,NA,NA,NA,NA,NA,NA,NA,NA,NA,NA,NA,NA,NA,NA
"558","Tarrant Workforce Solutions",1,0,1,0,0.00145731124240372,0.00125786163522013,"Tarrant","NGO","Fort Worth, TX",-97.3307658,32.7554883,1,0,1,0,0.00145731124240372,0.00125786163522013,1,0,1,0,0.00269539825958424,0.00268096514745308,1,0,1,0,0.00199202398349353,0.00198412698412698,1,0,1,0,0.00421940928270042,0.00420168067226891
"559","Texan by Nature",4,0,4,0,0.00145644513659218,0.00125786163522013,"Travis","NGO","Austin, TX",-97.7430608,30.267153,4,0,4,0,0.00145644513659218,0.00125786163522013,1,0,1,0,0.00268817204301075,0.00268096514745308,1,0,1,0,0.002012,0.00198412698412698,1,0,1,0,0.00429145692246406,0.00420168067226891
"560","Texans for the Arts",1,0,1,0,0.00145597776058151,0.00125786163522013,"Travis","NGO","Austin, TX",-97.7430608,30.267153,NA,NA,NA,NA,NA,NA,NA,NA,NA,NA,NA,NA,NA,NA,NA,NA,NA,NA,NA,NA,NA,NA,NA,NA
"561","Texas A&M Agrilife Extension Service",6,0,6,0,0.00146446910228413,0.00125786163522013,"Brazos","State Agency","College Station, TX",-96.3344068,30.627977,NA,NA,NA,NA,NA,NA,NA,NA,NA,NA,NA,NA,NA,NA,NA,NA,NA,NA,NA,NA,NA,NA,NA,NA
"562","Texas A&M Forest Service",4,0,4,0,0.00146089350012787,0.00125786163522013,"Brazos","State Agency","College Station, TX",-96.3344068,30.627977,NA,NA,NA,NA,NA,NA,NA,NA,NA,NA,NA,NA,NA,NA,NA,NA,NA,NA,NA,NA,NA,NA,NA,NA
"563","Texas A&M Texas Community Watershed Partners",2,0,2,0,0.00145688340712552,0.00125786163522013,"Harris","University","Houston, TX",-95.3698028,29.7604267,NA,NA,NA,NA,NA,NA,NA,NA,NA,NA,NA,NA,NA,NA,NA,NA,NA,NA,NA,NA,NA,NA,NA,NA
"564","Texas A&M Texas Native Seeds",1,0,1,0,0.00126103204514304,0.00125786163522013,"Kleberg","University","Kingsville, TX",-97.856109,27.5158689,NA,NA,NA,NA,NA,NA,NA,NA,NA,NA,NA,NA,NA,NA,NA,NA,NA,NA,NA,NA,NA,NA,NA,NA
"565","Texas A&M University",2,0,2,0,0.00126262425478931,0.00125786163522013,"Brazos","University","College Station, TX",-96.3344068,30.627977,NA,NA,NA,NA,NA,NA,NA,NA,NA,NA,NA,NA,NA,NA,NA,NA,NA,NA,NA,NA,NA,NA,NA,NA
"566","Texas Advanced Energy Business Alliance",1,0,1,0,0.00145617802785078,0.00125786163522013,"Travis","NGO","Austin, TX",-97.7430608,30.267153,NA,NA,NA,NA,NA,NA,NA,NA,NA,NA,NA,NA,NA,NA,NA,NA,NA,NA,NA,NA,NA,NA,NA,NA
"567","Texas Aggregates and Concrete Association",1,0,1,0,0.00125944584382872,0.00125786163522013,"Williamson","NGO","Round Rock, TX",-97.678896,30.5082551,1,0,1,0,0.00125944584382872,0.00125786163522013,1,0,1,0,0.00268817204301075,0.00268096514745308,1,0,1,0,0.00198807157057654,0.00198412698412698,1,0,1,0,0.00421940928270042,0.00420168067226891
"568","Texas Agriculture Council",1,0,1,0,0.00145783032984788,0.00125786163522013,"Lubbock","Private","Lubbock, TX",-101.8551665,33.5778631,NA,NA,NA,NA,NA,NA,NA,NA,NA,NA,NA,NA,NA,NA,NA,NA,NA,NA,NA,NA,NA,NA,NA,NA
"569","Texas Air Conditioning Contractors Association",1,0,1,0,0.00145617802785078,0.00125786163522013,"Travis","NGO","Austin, TX",-97.7430608,30.267153,NA,NA,NA,NA,NA,NA,NA,NA,NA,NA,NA,NA,NA,NA,NA,NA,NA,NA,NA,NA,NA,NA,NA,NA
"570","Texas Alliance for America's Fish and Wildlife",1,0,1,0,0.00126262224695873,0.00125786163522013,"Travis","NGO","Austin, TX",-97.7430608,30.267153,NA,NA,NA,NA,NA,NA,NA,NA,NA,NA,NA,NA,NA,NA,NA,NA,NA,NA,NA,NA,NA,NA,NA,NA
"571","Texas Alliance of Groundwater Districts",5,8,13,0.00151517472383933,0.00145483062400141,0.00253032244083698,"Travis","NGO","Austin, TX",-97.7430608,30.267153,5,8,13,0.00151517472383933,0.00145483062400141,0.00253032244083698,2,0,2,0,0.00304543593941875,0.00268096514745308,3,0,3,0,0.00223556549140218,0.00198412698412698,2,0,2,0,0.00438434216368211,0.00420168067226891
"572","Texas American Water Works Association",2,8,10,0.000795346138493514,0.001458786524781,0.00127064803049555,"Travis","NGO","Austin, TX",-97.7430608,30.267153,2,8,10,0.000795346138493514,0.001458786524781,0.00127064803049555,0,8,8,0,0.00268096514745308,0.00273972602739726,0,4,4,0,0.00198412698412698,0.002,0,2,2,0,0.00420168067226891,0.00423728813559322
"573","Texas and Southwestern Cattle Raisers Association",1,0,1,0,0.00126262023913455,0.00125786163522013,"Tarrant","NGO","Fort Worth, TX",-97.3307658,32.7554883,NA,NA,NA,NA,NA,NA,NA,NA,NA,NA,NA,NA,NA,NA,NA,NA,NA,NA,NA,NA,NA,NA,NA,NA
"574","Texas Appleseed",1,0,1,0,0.00145772862380504,0.00125786163522013,"Travis","NGO","Austin, TX",-97.7430608,30.267153,NA,NA,NA,NA,NA,NA,NA,NA,NA,NA,NA,NA,NA,NA,NA,NA,NA,NA,NA,NA,NA,NA,NA,NA
"575","Texas Archeological Society",1,0,1,0,0.00126103204514304,0.00125786163522013,"Hays","NGO","San Marcos, TX",-97.9413941,29.8832749,NA,NA,NA,NA,NA,NA,NA,NA,NA,NA,NA,NA,NA,NA,NA,NA,NA,NA,NA,NA,NA,NA,NA,NA
"576","Texas Association for Environmental Education",1,4,5,0.000498842873001522,0.00145314255804335,0.00253129044804479,"Dallas","NGO","Seagoville, TX",-96.5383228,32.6395776,NA,NA,NA,NA,NA,NA,NA,NA,NA,NA,NA,NA,NA,NA,NA,NA,NA,NA,NA,NA,NA,NA,NA,NA
"577","Texas Association of Business",1,0,1,0,0.00145624479585062,0.00125786163522013,"Travis","NGO","Austin, TX",-97.7430608,30.267153,NA,NA,NA,NA,NA,NA,NA,NA,NA,NA,NA,NA,NA,NA,NA,NA,NA,NA,NA,NA,NA,NA,NA,NA
"578","Texas Association of Community Action Agencies",1,0,1,0,0.00145589766909683,0.00125786163522013,"Travis","NGO","Austin, TX",-97.7430608,30.267153,NA,NA,NA,NA,NA,NA,NA,NA,NA,NA,NA,NA,NA,NA,NA,NA,NA,NA,NA,NA,NA,NA,NA,NA
"579","Texas Association of Community Development Corporations",1,3,4,0.000179467062235365,0.00145589766909683,0.00126262626262626,"Travis","NGO","Austin, TX",-97.7430608,30.267153,NA,NA,NA,NA,NA,NA,NA,NA,NA,NA,NA,NA,NA,NA,NA,NA,NA,NA,NA,NA,NA,NA,NA,NA
"580","Texas Association of Convention and Visitor Bureaus",1,0,1,0,0.00145597776058151,0.00125786163522013,"Denton","NGO","Denton, TX",-97.1330683,33.2148412,NA,NA,NA,NA,NA,NA,NA,NA,NA,NA,NA,NA,NA,NA,NA,NA,NA,NA,NA,NA,NA,NA,NA,NA
"581","Texas Association of Counties",3,0,3,0,0.00146449881493641,0.00125786163522013,"Travis","State Agency","Austin, TX",-97.7430608,30.267153,NA,NA,NA,NA,NA,NA,NA,NA,NA,NA,NA,NA,NA,NA,NA,NA,NA,NA,NA,NA,NA,NA,NA,NA
"582","Texas Association of Manufacturers",1,0,1,0,0.00145624479585062,0.00125786163522013,"Travis","NGO","Austin, TX",-97.7430608,30.267153,NA,NA,NA,NA,NA,NA,NA,NA,NA,NA,NA,NA,NA,NA,NA,NA,NA,NA,NA,NA,NA,NA,NA,NA
"583","Texas Association of Museums",1,0,1,0,0.00126103204514304,0.00125786163522013,"Travis","NGO","Austin, TX",-97.7430608,30.267153,NA,NA,NA,NA,NA,NA,NA,NA,NA,NA,NA,NA,NA,NA,NA,NA,NA,NA,NA,NA,NA,NA,NA,NA
"584","Texas Association of Regional Councils",2,0,2,0,0.00145943809795146,0.00125786163522013,"Travis","State Agency","Austin, TX",-97.7430608,30.267153,2,0,2,0,0.00145943809795146,0.00125786163522013,1,0,1,0,0.00269539825958424,0.00268096514745308,1,0,1,0,0.00199202398349353,0.00198412698412698,1,0,1,0,0.00421940928270042,0.00420168067226891
"585","Texas Association of Resource Conservation and Development Areas",1,0,1,0,0.00125944584382872,0.00125786163522013,"Victoria","NGO","Victoria, TX",-97.0035982,28.8052674,NA,NA,NA,NA,NA,NA,NA,NA,NA,NA,NA,NA,NA,NA,NA,NA,NA,NA,NA,NA,NA,NA,NA,NA
"586","Texas BlueBird Society",1,0,1,0,0.00125944584382872,0.00125786163522013,"Travis","NGO","Austin, TX",-97.7430608,30.267153,NA,NA,NA,NA,NA,NA,NA,NA,NA,NA,NA,NA,NA,NA,NA,NA,NA,NA,NA,NA,NA,NA,NA,NA
"587","Texas Campaign for the Environment",1,0,1,0,0.00145641842130847,0.00125786163522013,"Travis","NGO","AUSTIN, TX",-97.7430608,30.267153,NA,NA,NA,NA,NA,NA,NA,NA,NA,NA,NA,NA,NA,NA,NA,NA,NA,NA,NA,NA,NA,NA,NA,NA
"588","Texas Cave Conservancy",1,0,1,0,0.00125944584382872,0.00125786163522013,"Travis","NGO","Cedar Park, TX",-97.8202888,30.505198,NA,NA,NA,NA,NA,NA,NA,NA,NA,NA,NA,NA,NA,NA,NA,NA,NA,NA,NA,NA,NA,NA,NA,NA
"589","Texas Cave Management Association",0,4,4,0,0.00125786163522013,0.00255108597866598,"Travis","NGO","San Antonio, TX",-98.4936282,29.4241219,NA,NA,NA,NA,NA,NA,NA,NA,NA,NA,NA,NA,NA,NA,NA,NA,NA,NA,NA,NA,NA,NA,NA,NA
"590","Texas Center for Local Food",3,0,3,0,0.00145465204686398,0.00125786163522013,"Bastrop","NGO","Elgin, TX",-97.3702735,30.3496528,3,0,3,0,0.00145465204686398,0.00125786163522013,2,0,2,0,0.00272459607130825,0.00268096514745308,2,0,2,0,0.00199998409555391,0.00198412698412698,2,0,2,0,0.00423728813559322,0.00420168067226891
"591","Texas Chemical Council",1,0,1,0,0.00145624479585062,0.00125786163522013,"Travis","NGO","Austin, TX",-97.7430608,30.267153,NA,NA,NA,NA,NA,NA,NA,NA,NA,NA,NA,NA,NA,NA,NA,NA,NA,NA,NA,NA,NA,NA,NA,NA
"592","Texas Children in Nature",5,10,15,0.00733922325016946,0.00145428436937358,0.00253427980491791,"Travis","NGO","Austin, TX",-97.7430608,30.267153,5,10,15,0.00733922325016946,0.00145428436937358,0.00253427980491791,0,10,10,0,0.00268096514745308,0.00404831864185439,3,10,13,0.00290613556377538,0.00200800807993709,0.00282547760682608,3,5,8,0.00146606593720947,0.00427342721650228,0.00469204727683079
"593","Texas Children in Nature Collaborative of Austin",1,0,1,0,0.00145523058256876,0.00125786163522013,"Travis","NGO","Austin, TX",-97.7430608,30.267153,NA,NA,NA,NA,NA,NA,NA,NA,NA,NA,NA,NA,NA,NA,NA,NA,NA,NA,NA,NA,NA,NA,NA,NA
"594","Texas Christian University Geography Department",1,0,1,0,0.00125944584382872,0.00125786163522013,"Tarrant","University","Fort Worth, TX",-97.3307658,32.7554883,NA,NA,NA,NA,NA,NA,NA,NA,NA,NA,NA,NA,NA,NA,NA,NA,NA,NA,NA,NA,NA,NA,NA,NA
"595","Texas City Independent School District",1,0,1,0,0.00125944584382872,0.00125786163522013,"Galveston","NGO","Texas City, TX",-94.9027002,29.383845,NA,NA,NA,NA,NA,NA,NA,NA,NA,NA,NA,NA,NA,NA,NA,NA,NA,NA,NA,NA,NA,NA,NA,NA
"596","Texas Coalition for Conservation",1,0,1,0,0.00126262023913455,0.00125786163522013,"Travis","NGO","Austin, TX",-97.7430608,30.267153,NA,NA,NA,NA,NA,NA,NA,NA,NA,NA,NA,NA,NA,NA,NA,NA,NA,NA,NA,NA,NA,NA,NA,NA
"597","Texas Coastal Exchange",1,0,1,0,0.00125944584382872,0.00125786163522013,"Harris","NGO","Houston, TX",-95.3698028,29.7604267,NA,NA,NA,NA,NA,NA,NA,NA,NA,NA,NA,NA,NA,NA,NA,NA,NA,NA,NA,NA,NA,NA,NA,NA
"598","Texas Commission on Environmental Quality",3,0,3,0,0.00146296074511502,0.00125786163522013,"Travis","State Agency","Austin, TX",-97.7430608,30.267153,NA,NA,NA,NA,NA,NA,NA,NA,NA,NA,NA,NA,NA,NA,NA,NA,NA,NA,NA,NA,NA,NA,NA,NA
"599","Texas Commission on Fire Protection",1,0,1,0,0.00125944584382872,0.00125786163522013,"Travis","NGO","Austin, TX",-97.7430608,30.267153,NA,NA,NA,NA,NA,NA,NA,NA,NA,NA,NA,NA,NA,NA,NA,NA,NA,NA,NA,NA,NA,NA,NA,NA
"600","Texas Commission on the Arts",1,0,1,0,0.00126103204514304,0.00125786163522013,"Travis","State Agency","Austin, TX",-97.7430608,30.267153,NA,NA,NA,NA,NA,NA,NA,NA,NA,NA,NA,NA,NA,NA,NA,NA,NA,NA,NA,NA,NA,NA,NA,NA
"601","Texas Conference of Urban Counties",1,0,1,0,0.00146449341254632,0.00125786163522013,"Travis","NGO","Austin, TX",-97.7430608,30.267153,NA,NA,NA,NA,NA,NA,NA,NA,NA,NA,NA,NA,NA,NA,NA,NA,NA,NA,NA,NA,NA,NA,NA,NA
"602","Texas Conservation Alliance",2,10,12,0.000791680034051096,0.00126103404791929,0.00268893675241462,"Dallas","NGO","Dallas, TX",-96.7969879,32.7766642,NA,NA,NA,NA,NA,NA,NA,NA,NA,NA,NA,NA,NA,NA,NA,NA,NA,NA,NA,NA,NA,NA,NA,NA
"603","Texas Department of Agriculture",3,0,3,0,0.00146016812162428,0.00125786163522013,"Travis","State Agency","Austin, TX",-97.7430608,30.267153,NA,NA,NA,NA,NA,NA,NA,NA,NA,NA,NA,NA,NA,NA,NA,NA,NA,NA,NA,NA,NA,NA,NA,NA
"604","Texas Department of State Health Services",2,0,2,0,0.00145943809795146,0.00125786163522013,"Travis","State Agency","Austin, TX",-97.7430608,30.267153,NA,NA,NA,NA,NA,NA,NA,NA,NA,NA,NA,NA,NA,NA,NA,NA,NA,NA,NA,NA,NA,NA,NA,NA
"605","Texas Department of Transportation",1,0,1,0,0.00145576687195302,0.00125786163522013,"Travis","State Agency","Austin, TX",-97.7430608,30.267153,NA,NA,NA,NA,NA,NA,NA,NA,NA,NA,NA,NA,NA,NA,NA,NA,NA,NA,NA,NA,NA,NA,NA,NA
"606","Texas Desalination Association",1,3,4,4.76461227173537e-06,0.00125944584382872,0.00126262626262626,"Travis","NGO","AUSTIN, TX",-97.7430608,30.267153,NA,NA,NA,NA,NA,NA,NA,NA,NA,NA,NA,NA,NA,NA,NA,NA,NA,NA,NA,NA,NA,NA,NA,NA
"607","Texas Discovery Gardens",1,0,1,0,0.00125944584382872,0.00125786163522013,"Dallas","NGO","Dallas, TX",-96.7969879,32.7766642,NA,NA,NA,NA,NA,NA,NA,NA,NA,NA,NA,NA,NA,NA,NA,NA,NA,NA,NA,NA,NA,NA,NA,NA
"608","Texas Division of Emergency Management",3,0,3,0,0.00146490140512457,0.00125786163522013,"Travis","State Agency","Austin, TX",-97.7430608,30.267153,NA,NA,NA,NA,NA,NA,NA,NA,NA,NA,NA,NA,NA,NA,NA,NA,NA,NA,NA,NA,NA,NA,NA,NA
"609","Texas Downtown Association",2,8,10,0.00649225185811055,0.0014541485355955,0.00253171822039978,"Travis","NGO","Austin, TX",-97.7430608,30.267153,NA,NA,NA,NA,NA,NA,NA,NA,NA,NA,NA,NA,NA,NA,NA,NA,NA,NA,NA,NA,NA,NA,NA,NA
"610","Texas Economic Development Council",3,9,12,0.00765481725241398,0.00145441490024252,0.00252863020853238,"Travis","NGO","Austin, TX",-97.7430608,30.267153,NA,NA,NA,NA,NA,NA,NA,NA,NA,NA,NA,NA,NA,NA,NA,NA,NA,NA,NA,NA,NA,NA,NA,NA
"611","Texas Energy Poverty Research Institute",2,13,15,0.00522897599021809,0.00145406864522556,0.00253368136882615,"Travis","NGO","Austin, TX",-97.7430608,30.267153,2,13,15,0.00522897599021809,0.00145406864522556,0.00253368136882615,1,7,8,0.0074993478827928,0.00303455476881913,0.00372126523017826,2,11,13,0.00455434722343231,0.00222894796314924,0.00257911684476075,2,8,10,0.00282485875706215,0.00436488203768164,0.00489436837866303
"612","Texas Environmental Justice Advocacy Services",0,7,7,0,0.00125786163522013,0.00126903553299492,"Harris","NGO","Houston, TX",-95.3698028,29.7604267,NA,NA,NA,NA,NA,NA,NA,NA,NA,NA,NA,NA,NA,NA,NA,NA,NA,NA,NA,NA,NA,NA,NA,NA
"613","Texas Farm Bureau",1,0,1,0,0.00126262023913455,0.00125786163522013,"McLennan","NGO","Waco, TX",-97.1466695,31.549333,NA,NA,NA,NA,NA,NA,NA,NA,NA,NA,NA,NA,NA,NA,NA,NA,NA,NA,NA,NA,NA,NA,NA,NA
"614","Texas Farmers' Market",1,6,7,0.000398242175712548,0.00145281285794271,0.00253250149908779,"Travis","NGO","Austin, TX",-97.7430608,30.267153,1,6,7,0.000398242175712548,0.00145281285794271,0.00253250149908779,1,2,3,1.44914934933194e-05,0.00271725236116082,0.00396715367388291,1,2,3,1.9801509667097e-06,0.00199599214301304,0.00210914732582762,0,2,2,0,0.00420168067226891,0.00436608820603515
"615","Texas Fire Chiefs Association",1,0,1,0,0.00125944584382872,0.00125786163522013,"Travis","NGO","Austin, TX",-97.7430608,30.267153,NA,NA,NA,NA,NA,NA,NA,NA,NA,NA,NA,NA,NA,NA,NA,NA,NA,NA,NA,NA,NA,NA,NA,NA
"616","Texas Floating Classroom",1,5,6,0.0114204466302166,0.00145390622854161,0.00253623072672274,"San Patricio","NGO","Aransas Pass, TX",-97.1505561,27.909532,1,5,6,0.0114204466302166,0.00145390622854161,0.00253623072672274,1,0,1,0,0.00270266343122012,0.00268096514745308,1,0,1,0,0.00199997614342572,0.00198412698412698,0,1,1,0,0.00420168067226891,0.00421940928270042
"617","Texas Floodplain Management Association",1,0,1,0,0.00126103204514304,0.00125786163522013,"Williamson","NGO","Cedar Park, TX",-97.8202888,30.505198,NA,NA,NA,NA,NA,NA,NA,NA,NA,NA,NA,NA,NA,NA,NA,NA,NA,NA,NA,NA,NA,NA,NA,NA
"618","Texas Forest Country Partnership",1,0,1,0,0.00125944584382872,0.00125786163522013,"Angelina","NGO","Lufkin, TX",-94.729097,31.3382406,NA,NA,NA,NA,NA,NA,NA,NA,NA,NA,NA,NA,NA,NA,NA,NA,NA,NA,NA,NA,NA,NA,NA,NA
"619","Texas Foundation for Conservation",1,10,11,0.00063030778437311,0.00126103204514304,0.00269005729076673,"Travis","NGO","Austin, TX",-97.7430608,30.267153,1,10,11,0.00063030778437311,0.00126103204514304,0.00269005729076673,0,6,6,0,0.00268096514745308,0.00272479564032698,1,9,10,0.000360387475941166,0.00198807157057654,0.00263986564500892,0,2,2,0,0.00420168067226891,0.00425524274633726
"620","Texas Game Wardens",1,0,1,0,0.00126103204514304,0.00125786163522013,"Travis","NGO","Austin, TX",-97.7430608,30.267153,NA,NA,NA,NA,NA,NA,NA,NA,NA,NA,NA,NA,NA,NA,NA,NA,NA,NA,NA,NA,NA,NA,NA,NA
"621","Texas General Land Office",2,0,2,0,0.00145998554724635,0.00125786163522013,"Travis","State Agency","Austin, TX",-97.7430608,30.267153,NA,NA,NA,NA,NA,NA,NA,NA,NA,NA,NA,NA,NA,NA,NA,NA,NA,NA,NA,NA,NA,NA,NA,NA
"622","Texas Ground Water Association",1,0,1,0,0.0014566615665166,0.00125786163522013,"Travis","NGO","Austin, TX",-97.7430608,30.267153,NA,NA,NA,NA,NA,NA,NA,NA,NA,NA,NA,NA,NA,NA,NA,NA,NA,NA,NA,NA,NA,NA,NA,NA
"623","Texas Health and Human Services Commission",1,0,1,0,0.00126103204514304,0.00125786163522013,"Travis","State Agency","Austin, TX",-97.7430608,30.267153,NA,NA,NA,NA,NA,NA,NA,NA,NA,NA,NA,NA,NA,NA,NA,NA,NA,NA,NA,NA,NA,NA,NA,NA
"624","Texas Hill Country Conservation Network",5,10,15,0.0116543901033201,0.0014548332896639,0.0025378033617904,"Hays","NGO","Dripping Springs, TX",-98.0866781,30.1902067,5,10,15,0.0116543901033201,0.0014548332896639,0.0025378033617904,3,10,13,0.00434522256863792,0.0030364620319808,0.00372432021144528,4,10,14,0.0120523648722979,0.00223078662947211,0.00258082391392465,1,0,1,0,0.00421940928270042,0.00420168067226891
"625","Texas Hill Country River Region, Inc.",1,4,5,0,0.00125944584382872,0.00257830714976912,"Uvalde","NGO","Concan, TX",-99.7214883,29.5014937,NA,NA,NA,NA,NA,NA,NA,NA,NA,NA,NA,NA,NA,NA,NA,NA,NA,NA,NA,NA,NA,NA,NA,NA
"626","Texas Historical Commission",2,0,2,0,0.00146097951868637,0.00125786163522013,"Travis","State Agency","Austin, TX",-97.7430608,30.267153,NA,NA,NA,NA,NA,NA,NA,NA,NA,NA,NA,NA,NA,NA,NA,NA,NA,NA,NA,NA,NA,NA,NA,NA
"627","Texas Hotel and Lodging Association",1,0,1,0,0.00145624479585062,0.00125786163522013,"Travis","NGO","Austin, TX",-97.7430608,30.267153,NA,NA,NA,NA,NA,NA,NA,NA,NA,NA,NA,NA,NA,NA,NA,NA,NA,NA,NA,NA,NA,NA,NA,NA
"628","Texas Housers",1,0,1,0,0.00145675510552301,0.00125786163522013,"Travis","NGO","Austin, TX",-97.7430608,30.267153,1,0,1,0,0.00145675510552301,0.00125786163522013,1,0,1,0,0.00270992839087075,0.00268096514745308,1,0,1,0,0.00202407970769553,0.00198412698412698,1,0,1,0,0.00421940928270042,0.00420168067226891
"629","Texas Hunger at Baylor",1,0,1,0,0.00145437227534161,0.00125786163522013,"McLennan","University","Waco, TX",-97.1466695,31.549333,NA,NA,NA,NA,NA,NA,NA,NA,NA,NA,NA,NA,NA,NA,NA,NA,NA,NA,NA,NA,NA,NA,NA,NA
"630","Texas International Produce Association",1,0,1,0,0.00145464138692911,0.00125786163522013,"Hidalgo","NGO","Mission, TX",-98.3252932,26.2159066,NA,NA,NA,NA,NA,NA,NA,NA,NA,NA,NA,NA,NA,NA,NA,NA,NA,NA,NA,NA,NA,NA,NA,NA
"631","Texas Land Conservancy",2,0,2,0,0.00145706520642063,0.00125786163522013,"Travis","NGO","Austin, TX",-97.7430608,30.267153,NA,NA,NA,NA,NA,NA,NA,NA,NA,NA,NA,NA,NA,NA,NA,NA,NA,NA,NA,NA,NA,NA,NA,NA
"632","Texas Land Conservation Assistance Network",0,3,3,0,0.00125786163522013,0.00126262626262626,"Cumberland","NGO","Yarmouth, ME",-70.1867227,43.8006208,NA,NA,NA,NA,NA,NA,NA,NA,NA,NA,NA,NA,NA,NA,NA,NA,NA,NA,NA,NA,NA,NA,NA,NA
"633","Texas Land Trust Council",5,10,15,0.00338436205896464,0.00145496391909374,0.00253494326707575,"Hays","NGO","Wimberley, TX",-98.0986204,29.9974362,NA,NA,NA,NA,NA,NA,NA,NA,NA,NA,NA,NA,NA,NA,NA,NA,NA,NA,NA,NA,NA,NA,NA,NA
"634","Texas Living Waters Project",2,0,2,0,0.00145578822498345,0.00125786163522013,"Travis","NGO","Austin, TX",-97.7430608,30.267153,NA,NA,NA,NA,NA,NA,NA,NA,NA,NA,NA,NA,NA,NA,NA,NA,NA,NA,NA,NA,NA,NA,NA,NA
"635","Texas Master Gardeners",1,0,1,0,0.00125944584382872,0.00125786163522013,"Brazos","NGO","College Station, TX",-96.3344068,30.627977,NA,NA,NA,NA,NA,NA,NA,NA,NA,NA,NA,NA,NA,NA,NA,NA,NA,NA,NA,NA,NA,NA,NA,NA
"636","Texas Master Naturalist",10,10,20,0.0118694445843048,0.00145487060996458,0.00253264690308957,"Kerr","NGO","Kerrville, TX",-99.1403189,30.0474332,10,10,20,0.0118694445843048,0.00145487060996458,0.00253264690308957,4,0,4,0,0.0027247557241844,0.00268096514745308,6,2,8,0.00149699413083253,0.00226467423359012,0.00200800006387277,1,0,1,0,0.00421940928270042,0.00420168067226891
"637","Texas Master Naturalist, Mid-Coast Chapter",1,0,1,0,0.00145601513962342,0.00125786163522013,"Brazos","NGO","College Station, TX",-96.3344068,30.627977,NA,NA,NA,NA,NA,NA,NA,NA,NA,NA,NA,NA,NA,NA,NA,NA,NA,NA,NA,NA,NA,NA,NA,NA
"638","Texas Midwest Community Network",2,0,2,0,0.00145810072280661,0.00125786163522013,"Taylor","NGO","Abilene, TX",-99.7331439,32.4487364,NA,NA,NA,NA,NA,NA,NA,NA,NA,NA,NA,NA,NA,NA,NA,NA,NA,NA,NA,NA,NA,NA,NA,NA
"639","Texas Mining and Reclamation Association",0,4,4,0,0.00125786163522013,0.00126422250316056,"Travis","NGO","Austin, TX",-97.7430608,30.267153,0,4,4,0,0.00125786163522013,0.00126422250316056,0,4,4,0,0.00268096514745308,0.002710027100271,0,2,2,0,0.00198412698412698,0.00199203187250996,0,3,3,0,0.00420168067226891,0.00425531914893617
"640","Texas Mountain Trail",1,0,1,0,0.00125944584382872,0.00125786163522013,"Brewster","NGO","Alpine, TX",-103.6610115,30.3584919,NA,NA,NA,NA,NA,NA,NA,NA,NA,NA,NA,NA,NA,NA,NA,NA,NA,NA,NA,NA,NA,NA,NA,NA
"641","Texas Municipal League",5,2,7,0.000346493192427866,0.00146265351875015,0.00126103404791929,"Travis","NGO","Austin, TX",-97.7430608,30.267153,5,2,7,0.000346493192427866,0.00146265351875015,0.00126103404791929,2,0,2,0,0.00269541778975741,0.00268096514745308,4,2,6,3.16824154673552e-05,0.002,0.00199203187250996,1,0,1,0,0.00421940928270042,0.00420168067226891
"642","Texas Natural Resources Conservation Service",1,0,1,0,0.00125944584382872,0.00125786163522013,"Bell","Federal Agency","Temple, TX",-97.342782,31.0982344,NA,NA,NA,NA,NA,NA,NA,NA,NA,NA,NA,NA,NA,NA,NA,NA,NA,NA,NA,NA,NA,NA,NA,NA
"643","Texas Oil and Gas Association",1,0,1,0,0.00145624479585062,0.00125786163522013,"Travis","NGO","Austin, TX",-97.7430608,30.267153,NA,NA,NA,NA,NA,NA,NA,NA,NA,NA,NA,NA,NA,NA,NA,NA,NA,NA,NA,NA,NA,NA,NA,NA
"644","Texas Organic Farmers and Gardeners Association",4,0,4,0,0.00145493459207775,0.00125786163522013,"Hays","NGO","Wimberley, TX",-98.0986204,29.9974362,NA,NA,NA,NA,NA,NA,NA,NA,NA,NA,NA,NA,NA,NA,NA,NA,NA,NA,NA,NA,NA,NA,NA,NA
"645","Texas Organization of Rural and Community Hospitals",1,0,1,0,0.00145783032984788,0.00125786163522013,"Williamson","NGO","Round Rock, TX",-97.678896,30.5082551,NA,NA,NA,NA,NA,NA,NA,NA,NA,NA,NA,NA,NA,NA,NA,NA,NA,NA,NA,NA,NA,NA,NA,NA
"646","Texas Organizing Project",1,0,1,0,0.00145675510552301,0.00125786163522013,"Harris","NGO","Houston, TX",-95.3698028,29.7604267,1,0,1,0,0.00145675510552301,0.00125786163522013,1,0,1,0,0.00270992839087075,0.00268096514745308,1,0,1,0,0.00202407970769553,0.00198412698412698,1,0,1,0,0.00421940928270042,0.00420168067226891
"647","Texas Ornithological Society",1,0,1,0,0.00145645047976653,0.00125786163522013,"Bexar","NGO","San Antonio, TX",-98.4936282,29.4241219,NA,NA,NA,NA,NA,NA,NA,NA,NA,NA,NA,NA,NA,NA,NA,NA,NA,NA,NA,NA,NA,NA,NA,NA
"648","Texas Parks and Wildlife Foundation",23,0,23,0,0.0014722051742264,0.00125786163522013,"Dallas","NGO","Dallas, TX",-96.7969879,32.7766642,23,0,23,0,0.0014722051742264,0.00125786163522013,9,0,9,0,0.00309288636136885,0.00268096514745308,10,0,10,0,0.00225106287760125,0.00198412698412698,1,0,1,0,0.0042912238135762,0.00420168067226891
"649","Texas Public Health Association",1,0,1,0,0.00145731124240372,0.00125786163522013,"Gregg","NGO","Longview, TX",-94.7404891,32.5007037,1,0,1,0,0.00145731124240372,0.00125786163522013,1,0,1,0,0.00269539825958424,0.00268096514745308,1,0,1,0,0.00199202398349353,0.00198412698412698,1,0,1,0,0.00421940928270042,0.00420168067226891
"650","Texas Renewable Energy Industries Association",1,0,1,0,0.00145641842130847,0.00125786163522013,"Travis","NGO","Austin, TX",-97.7430608,30.267153,NA,NA,NA,NA,NA,NA,NA,NA,NA,NA,NA,NA,NA,NA,NA,NA,NA,NA,NA,NA,NA,NA,NA,NA
"651","Texas Rural Funders Collaborative",1,0,1,0,0.00145783032984788,0.00125786163522013,"Travis","NGO","Austin, TX",-97.7430608,30.267153,NA,NA,NA,NA,NA,NA,NA,NA,NA,NA,NA,NA,NA,NA,NA,NA,NA,NA,NA,NA,NA,NA,NA,NA
"652","Texas Rural Water Association",2,0,2,0,0.00146115427507241,0.00125786163522013,"Travis","NGO","Austin, TX",-97.7430608,30.267153,2,0,2,0,0.00146115427507241,0.00125786163522013,2,0,2,0,0.00305463861654432,0.00268096514745308,2,0,2,0,0.00224050458123054,0.00198412698412698,1,0,1,0,0.00421940928270042,0.00420168067226891
"653","Texas Speleological Association",1,0,1,0,0.00125944584382872,0.00125786163522013,"Travis","NGO","Austin, TX",-97.7430608,30.267153,NA,NA,NA,NA,NA,NA,NA,NA,NA,NA,NA,NA,NA,NA,NA,NA,NA,NA,NA,NA,NA,NA,NA,NA
"654","Texas Speleology Survey",1,0,1,0,0.00125944584382872,0.00125786163522013,"Travis","NGO","Austin, TX",-97.7430608,30.267153,NA,NA,NA,NA,NA,NA,NA,NA,NA,NA,NA,NA,NA,NA,NA,NA,NA,NA,NA,NA,NA,NA,NA,NA
"655","Texas State Aquarium",1,0,1,0,0.00145573484358184,0.00125786163522013,"Nueces","State Agency","Corpus Christie, TX",-97.396381,27.8005828,NA,NA,NA,NA,NA,NA,NA,NA,NA,NA,NA,NA,NA,NA,NA,NA,NA,NA,NA,NA,NA,NA,NA,NA
"656","Texas State Soil and Water Conservation Board",1,0,1,0,0.00145561741827735,0.00125786163522013,"Bell","State Agency","Temple, TX",-97.342782,31.0982344,NA,NA,NA,NA,NA,NA,NA,NA,NA,NA,NA,NA,NA,NA,NA,NA,NA,NA,NA,NA,NA,NA,NA,NA
"657","Texas State University",2,0,2,0,0.00126103404791929,0.00125786163522013,"Hays","University","San Marcos, TX",-97.9413941,29.8832749,NA,NA,NA,NA,NA,NA,NA,NA,NA,NA,NA,NA,NA,NA,NA,NA,NA,NA,NA,NA,NA,NA,NA,NA
"658","Texas Stream Team",1,1,2,0.000933927064490146,0.00145428703303466,0.00252945186714325,"Hays","NGO","San Marcos, TX",-97.9413941,29.8832749,1,1,2,0.000933927064490146,0.00145428703303466,0.00252945186714325,0,1,1,0,0.00268096514745308,0.00268817204301075,1,1,2,0.00119205088195924,0.00223425472280583,0.00201199195203219,0,1,1,0,0.00420168067226891,0.00421940928270042
"659","Texas Taxpayers and Research Association",1,0,1,0,0.00145624479585062,0.00125786163522013,"Travis","NGO","Austin, TX",-97.7430608,30.267153,NA,NA,NA,NA,NA,NA,NA,NA,NA,NA,NA,NA,NA,NA,NA,NA,NA,NA,NA,NA,NA,NA,NA,NA
"660","Texas Tech University",1,0,1,0,0.00126262224695873,0.00125786163522013,"Lubbock","University","Lubbock, TX",-101.8551665,33.5778631,NA,NA,NA,NA,NA,NA,NA,NA,NA,NA,NA,NA,NA,NA,NA,NA,NA,NA,NA,NA,NA,NA,NA,NA
"661","Texas Travel Alliance",2,0,2,0,0.00145624746669797,0.00125786163522013,"Travis","NGO","West Lake Hills, TX",-97.8019515,30.2979843,NA,NA,NA,NA,NA,NA,NA,NA,NA,NA,NA,NA,NA,NA,NA,NA,NA,NA,NA,NA,NA,NA,NA,NA
"662","Texas Trees Foundation",3,5,8,0.00056365930390376,0.00145388759288218,0.00253157292301021,"Dallas","NGO","Dallas, TX",-96.7969879,32.7766642,3,5,8,0.00056365930390376,0.00145388759288218,0.00253157292301021,1,2,3,0,0.00268817204301075,0.00381569769827268,3,3,6,0.0005306804590782,0.00199600798403194,0.00263882695485665,0,2,2,0,0.00420168067226891,0.0043100312795519
"663","Texas Voluntary Organizations Active in Disaster",1,6,7,7.94102045289228e-06,0.00125944584382872,0.00126742712294043,"Travis","NGO","Austin, TX",-97.7430608,30.267153,NA,NA,NA,NA,NA,NA,NA,NA,NA,NA,NA,NA,NA,NA,NA,NA,NA,NA,NA,NA,NA,NA,NA,NA
"664","Texas Water Conservation Association",8,0,8,0,0.00146121612196186,0.00125786163522013,"Travis","NGO","Austin, TX",-97.7430608,30.267153,8,0,8,0,0.00146121612196186,0.00125786163522013,2,0,2,0,0.00304543593941875,0.00268096514745308,5,0,5,0,0.00224072415928297,0.00198412698412698,1,0,1,0,0.00421940928270042,0.00420168067226891
"665","Texas Water Development Board",4,0,4,0,0.00145704648969241,0.00125786163522013,"Travis","State Agency","Austin, TX",-97.7430608,30.267153,NA,NA,NA,NA,NA,NA,NA,NA,NA,NA,NA,NA,NA,NA,NA,NA,NA,NA,NA,NA,NA,NA,NA,NA
"666","Texas Water Foundation",7,10,17,0.00348649991585277,0.00145506790622326,0.00253337417362228,"Travis","NGO","Austin, TX",-97.7430608,30.267153,7,10,17,0.00348649991585277,0.00145506790622326,0.00253337417362228,4,7,11,0.0015962035047332,0.0030371809735308,0.00371888433469959,4,7,11,0.00100828658605503,0.00223106368067846,0.00257720073985644,0,4,4,0,0.00420168067226891,0.00495753671087311
"667","Texas Water Journal",1,0,1,0,0.00145688340712552,0.00125786163522013,"Travis","NGO","Austin, TX",-97.7430608,30.267153,NA,NA,NA,NA,NA,NA,NA,NA,NA,NA,NA,NA,NA,NA,NA,NA,NA,NA,NA,NA,NA,NA,NA,NA
"668","Texas Water Resources Institute",1,0,1,0,0.0014566615665166,0.00125786163522013,"Brazos","University","College Station, TX",-96.3344068,30.627977,NA,NA,NA,NA,NA,NA,NA,NA,NA,NA,NA,NA,NA,NA,NA,NA,NA,NA,NA,NA,NA,NA,NA,NA
"669","Texas Water Trade",5,0,5,0,0.00145716681990776,0.00125786163522013,"Travis","NGO","Austin, TX",-97.7430608,30.267153,5,0,5,0,0.00145716681990776,0.00125786163522013,3,0,3,0,0.00304640859545823,0.00268096514745308,4,0,4,0,0.00223620156934225,0.00198412698412698,1,0,1,0,0.00421940928270042,0.00420168067226891
"670","Texas Water Utilities Association",2,0,2,0,0.00146062475740568,0.00125786163522013,"Travis","NGO","Hutto, TX",-97.5466702,30.5426995,NA,NA,NA,NA,NA,NA,NA,NA,NA,NA,NA,NA,NA,NA,NA,NA,NA,NA,NA,NA,NA,NA,NA,NA
"671","Texas Well Owners Network",1,0,1,0,0.0014566615665166,0.00125786163522013,"Brazos","NGO","College Station, TX",-96.3344068,30.627977,NA,NA,NA,NA,NA,NA,NA,NA,NA,NA,NA,NA,NA,NA,NA,NA,NA,NA,NA,NA,NA,NA,NA,NA
"672","Texas Wildlife Association",3,0,3,0,0.00127386695630829,0.00125786163522013,"Comal","NGO","New Braunfels, TX",-98.1244531,29.7030024,NA,NA,NA,NA,NA,NA,NA,NA,NA,NA,NA,NA,NA,NA,NA,NA,NA,NA,NA,NA,NA,NA,NA,NA
"673","Texas Workforce Commission",1,0,1,0,0.00125944584382872,0.00125786163522013,"Travis","State Agency","Austin, TX",-97.7430608,30.267153,NA,NA,NA,NA,NA,NA,NA,NA,NA,NA,NA,NA,NA,NA,NA,NA,NA,NA,NA,NA,NA,NA,NA,NA
"674","Texas Zoo",1,0,1,0,0.00126103204514304,0.00125786163522013,"Victoria","NGO","Victoria, TX",-97.0035982,28.8052674,NA,NA,NA,NA,NA,NA,NA,NA,NA,NA,NA,NA,NA,NA,NA,NA,NA,NA,NA,NA,NA,NA,NA,NA
"675","The Aransas Project",0,10,10,0,0.00125786163522013,0.0025806703242414,"Harris","NGO","Rockport, TX",-97.0544341,28.0205733,NA,NA,NA,NA,NA,NA,NA,NA,NA,NA,NA,NA,NA,NA,NA,NA,NA,NA,NA,NA,NA,NA,NA,NA
"676","The Association for the Advancement of Mexican Americans",1,0,1,0,0.00125944584382872,0.00125786163522013,"Bexar","NGO","San Antonio, TX",-98.4936282,29.4241219,NA,NA,NA,NA,NA,NA,NA,NA,NA,NA,NA,NA,NA,NA,NA,NA,NA,NA,NA,NA,NA,NA,NA,NA
"677","The Austin Common",2,10,12,0.00135660611978901,0.00145640239260867,0.00127388535031847,"Travis","Private","Austin, TX",-97.7430608,30.267153,2,10,12,0.00135660611978901,0.00145640239260867,0.00127388535031847,0,3,3,0,0.00268096514745308,0.0027027027027027,0,9,9,0,0.00198412698412698,0.00202020202020202,0,1,1,0,0.00420168067226891,0.00421940928270042
"678","The Battle of Flowers Association",1,0,1,0,0.00126103204514304,0.00125786163522013,"Bexar","NGO","San Antonio, TX",-98.4936282,29.4241219,NA,NA,NA,NA,NA,NA,NA,NA,NA,NA,NA,NA,NA,NA,NA,NA,NA,NA,NA,NA,NA,NA,NA,NA
"679","The Big Springs Group",1,0,1,0,0.00145606854158414,0.00125786163522013,"Harris","NGO","Houston, TX",-95.3698028,29.7604267,NA,NA,NA,NA,NA,NA,NA,NA,NA,NA,NA,NA,NA,NA,NA,NA,NA,NA,NA,NA,NA,NA,NA,NA
"680","The Big Thicket Association",1,0,1,0,0.00126262224695873,0.00125786163522013,"Jefferson","NGO","Beaumont, TX",-94.1265562,30.080174,NA,NA,NA,NA,NA,NA,NA,NA,NA,NA,NA,NA,NA,NA,NA,NA,NA,NA,NA,NA,NA,NA,NA,NA
"681","The Borderlands Research Institute",2,0,2,0,0.00145692885269605,0.00125786163522013,"Brewster","NGO","Alpine, TX",-103.6610115,30.3584919,NA,NA,NA,NA,NA,NA,NA,NA,NA,NA,NA,NA,NA,NA,NA,NA,NA,NA,NA,NA,NA,NA,NA,NA
"682","The Congress for the New Urbanism, Central Texas Chapter",0,3,3,0,0.00125786163522013,0.00127875178364937,"Travis","NGO","Austin, TX",-97.7430608,30.267153,NA,NA,NA,NA,NA,NA,NA,NA,NA,NA,NA,NA,NA,NA,NA,NA,NA,NA,NA,NA,NA,NA,NA,NA
"683","The Conservation Fund",3,5,8,0.000574748371750478,0.00145688340712552,0.00126582278481013,"Travis","NGO","Austin, TX",-97.7430608,30.267153,NA,NA,NA,NA,NA,NA,NA,NA,NA,NA,NA,NA,NA,NA,NA,NA,NA,NA,NA,NA,NA,NA,NA,NA
"684","The Cynthia and George Mitchell Foundation",4,0,4,0,0.0014569582601643,0.00125786163522013,"Travis","NGO","Austin, TX",-97.7430608,30.267153,4,0,4,0,0.0014569582601643,0.00125786163522013,2,0,2,0,0.00304635870054785,0.00268096514745308,2,0,2,0,0.00223575428927016,0.00198412698412698,2,0,2,0,0.00438482886216466,0.00420168067226891
"685","The Flower Mound Chamber of Commerce",1,0,1,0,0.00125944584382872,0.00125786163522013,"Denton","NGO","Flower Mound, TX",-97.0969552,33.0145673,NA,NA,NA,NA,NA,NA,NA,NA,NA,NA,NA,NA,NA,NA,NA,NA,NA,NA,NA,NA,NA,NA,NA,NA
"686","The Garden Club of Houston",0,7,7,0,0.00125786163522013,0.0025554704447291,"Harris","NGO","Houston, TX",-95.3698028,29.7604267,NA,NA,NA,NA,NA,NA,NA,NA,NA,NA,NA,NA,NA,NA,NA,NA,NA,NA,NA,NA,NA,NA,NA,NA
"687","The Gardens at Texas A&M University",1,0,1,0,0.00125944584382872,0.00125786163522013,"Brazos","State Agency","College Station, TX",-96.3344068,30.627977,NA,NA,NA,NA,NA,NA,NA,NA,NA,NA,NA,NA,NA,NA,NA,NA,NA,NA,NA,NA,NA,NA,NA,NA
"688","The John Fairey Garden Conservation Foundation",0,5,5,0,0.00125786163522013,0.00262681668855681,"Waller","NGO","Hempstead, TX",-96.0782918,30.0974405,NA,NA,NA,NA,NA,NA,NA,NA,NA,NA,NA,NA,NA,NA,NA,NA,NA,NA,NA,NA,NA,NA,NA,NA
"689","The Lewisville Chamber of Commerce",1,0,1,0,0.00125944584382872,0.00125786163522013,"Denton","NGO","Lewisville, TX",-96.994174,33.046233,NA,NA,NA,NA,NA,NA,NA,NA,NA,NA,NA,NA,NA,NA,NA,NA,NA,NA,NA,NA,NA,NA,NA,NA
"690","The Livestock Conservancy",1,10,11,1.42938368152061e-05,0.00125944584382872,0.00127388535031847,"Chatham","NGO","Pittsboro, NC",-79.1772371,35.7201463,NA,NA,NA,NA,NA,NA,NA,NA,NA,NA,NA,NA,NA,NA,NA,NA,NA,NA,NA,NA,NA,NA,NA,NA
"691","The Matagorda Bay Foundation",2,10,12,0.0011259457738171,0.00145390889081767,0.00253625503098448,"Brazoria","NGO","Brazoria, TX",-95.5691126,29.0444147,NA,NA,NA,NA,NA,NA,NA,NA,NA,NA,NA,NA,NA,NA,NA,NA,NA,NA,NA,NA,NA,NA,NA,NA
"692","The Meadows Center for Water and the Environment",11,9,20,0.00267966686336639,0.00145505190723586,0.00253280040320651,"Hays","NGO","San Marcos, TX",-97.9413941,29.8832749,11,9,20,0.00267966686336639,0.00145505190723586,0.00253280040320651,7,9,16,0.00494380750880186,0.00303760258032907,0.00372048366287617,11,7,18,0.00277020134300753,0.00223128141205069,0.00257813861467335,3,2,5,0.000697275262819138,0.00436544483330263,0.00488810972465711
"693","The Meadows Foundation",3,0,3,0,0.00145691013947071,0.00125786163522013,"Dallas","NGO","Dallas, TX",-96.7969879,32.7766642,NA,NA,NA,NA,NA,NA,NA,NA,NA,NA,NA,NA,NA,NA,NA,NA,NA,NA,NA,NA,NA,NA,NA,NA
"694","The Museum of Fine Arts Houston",1,0,1,0,0.00125944584382872,0.00125786163522013,"Harris","Private","Houston, TX",-95.3698028,29.7604267,NA,NA,NA,NA,NA,NA,NA,NA,NA,NA,NA,NA,NA,NA,NA,NA,NA,NA,NA,NA,NA,NA,NA,NA
"695","The Nature Conservancy",23,11,34,0.0166787941663165,0.00145521724707353,0.00253426362725259,"Travis","NGO","Austin, TX",-97.7430608,30.267153,23,11,34,0.0166787941663165,0.00145521724707353,0.00253426362725259,11,10,21,0.00971033574720211,0.00303760258032907,0.00372048366287617,8,10,18,0.00912450736672735,0.00223135069912698,0.00257923586932555,3,4,7,0.000643638704140742,0.00436616864096093,0.00427350427350427
"696","The Nature Conservancy Houston Office",1,0,1,0,0.00145586029608605,0.00125786163522013,"Harris","NGO","Houston, TX",-95.3698028,29.7604267,NA,NA,NA,NA,NA,NA,NA,NA,NA,NA,NA,NA,NA,NA,NA,NA,NA,NA,NA,NA,NA,NA,NA,NA
"697","The Nature Conservancy of Texas",5,0,5,0,0.00145688340712552,0.00125786163522013,NA,NA,NA,NA,NA,NA,NA,NA,NA,NA,NA,NA,NA,NA,NA,NA,NA,NA,NA,NA,NA,NA,NA,NA,NA,NA,NA,NA,NA
"698","The Noble Research Institute",1,0,1,0,0.00125944584382872,0.00125786163522013,"Carter","NGO","Ardmore, OK",-97.1436254,34.1742611,NA,NA,NA,NA,NA,NA,NA,NA,NA,NA,NA,NA,NA,NA,NA,NA,NA,NA,NA,NA,NA,NA,NA,NA
"699","The North Texas Conservancy",0,1,1,0,0.00125786163522013,0.00125944584382872,"Dallas","NGO","Garland, TX",-96.6388833,32.912624,NA,NA,NA,NA,NA,NA,NA,NA,NA,NA,NA,NA,NA,NA,NA,NA,NA,NA,NA,NA,NA,NA,NA,NA
"700","The Plum Creek Watershed Partnership",1,3,4,0.000171526041782473,0.00145427105121452,0.0025368222626921,"Caldwell","Municipal/County","Lockhart, TX",-97.6699996,29.8849441,1,3,4,0.000171526041782473,0.00145427105121452,0.0025368222626921,0,3,3,0,0.00268096514745308,0.00374777098298391,1,1,2,0,0.00222928383702739,0.00257877305771735,0,1,1,0,0.00420168067226891,0.00421940928270042
"701","The Ryan Foundation",1,0,1,0,0.00125944584382872,0.00125786163522013,"Tarrant","NGO","Fort Worth, TX",-97.3307658,32.7554883,NA,NA,NA,NA,NA,NA,NA,NA,NA,NA,NA,NA,NA,NA,NA,NA,NA,NA,NA,NA,NA,NA,NA,NA
"702","The Shreveport Aquarium",1,0,1,0,0.00126421243864032,0.00125786163522013,"Caddo","NGO","Shreveport, LA",-93.7501789,32.5251516,NA,NA,NA,NA,NA,NA,NA,NA,NA,NA,NA,NA,NA,NA,NA,NA,NA,NA,NA,NA,NA,NA,NA,NA
"703","The Still Water Foundation",1,0,1,0,0.00126739879964245,0.00125786163522013,"Travis","NGO","Austin, TX",-97.7430608,30.267153,NA,NA,NA,NA,NA,NA,NA,NA,NA,NA,NA,NA,NA,NA,NA,NA,NA,NA,NA,NA,NA,NA,NA,NA
"704","The Texas Agricultural Land Trust",4,0,4,0,0.00145697697462585,0.00125786163522013,"Bexar","NGO","San Antonio, TX",-98.4936282,29.4241219,NA,NA,NA,NA,NA,NA,NA,NA,NA,NA,NA,NA,NA,NA,NA,NA,NA,NA,NA,NA,NA,NA,NA,NA
"705","The Texas Cavaliers",1,0,1,0,0.00126103204514304,0.00125786163522013,"Bexar","NGO","San Antonio, TX",-98.4936282,29.4241219,NA,NA,NA,NA,NA,NA,NA,NA,NA,NA,NA,NA,NA,NA,NA,NA,NA,NA,NA,NA,NA,NA,NA,NA
"706","The Texas Governor's Office",1,0,1,0,0.00125944584382872,0.00125786163522013,"Travis","State Agency","Austin, TX",-97.7430608,30.267153,NA,NA,NA,NA,NA,NA,NA,NA,NA,NA,NA,NA,NA,NA,NA,NA,NA,NA,NA,NA,NA,NA,NA,NA
"707","The Texas River School",1,3,4,4.76461227173537e-06,0.00145583360225306,0.00126262626262626,"Travis","NGO","Austin, TX",-97.7430608,30.267153,NA,NA,NA,NA,NA,NA,NA,NA,NA,NA,NA,NA,NA,NA,NA,NA,NA,NA,NA,NA,NA,NA,NA,NA
"708","The Trail Foundation",1,0,1,0,0.00145496658524473,0.00125786163522013,"Travis","NGO","Austin, TX",-97.7430608,30.267153,NA,NA,NA,NA,NA,NA,NA,NA,NA,NA,NA,NA,NA,NA,NA,NA,NA,NA,NA,NA,NA,NA,NA,NA
"709","The Trust for Public Land",2,8,10,0.00185887229316857,0.00145416185151066,0.00253159713808364,"Dallas","NGO","Dallas, TX",-96.7969879,32.7766642,2,8,10,0.00185887229316857,0.00145416185151066,0.00253159713808364,1,8,9,4.34744804799583e-05,0.00268817204301075,0.00381593254416019,1,6,7,4.75236232010328e-05,0.00199599214301304,0.00263884079868215,1,0,1,0,0.00421940928270042,0.00420168067226891
"710","The Wildlife Center of Texas",1,0,1,0,0.00145670165319126,0.00125786163522013,"Harris","NGO","Katy, TX",-95.8245093,29.7857765,NA,NA,NA,NA,NA,NA,NA,NA,NA,NA,NA,NA,NA,NA,NA,NA,NA,NA,NA,NA,NA,NA,NA,NA
"711","The Woods Project, Inc.",0,10,10,0,0.00125786163522013,0.00258335719305552,"Harris","Private","Houston, TX",-95.3698028,29.7604267,NA,NA,NA,NA,NA,NA,NA,NA,NA,NA,NA,NA,NA,NA,NA,NA,NA,NA,NA,NA,NA,NA,NA,NA
"712","Tractor Supply Company",1,0,1,0,0.00126103204514304,0.00125786163522013,"Williamson","Private","Brentwood, TN",-86.7827772,36.0331164,NA,NA,NA,NA,NA,NA,NA,NA,NA,NA,NA,NA,NA,NA,NA,NA,NA,NA,NA,NA,NA,NA,NA,NA
"713","Trail Alliances",1,0,1,0,0.00145606854158414,0.00125786163522013,"Travis","NGO","Austin, TX",-97.7430608,30.267153,1,0,1,0,0.00145606854158414,0.00125786163522013,1,0,1,0,0.00268817204301075,0.00268096514745308,1,0,1,0,0.00198807157057654,0.00198412698412698,1,0,1,0,0.00421940928270042,0.00420168067226891
"714","Transit for Austin Coalition",2,0,2,0,0.00145888837850253,0.00125786163522013,"Travis","NGO","Austin, TX",-97.7430608,30.267153,NA,NA,NA,NA,NA,NA,NA,NA,NA,NA,NA,NA,NA,NA,NA,NA,NA,NA,NA,NA,NA,NA,NA,NA
"715","Travis Audubon Society",1,0,1,0,0.00145583360225306,0.00125786163522013,"Travis","NGO","Austin, TX",-97.7430608,30.267153,NA,NA,NA,NA,NA,NA,NA,NA,NA,NA,NA,NA,NA,NA,NA,NA,NA,NA,NA,NA,NA,NA,NA,NA
"716","Travis County",2,0,2,0,0.00146334091420104,0.00125786163522013,"Travis","Municipal/County","Austin, TX",-97.7430608,30.267153,NA,NA,NA,NA,NA,NA,NA,NA,NA,NA,NA,NA,NA,NA,NA,NA,NA,NA,NA,NA,NA,NA,NA,NA
"717","Travis County Sheriff's Office",1,0,1,0,0.00126103204514304,0.00125786163522013,"Travis","Municipal/County","Austin, TX",-97.7430608,30.267153,NA,NA,NA,NA,NA,NA,NA,NA,NA,NA,NA,NA,NA,NA,NA,NA,NA,NA,NA,NA,NA,NA,NA,NA
"718","Treasure City Thrift",1,0,1,0,0.00126103204514304,0.00125786163522013,"Travis","NGO","Austin, TX",-97.7430608,30.267153,NA,NA,NA,NA,NA,NA,NA,NA,NA,NA,NA,NA,NA,NA,NA,NA,NA,NA,NA,NA,NA,NA,NA,NA
"719","TreeFolks",1,10,11,0.00124607845939968,0.00145313989857303,0.00253196041978246,"Travis","NGO","Ausin, TX",-97.7430608,30.267153,1,10,11,0.00124607845939968,0.00145313989857303,0.00253196041978246,0,10,10,0,0.00268096514745308,0.0038600423359482,0,3,3,0,0.00198412698412698,0.00200800807993709,1,5,6,0.000393334763641565,0.00423721237909642,0.00440479509339281
"720","Trees for Houston",2,10,12,0.000263694819172376,0.00126421646442918,0.00260194785617848,"Harris","NGO","Houston, TX",-95.3698028,29.7604267,2,10,12,0.000263694819172376,0.00126421646442918,0.00260194785617848,1,7,8,8.69489609599165e-05,0.00269539825958424,0.00278528590360814,1,6,7,3.9603019334194e-05,0.00199202398349353,0.00202017767924559,0,3,3,0,0.00420168067226891,0.00425531914893617
"721","Trinity Edwards Spring Protection Association",1,0,1,0,0.00145678450597759,0.00125786163522013,"Hays","NGO","Wimberley, TX",-98.0986204,29.9974362,NA,NA,NA,NA,NA,NA,NA,NA,NA,NA,NA,NA,NA,NA,NA,NA,NA,NA,NA,NA,NA,NA,NA,NA
"722","Trinity Park Conservancy",2,0,2,0,0.00145571882992474,0.00125786163522013,"Dallas","NGO","Dallas, TX",-96.7969879,32.7766642,NA,NA,NA,NA,NA,NA,NA,NA,NA,NA,NA,NA,NA,NA,NA,NA,NA,NA,NA,NA,NA,NA,NA,NA
"723","Trinity River Audubon Center",1,3,4,3.17640818115691e-06,0.00125944584382872,0.00126902741994259,"Dallas","NGO","Dallas, TX",-96.7969879,32.7766642,1,3,4,3.17640818115691e-06,0.00125944584382872,0.00126902741994259,1,0,1,0,0.00268817204301075,0.00268096514745308,0,2,2,0,0.00198412698412698,0.00199998409555391,1,0,1,0,0.00421940928270042,0.00420168067226891
"724","Trinity University",1,0,1,0,0.00145549467571249,0.00125786163522013,"Bexar","University","San Antonio, TX",-98.4936282,29.4241219,1,0,1,0,0.00145549467571249,0.00125786163522013,1,0,1,0,0.00268817204301075,0.00268096514745308,1,0,1,0,0.00198807157057654,0.00198412698412698,1,0,1,0,0.00421940928270042,0.00420168067226891
"725","Trout Unlimited Teens",1,0,1,0,0.00126103204514304,0.00125786163522013,"Arlington","NGO","Arlington, VA",-77.1067698,38.8799697,NA,NA,NA,NA,NA,NA,NA,NA,NA,NA,NA,NA,NA,NA,NA,NA,NA,NA,NA,NA,NA,NA,NA,NA
"726","Trull Foundation",1,0,1,0,0.00145609524403349,0.00125786163522013,"Matagorda","NGO","Palacios, TX",-96.217467,28.7080461,NA,NA,NA,NA,NA,NA,NA,NA,NA,NA,NA,NA,NA,NA,NA,NA,NA,NA,NA,NA,NA,NA,NA,NA
"727","Turtle Island Restoration Network",1,0,1,0,0.00145675510552301,0.00125786163522013,"Galveston","NGO","Galveston, TX",-94.7976958,29.3013479,NA,NA,NA,NA,NA,NA,NA,NA,NA,NA,NA,NA,NA,NA,NA,NA,NA,NA,NA,NA,NA,NA,NA,NA
"728","Twelve Hills Nature Center",0,4,4,0,0.00125786163522013,0.00126422250316056,"Dallas","NGO","Dallas, TX",-96.7969879,32.7766642,NA,NA,NA,NA,NA,NA,NA,NA,NA,NA,NA,NA,NA,NA,NA,NA,NA,NA,NA,NA,NA,NA,NA,NA
"729","Unincluded Club",1,0,1,0,0.00125944584382872,0.00125786163522013,"Bell","NGO","Temple, TX",-97.342782,31.0982344,NA,NA,NA,NA,NA,NA,NA,NA,NA,NA,NA,NA,NA,NA,NA,NA,NA,NA,NA,NA,NA,NA,NA,NA
"730","Union Theological Seminary in the City of New York",1,0,1,0,0.00125944584382872,0.00125786163522013,"New York","University","New York, NY",-74.0059728,40.7127753,NA,NA,NA,NA,NA,NA,NA,NA,NA,NA,NA,NA,NA,NA,NA,NA,NA,NA,NA,NA,NA,NA,NA,NA
"731","United Way",4,0,4,0,0.00146442318510198,0.00125786163522013,"Hunt","NGO","Greenville, TX",-96.1108066,33.1384488,NA,NA,NA,NA,NA,NA,NA,NA,NA,NA,NA,NA,NA,NA,NA,NA,NA,NA,NA,NA,NA,NA,NA,NA
"732","United Way of Brazoria County",1,0,1,0,0.00126103204514304,0.00125786163522013,"Brazoria","NGO","Angleton, TX",-95.4318847,29.16941,1,0,1,0,0.00126103204514304,0.00125786163522013,1,0,1,0,0.00268817204301075,0.00268096514745308,1,0,1,0,0.00198807157057654,0.00198412698412698,1,0,1,0,0.00421940928270042,0.00420168067226891
"733","United Way of Midland",1,0,1,0,0.00126103204514304,0.00125786163522013,"Midland","NGO","Midland, TX",-102.0779146,31.9973456,NA,NA,NA,NA,NA,NA,NA,NA,NA,NA,NA,NA,NA,NA,NA,NA,NA,NA,NA,NA,NA,NA,NA,NA
"734","United Way Success by 6 Coalition",1,0,1,0,0.00145464671687702,0.00125786163522013,"Travis","NGO","Austin, TX",-97.7430608,30.267153,NA,NA,NA,NA,NA,NA,NA,NA,NA,NA,NA,NA,NA,NA,NA,NA,NA,NA,NA,NA,NA,NA,NA,NA
"735","United Ways of Texas",1,0,1,0,0.00125944584382872,0.00125786163522013,"Travis","NGO","Austin, TX",-97.7430608,30.267153,NA,NA,NA,NA,NA,NA,NA,NA,NA,NA,NA,NA,NA,NA,NA,NA,NA,NA,NA,NA,NA,NA,NA,NA
"736","University of California Davis Veterinary Genetics Laboratory",1,0,1,0,0.00125944584382872,0.00125786163522013,"Yolo","University","Davis, CA",-121.7405167,38.5449065,NA,NA,NA,NA,NA,NA,NA,NA,NA,NA,NA,NA,NA,NA,NA,NA,NA,NA,NA,NA,NA,NA,NA,NA
"737","University of Houston",1,0,1,0,0.00145658941606174,0.00125786163522013,"Harris","University","Houston, TX",-95.3698028,29.7604267,NA,NA,NA,NA,NA,NA,NA,NA,NA,NA,NA,NA,NA,NA,NA,NA,NA,NA,NA,NA,NA,NA,NA,NA
"738","University of North Texas",1,0,1,0,0.00145571349211733,0.00125786163522013,"Denton","University","Denton, TX",-97.1330683,33.2148412,NA,NA,NA,NA,NA,NA,NA,NA,NA,NA,NA,NA,NA,NA,NA,NA,NA,NA,NA,NA,NA,NA,NA,NA
"739","University of Oregon",1,0,1,0,0.00145637300757534,0.00125786163522013,"Lane","University","Eugene, OR",-123.0867536,44.0520691,NA,NA,NA,NA,NA,NA,NA,NA,NA,NA,NA,NA,NA,NA,NA,NA,NA,NA,NA,NA,NA,NA,NA,NA
"740","University of Texas at Austin",5,5,10,0.00396424213986416,0.00145508657215323,0.00253252573192864,"Travis","University","Austin, TX",-97.7430608,30.267153,5,5,10,0.00396424213986416,0.00145508657215323,0.00253252573192864,3,5,8,0.00229921345693887,0.00303710658447973,0.0037197768133912,3,5,8,0.00177362279243027,0.00223094493602111,0.00257812540042952,1,1,2,0.000178788528927984,0.0043836123185055,0.00421940928270042
"741","University of Texas at Dallas",1,0,1,0,0.00145571349211733,0.00125786163522013,"Dallas","University","Richardson, TX",-96.7298519,32.9483335,NA,NA,NA,NA,NA,NA,NA,NA,NA,NA,NA,NA,NA,NA,NA,NA,NA,NA,NA,NA,NA,NA,NA,NA
"742","University of Texas School of Public Health and Dell Medical School",1,0,1,0,0.00145464138692911,0.00125786163522013,"Travis","University","Austin, TX",-97.7430608,30.267153,NA,NA,NA,NA,NA,NA,NA,NA,NA,NA,NA,NA,NA,NA,NA,NA,NA,NA,NA,NA,NA,NA,NA,NA
"743","Upper San Marcos Watershed Protection",1,0,1,0,0.00145638636426167,0.00125786163522013,"Hays","NGO","San Marcos, TX",-97.9413941,29.8832749,NA,NA,NA,NA,NA,NA,NA,NA,NA,NA,NA,NA,NA,NA,NA,NA,NA,NA,NA,NA,NA,NA,NA,NA
"744","Uranium Producers of America",1,0,1,0,0.00125944584382872,0.00125786163522013,"Santa Fe","NGO","Santa Fe, NM",-105.937799,35.6869752,NA,NA,NA,NA,NA,NA,NA,NA,NA,NA,NA,NA,NA,NA,NA,NA,NA,NA,NA,NA,NA,NA,NA,NA
"745","Urban Forestry Department",1,0,1,0,0.00145496925140549,0.00125786163522013,"Travis","Municipal/County","Austin, TX",-97.7430608,30.267153,NA,NA,NA,NA,NA,NA,NA,NA,NA,NA,NA,NA,NA,NA,NA,NA,NA,NA,NA,NA,NA,NA,NA,NA
"746","Urban Harvest",2,7,9,0.00102735061390138,0.00145254707972178,0.00253049985339673,"Harris","NGO","Houston, TX",-95.3698028,29.7604267,NA,NA,NA,NA,NA,NA,NA,NA,NA,NA,NA,NA,NA,NA,NA,NA,NA,NA,NA,NA,NA,NA,NA,NA
"747","Urban Land Institute",4,10,14,0.00109887680602468,0.00146020571613527,0.00127388535031847,"Travis","NGO","Austin, TX",-97.7430608,30.267153,4,10,14,0.00109887680602468,0.00146020571613527,0.00127388535031847,3,2,5,0.000427499058052923,0.00306041858628406,0.00269541778975741,2,9,11,7.12854348015493e-05,0.00199203187250996,0.00202020202020202,1,4,5,7.15154115711936e-05,0.00421940928270042,0.00427350427350427
"748","Urban Outreach, Inc.",0,6,6,0,0.00125786163522013,0.00126742712294043,"Harris","NGO","Houston, TX",-95.3698028,29.7604267,NA,NA,NA,NA,NA,NA,NA,NA,NA,NA,NA,NA,NA,NA,NA,NA,NA,NA,NA,NA,NA,NA,NA,NA
"749","Urban Roots",2,0,2,0,0.00145517457513118,0.00125786163522013,"Travis","NGO","Austin, TX",-97.7430608,30.267153,NA,NA,NA,NA,NA,NA,NA,NA,NA,NA,NA,NA,NA,NA,NA,NA,NA,NA,NA,NA,NA,NA,NA,NA
"750","US Fish and Wildlife Service",2,0,2,0,0.0014587624036142,0.00125786163522013,"Travis","Federal Agency","Austin, TX",-97.7430608,30.267153,NA,NA,NA,NA,NA,NA,NA,NA,NA,NA,NA,NA,NA,NA,NA,NA,NA,NA,NA,NA,NA,NA,NA,NA
"751","US Forest Service",3,0,3,0,0.00146108167888222,0.00125786163522013,"DC","Federal Agency","Washington, DC",-77.0368707,38.9071923,NA,NA,NA,NA,NA,NA,NA,NA,NA,NA,NA,NA,NA,NA,NA,NA,NA,NA,NA,NA,NA,NA,NA,NA
"752","US Geological Survey",1,0,1,0,0.00126103204514304,0.00125786163522013,"Fairfax","Federal Agency","Reston, VA",-77.3570028,38.9586307,NA,NA,NA,NA,NA,NA,NA,NA,NA,NA,NA,NA,NA,NA,NA,NA,NA,NA,NA,NA,NA,NA,NA,NA
"753","US Green Building Council",3,0,3,0,0.00145576153379329,0.00125786163522013,"DC","NGO","Washington, DC",-77.0368707,38.9071923,3,0,3,0,0.00145576153379329,0.00125786163522013,3,0,3,0,0.00305128121001345,0.00268096514745308,1,0,1,0,0.00198807157057654,0.00198412698412698,1,0,1,0,0.00423721237909642,0.00420168067226891
"754","US Partners for Fish and Wildlife Program",1,0,1,0,0.00126103204514304,0.00125786163522013,"Tarrant","Federal Agency","Arlington, TX",-97.1080656,32.735687,NA,NA,NA,NA,NA,NA,NA,NA,NA,NA,NA,NA,NA,NA,NA,NA,NA,NA,NA,NA,NA,NA,NA,NA
"755","USDA",2,0,2,0,0.00126421847733323,0.00125786163522013,"DC","Federal Agency","Washington, DC",-77.0368707,38.9071923,NA,NA,NA,NA,NA,NA,NA,NA,NA,NA,NA,NA,NA,NA,NA,NA,NA,NA,NA,NA,NA,NA,NA,NA
"756","USDA Agricultural Marketing Service",1,0,1,0,0.00145464138692911,0.00125786163522013,"Bexar","Federal Agency","San Antonio, TX",-98.4936282,29.4241219,1,0,1,0,0.00145464138692911,0.00125786163522013,1,0,1,0,0.00272455616101248,0.00268096514745308,1,0,1,0,0.00199996819136077,0.00198412698412698,1,0,1,0,0.00421940928270042,0.00420168067226891
"757","USDA Animal and Plant Health Inspection Service",1,0,1,0,0.00126103204514304,0.00125786163522013,"Prince George's","Federal Agency","Riverdale, MD",-76.9316408,38.963444,NA,NA,NA,NA,NA,NA,NA,NA,NA,NA,NA,NA,NA,NA,NA,NA,NA,NA,NA,NA,NA,NA,NA,NA
"758","USDA Natural Resources Conservation Service",6,0,6,0,0.00146338676353771,0.00125786163522013,"District of Columbia","Federal Agency","Washington, DC",-77.0368707,38.9071923,6,0,6,0,0.00146338676353771,0.00125786163522013,4,0,4,0,0.00306478056335939,0.00268096514745308,5,0,5,0,0.00227112644259423,0.00198412698412698,1,0,1,0,0.00421940928270042,0.00420168067226891
"759","USDA Rural Development",1,0,1,0,0.00145464138692911,0.00125786163522013,"Bell","Federal Agency","Temple, TX",-97.342782,31.0982344,NA,NA,NA,NA,NA,NA,NA,NA,NA,NA,NA,NA,NA,NA,NA,NA,NA,NA,NA,NA,NA,NA,NA,NA
"760","Vargas Neighborhood Association",1,0,1,0,0.00125944584382872,0.00125786163522013,"Travis","NGO","Austin, TX",-97.7430608,30.267153,NA,NA,NA,NA,NA,NA,NA,NA,NA,NA,NA,NA,NA,NA,NA,NA,NA,NA,NA,NA,NA,NA,NA,NA
"761","Vasquez Fields Neighborhood Association",1,0,1,0,0.00125944584382872,0.00125786163522013,"Travis","NGO","Austin, TX",-97.7430608,30.267153,NA,NA,NA,NA,NA,NA,NA,NA,NA,NA,NA,NA,NA,NA,NA,NA,NA,NA,NA,NA,NA,NA,NA,NA
"762","Victoria County",1,0,1,0,0.00125944584382872,0.00125786163522013,"Victoria","Municipal/County","Victoria, TX",-97.0035982,28.8052674,NA,NA,NA,NA,NA,NA,NA,NA,NA,NA,NA,NA,NA,NA,NA,NA,NA,NA,NA,NA,NA,NA,NA,NA
"763","Victoria County Master Gardener Association",0,3,3,0,0.00125786163522013,0.00126262626262626,"Victoria","Municipal/County","Victoria, TX",-97.0035982,28.8052674,NA,NA,NA,NA,NA,NA,NA,NA,NA,NA,NA,NA,NA,NA,NA,NA,NA,NA,NA,NA,NA,NA,NA,NA
"764","Violet Crown Trail Association",1,0,1,0,0.00126262023913455,0.00125786163522013,"Travis","NGO","Austin, TX",-97.7430608,30.267153,NA,NA,NA,NA,NA,NA,NA,NA,NA,NA,NA,NA,NA,NA,NA,NA,NA,NA,NA,NA,NA,NA,NA,NA
"765","Walk Austin",1,0,1,0,0.00126103204514304,0.00125786163522013,"Travis","NGO","Austin, TX",-97.7430608,30.267153,NA,NA,NA,NA,NA,NA,NA,NA,NA,NA,NA,NA,NA,NA,NA,NA,NA,NA,NA,NA,NA,NA,NA,NA
"766","Warbler Woods Bird Sanctuary",0,6,6,0,0.00125786163522013,0.00255383477267976,"Guadalupe","NGO","Cibolo, TX",-98.2269553,29.561618,NA,NA,NA,NA,NA,NA,NA,NA,NA,NA,NA,NA,NA,NA,NA,NA,NA,NA,NA,NA,NA,NA,NA,NA
"767","Washington County Soil and Water Conservation District",1,0,1,0,0.00125944584382872,0.00125786163522013,"Washington","Municipal/County","Brenham, TX",-96.3977442,30.1668828,NA,NA,NA,NA,NA,NA,NA,NA,NA,NA,NA,NA,NA,NA,NA,NA,NA,NA,NA,NA,NA,NA,NA,NA
"768","Washington County Wildlife Society",0,10,10,0,0.00125786163522013,0.00270127749332335,"Washington","NGO","Brenham, TX",-96.3977442,30.1668828,NA,NA,NA,NA,NA,NA,NA,NA,NA,NA,NA,NA,NA,NA,NA,NA,NA,NA,NA,NA,NA,NA,NA,NA
"769","Water Environment Association",1,0,1,0,0.00146062207047777,0.00125786163522013,"Arlington","NGO","Alexandria, VA",-77.0469214,38.8048355,NA,NA,NA,NA,NA,NA,NA,NA,NA,NA,NA,NA,NA,NA,NA,NA,NA,NA,NA,NA,NA,NA,NA,NA
"770","Waterloo Greenway Conservancy",1,10,11,0.0013056096427282,0.00145493192604401,0.00253116133762632,"Travis","NGO","Austin, TX",-97.7430608,30.267153,NA,NA,NA,NA,NA,NA,NA,NA,NA,NA,NA,NA,NA,NA,NA,NA,NA,NA,NA,NA,NA,NA,NA,NA
"771","Watershed Protection Department",1,0,1,0,0.00145704916348128,0.00125786163522013,"Travis","Municipal/County","Austin, TX",-97.7430608,30.267153,1,0,1,0,0.00145704916348128,0.00125786163522013,1,0,1,0,0.0030457600890803,0.00268096514745308,1,0,1,0,0.00223578410237491,0.00198412698412698,1,0,1,0,0.00438458549941724,0.00420168067226891
"772","WE ACT for Environmental Justice",1,0,1,0,0.00125944584382872,0.00125786163522013,"New York","NGO","New York, NY",-74.0059728,40.7127753,NA,NA,NA,NA,NA,NA,NA,NA,NA,NA,NA,NA,NA,NA,NA,NA,NA,NA,NA,NA,NA,NA,NA,NA
"773","We Are Blood",1,0,1,0,0.00145463872196981,0.00125786163522013,"Travis","NGO","Austin, TX",-97.7430608,30.267153,NA,NA,NA,NA,NA,NA,NA,NA,NA,NA,NA,NA,NA,NA,NA,NA,NA,NA,NA,NA,NA,NA,NA,NA
"774","West Atlanta Watershed Alliance",1,0,1,0,0.00125944584382872,0.00125786163522013,"Fulton","NGO","Atlanta, GA",-84.3879824,33.7489954,NA,NA,NA,NA,NA,NA,NA,NA,NA,NA,NA,NA,NA,NA,NA,NA,NA,NA,NA,NA,NA,NA,NA,NA
"775","West Texas A&M University",1,0,1,0,0.00126262224695873,0.00125786163522013,"Randall","University","Canyon, TX",-101.9188024,34.9803342,NA,NA,NA,NA,NA,NA,NA,NA,NA,NA,NA,NA,NA,NA,NA,NA,NA,NA,NA,NA,NA,NA,NA,NA
"776","Westcave Outdoor Discovery Center",2,0,2,0,0.00145611927707529,0.00125786163522013,"Blanco","NGO","Round Mountain, TX",-98.3447448,30.4315837,2,0,2,0,0.00145611927707529,0.00125786163522013,1,0,1,0,0.00268817204301075,0.00268096514745308,2,0,2,0,0.00201200804803219,0.00198412698412698,2,0,2,0,0.00429153463105478,0.00420168067226891
"777","Westside Development Corporation, San Antonio",1,0,1,0,0.00145589766909683,0.00125786163522013,"Bexar","NGO","San Antonio, TX",-98.4936282,29.4241219,NA,NA,NA,NA,NA,NA,NA,NA,NA,NA,NA,NA,NA,NA,NA,NA,NA,NA,NA,NA,NA,NA,NA,NA
"778","Wilbarger Creek Conservation Alliance",1,0,1,0,0.00145496658524473,0.00125786163522013,"Travis","NGO","Austin, TX",-97.7430608,30.267153,NA,NA,NA,NA,NA,NA,NA,NA,NA,NA,NA,NA,NA,NA,NA,NA,NA,NA,NA,NA,NA,NA,NA,NA
"779","Wildcat Bluff Nature Center",0,5,5,0,0.00125786163522013,0.00129195602793489,"Potter","NGO","Amarillo, TX",-101.8312969,35.2219971,0,5,5,0,0.00125786163522013,0.00129195602793489,0,1,1,0,0.00268096514745308,0.0027173119065011,0,3,3,0,0.00198412698412698,0.0020201533388757,0,3,3,0,0.00420168067226891,0.00432868806049205
"780","Wilderness Inquiry",1,0,1,0,0.00125944584382872,0.00125786163522013,"Hennepin","NGO","Minneapolis, MN",-93.2650108,44.977753,NA,NA,NA,NA,NA,NA,NA,NA,NA,NA,NA,NA,NA,NA,NA,NA,NA,NA,NA,NA,NA,NA,NA,NA
"781","Wildlands Department",1,0,1,0,0.0014568245994191,0.00125786163522013,"Travis","State Agency","Austin, TX",-97.7430608,30.267153,NA,NA,NA,NA,NA,NA,NA,NA,NA,NA,NA,NA,NA,NA,NA,NA,NA,NA,NA,NA,NA,NA,NA,NA
"782","Wildlife Habitat Federation",1,14,15,4.76461227173537e-05,0.00125944584382872,0.00264893592177299,"Austin","NGO","Sealy, TX",-96.1571833,29.7807878,NA,NA,NA,NA,NA,NA,NA,NA,NA,NA,NA,NA,NA,NA,NA,NA,NA,NA,NA,NA,NA,NA,NA,NA
"783","Wildlife Rescue, Inc.",1,0,1,0,0.00126103204514304,0.00125786163522013,"Kendall","NGO","Kendalia, TX",-98.5222441,29.9691024,NA,NA,NA,NA,NA,NA,NA,NA,NA,NA,NA,NA,NA,NA,NA,NA,NA,NA,NA,NA,NA,NA,NA,NA
"784","Williamson County Conservation Foundation",0,4,4,0,0.00125786163522013,0.00259158680836619,"Williamson","NGO","Leander, TX",-97.8530686,30.5788055,NA,NA,NA,NA,NA,NA,NA,NA,NA,NA,NA,NA,NA,NA,NA,NA,NA,NA,NA,NA,NA,NA,NA,NA
"785","Willow Waterhole Conservancy",1,0,1,0,0.00126580865883268,0.00125786163522013,"Harris","NGO","Houston, TX",-95.3698028,29.7604267,NA,NA,NA,NA,NA,NA,NA,NA,NA,NA,NA,NA,NA,NA,NA,NA,NA,NA,NA,NA,NA,NA,NA,NA
"786","Wimberley Valley Watershed Association",8,10,18,0.0138877481329621,0.0014549532545875,0.002536020109298,"Hays","NGO","Wimberley, TX",-98.0986204,29.9974362,8,10,18,0.0138877481329621,0.0014549532545875,0.002536020109298,7,9,16,0.00939135037256939,0.00303725536622605,0.00372350009008468,3,4,7,0.000505576545155803,0.00223109336881792,0.00257805933124218,1,4,5,0.00286061646284774,0.00436520361740924,0.00489396411092985
"787","Witte Museum",1,0,1,0,0.0014567657964601,0.00125786163522013,"Bexar","NGO","San Antonio, TX",-98.4936282,29.4241219,NA,NA,NA,NA,NA,NA,NA,NA,NA,NA,NA,NA,NA,NA,NA,NA,NA,NA,NA,NA,NA,NA,NA,NA
"788","Women's Health and Family Planning Association of Texas",1,0,1,0,0.001457664395721,0.00125786163522013,"Travis","NGO","Austin, TX",-97.7430608,30.267153,1,0,1,0,0.001457664395721,0.00125786163522013,1,0,1,0,0.00268817204301075,0.00268096514745308,1,0,1,0,0.00201595934415191,0.00198412698412698,1,0,1,0,0.00430932596323436,0.00420168067226891
"789","Women in Need",1,0,1,0,0.00126103204514304,0.00125786163522013,"Rockwall","NGO","Rockwall, TX",-96.4500618,32.9090739,NA,NA,NA,NA,NA,NA,NA,NA,NA,NA,NA,NA,NA,NA,NA,NA,NA,NA,NA,NA,NA,NA,NA,NA
"790","Women Who Wander, Inc.",1,6,7,3.17640818115691e-06,0.00125944584382872,0.00257832389463293,"Uvalde","NGO","Concan, TX",-99.7214883,29.5014937,NA,NA,NA,NA,NA,NA,NA,NA,NA,NA,NA,NA,NA,NA,NA,NA,NA,NA,NA,NA,NA,NA,NA,NA
"791","Xerces Society",1,0,1,0,0.00126103204514304,0.00125786163522013,"Multnomah","NGO","Portland, OR",-122.6750261,45.5051064,NA,NA,NA,NA,NA,NA,NA,NA,NA,NA,NA,NA,NA,NA,NA,NA,NA,NA,NA,NA,NA,NA,NA,NA
"792","Yale University",1,0,1,0,0.00145637300757534,0.00125786163522013,"New Haven","University","New Haven, CT",-72.9278835,41.308274,NA,NA,NA,NA,NA,NA,NA,NA,NA,NA,NA,NA,NA,NA,NA,NA,NA,NA,NA,NA,NA,NA,NA,NA
"793","Yellow Bike Project",1,0,1,0,0.00126103204514304,0.00125786163522013,"Travis","NGO","Austin, TX",-97.7430608,30.267153,1,0,1,0,0.00126103204514304,0.00125786163522013,1,0,1,0,0.00268817204301075,0.00268096514745308,1,0,1,0,0.00199202398349353,0.00198412698412698,1,0,1,0,0.00421940928270042,0.00420168067226891
"794","Youth Backyard Gardening Initiative",0,3,3,0,0.00125786163522013,0.00126262626262626,"Bell","NGO","Killeen, TX",-97.7277959,31.1171194,NA,NA,NA,NA,NA,NA,NA,NA,NA,NA,NA,NA,NA,NA,NA,NA,NA,NA,NA,NA,NA,NA,NA,NA
"795","Zara Environmental",1,0,1,0,0.00145678450597759,0.00125786163522013,"Travis","Private","Manchaca, TX",-97.8330491,30.1405249,NA,NA,NA,NA,NA,NA,NA,NA,NA,NA,NA,NA,NA,NA,NA,NA,NA,NA,NA,NA,NA,NA,NA,NA
